{"type":"FeatureCollection","features":[{"type":"Feature","id":284,"geometry":{"type":"Polygon","coordinates":[[[103.61998959974028,-1.5509474002022898],[103.61985167161743,-1.5508149570445653],[103.61980407319948,-1.5507692508002151],[103.61921820985259,-1.5502066897868758],[103.61683333279211,-1.5479166669205711],[103.61575389272804,-1.5476928202674003],[103.6145926943974,-1.5474520177963313],[103.61433650092886,-1.5473988912457912],[103.61431634082652,-1.5473947102975671],[103.61404436605471,-1.5473383102147977],[103.61282548340938,-1.5470855458611936],[103.61280058927582,-1.5470803837526432],[103.61213150086814,-1.5469416327500767],[103.6121314720898,-1.5469416273541583],[103.6109889122086,-1.5467046901692925],[103.61097928226815,-1.5467026927749998],[103.61080555573187,-1.5466666668331754],[103.61051198643906,-1.5467463692494903],[103.60953390896276,-1.5470119102714079],[103.60951643333681,-1.5470166550945237],[103.6071070002879,-1.547670798568447],[103.60667529063221,-1.5477880054120874],[103.6066722023603,-1.5477888435802356],[103.60466666743281,-1.5483333327171067],[103.60185828972834,-1.550081404333298],[103.59377777772232,-1.5551111110888769],[103.59203929108048,-1.5565678662139817],[103.59111022935366,-1.5573463688398306],[103.59104740001754,-1.5573990160517042],[103.58961794830975,-1.5585968176889651],[103.58675000041222,-1.5609999995502903],[103.58620095890717,-1.5614592743260118],[103.58072450043539,-1.5660403407890726],[103.57944444410589,-1.5671111113886127],[103.57858288459249,-1.5676224748972345],[103.57857870634228,-1.5676249552274726],[103.56741666734536,-1.5742499999374786],[103.56713958532367,-1.573923439914779],[103.5671155401501,-1.5738951022771062],[103.56692466174383,-1.5736701395652517],[103.56689519275898,-1.5736354086471351],[103.5667507823228,-1.5734652119499515],[103.56671542997316,-1.5734235481581891],[103.56646010884702,-1.573122635001539],[103.56645631190935,-1.5731181590757615],[103.56638496689277,-1.5730340742630915],[103.56632323922616,-1.5729613227068171],[103.56610428308625,-1.5727032703396162],[103.5660207360682,-1.5726098613559429],[103.56591508191553,-1.5724917354052081],[103.56584638000652,-1.5724149243092711],[103.56555530543307,-1.5720894893383957],[103.56554507474544,-1.5720780517606272],[103.56546678786202,-1.5719905225445245],[103.56531955175598,-1.5718259070399085],[103.56517582570388,-1.5716652152773918],[103.56503666281179,-1.5715096253688898],[103.56500196336998,-1.5714708277164959],[103.56493320840093,-1.5713939572652862],[103.56490968573348,-1.5713676592899901],[103.56473222071548,-1.5711692463635814],[103.56463011708627,-1.571055089121046],[103.56336218991322,-1.5700657368442421],[103.56043890942817,-1.5683864372842322],[103.56021501960754,-1.5682578216411116],[103.56013840096648,-1.5682138079208698],[103.55809226884321,-1.5670383922079623],[103.55466580328425,-1.565876664176642],[103.55339845797249,-1.5658297951089253],[103.55275747607669,-1.5658060898791177],[103.55139530175182,-1.5657557143546796],[103.55130960175677,-1.5657600787645833],[103.55041666669587,-1.5658055556817772],[103.54896462761553,-1.566558235174341],[103.54837406531095,-1.5671003581949208],[103.5473275862991,-1.568061001414037],[103.54716811042005,-1.5682073966539747],[103.5467405448403,-1.5689402523906892],[103.54600034074321,-1.5702089736651601],[103.54522391824929,-1.5728684173435568],[103.54498224613383,-1.5774442992150171],[103.54499394811228,-1.5775810708097424],[103.54510277507308,-1.5788529792815211],[103.54526965686921,-1.5808034217404838],[103.54532226990688,-1.5814183367867827],[103.54646624711967,-1.5850805137546331],[103.54670541462326,-1.585846153377247],[103.54675000031233,-1.5870555562688651],[103.54660823658094,-1.5878677124249521],[103.54470510565613,-1.5895058338271042],[103.54190887059798,-1.5901822211325793],[103.53983357346073,-1.5898821533386354],[103.53883932257673,-1.589738394011647],[103.53696880736464,-1.5894679363960904],[103.53503888923342,-1.5891888893557393],[103.53538793140797,-1.589738394011647],[103.53661400593171,-1.5916686332008112],[103.53791666672083,-1.593719443597422],[103.53870626967864,-1.59505857009691],[103.54142213772155,-1.5996645396867279],[103.5416004588941,-1.5999669628050697],[103.54203176115692,-1.600698428189844],[103.54490052833677,-1.6029778939146127],[103.54564431173566,-1.6048530523264617],[103.54659326376816,-1.6072454612090041],[103.54662581742758,-1.6073275306409869],[103.54715471232015,-1.6086609311569759],[103.54745676941445,-1.6094224491866385],[103.54758095859444,-1.6097355445596691],[103.54759606001022,-1.6097736173584849],[103.5480481617933,-1.6109134127237894],[103.54828600009887,-1.6115130276040759],[103.54826168602807,-1.6115770080724019],[103.54810076403908,-1.6120004556564709],[103.54765635595612,-1.6131698665960243],[103.5476430082183,-1.6132049914171489],[103.54757178640887,-1.613392402936995],[103.54748212220221,-1.6136283436730992],[103.54660767540395,-1.615929353556794],[103.54614190212715,-1.6171549847147162],[103.54599189700849,-1.6175497061539659],[103.54593003174563,-1.6177124969341321],[103.54574767171772,-1.6181923580908233],[103.54558317582297,-1.6186252116841047],[103.54478899981257,-1.6207149995975101],[103.54463995157255,-1.6212338949282525],[103.54460446342529,-1.6213574473882204],[103.54445290787544,-1.6218850733374097],[103.5442148708197,-1.622713778817797],[103.54396167029489,-1.6235952780995717],[103.54392493209002,-1.623723179680951],[103.54385519596059,-1.6239659606604846],[103.54295609784572,-1.6270960933100014],[103.54245100081312,-1.628854545800607],[103.54124904161006,-1.6330390634020091],[103.54080497167217,-1.6345850555558172],[103.54080421534235,-1.6345877211463744],[103.54077239642902,-1.6346998045522696],[103.54068367381257,-1.6350123315538099],[103.54013338494781,-1.6369507500770055],[103.53988262068646,-1.6378340767811892],[103.53849065092288,-1.6427373487496197],[103.53840548422579,-1.6430373535909553],[103.53794807284532,-1.6446486032504026],[103.53783333284207,-1.6450527783629809],[103.53613814226151,-1.645755848553506],[103.53390129990515,-1.6466835657938645],[103.52675555582431,-1.6496472222414695],[103.52808780520809,-1.652030578548306],[103.52808904986983,-1.6520328061690179],[103.53098788858023,-1.6572187503450095],[103.52881861138985,-1.6661527783280121],[103.52811427225595,-1.6676803991310862],[103.52782266078725,-1.668312866245742],[103.52597387769237,-1.6723226383790006],[103.52421944427198,-1.6761277778746262],[103.52710009059678,-1.6769931379229206],[103.54275000021238,-1.6816944437435382],[103.54809750039936,-1.6799449997618581],[103.55928055565317,-1.6806333327620564],[103.56832611126106,-1.6805277775348486],[103.56859166667215,-1.6717111110788778],[103.56898499775951,-1.6713634232833101],[103.57005706428214,-1.6704157626772371],[103.57297222209041,-1.6678388893532201],[103.57611111143871,-1.669369443744813],[103.57667277762664,-1.6694570278195329],[103.57904771807779,-1.6702289590991199],[103.57972777821448,-1.6704499998675715],[103.58030309161444,-1.6701074948649648],[103.58143083336631,-1.6694361113873697],[103.58675613558722,-1.6720801865513408],[103.58746545786465,-1.6724323736550559],[103.58754086601823,-1.6724698151298298],[103.58855833290079,-1.6729750002959918],[103.59138974044424,-1.674158195144571],[103.59175910729704,-1.6743125466866218],[103.59576666709808,-1.6750472217518109],[103.59607093562522,-1.6750969938311755],[103.59716011534709,-1.6752751612196448],[103.59995716339245,-1.6774396207418363],[103.60053276727348,-1.6778850450587584],[103.60091552323286,-1.6782891743059167],[103.60168910296977,-1.6791059529772951],[103.60195811627409,-1.6793899867584514],[103.60217336900581,-1.6796172598286034],[103.60573789129069,-1.6834044191785438],[103.60749196138499,-1.6852680482817277],[103.61055377343797,-1.688521100268531],[103.61163993413572,-1.6896751013248377],[103.61321916703099,-1.6913529718621021],[103.61555039143747,-1.690759241245928],[103.61615175010326,-1.6906060831042282],[103.61626010402063,-1.6907234167522347],[103.62083334997919,-1.6956756945775737],[103.62125416704623,-1.6961313891522423],[103.62131212295617,-1.6940238603128819],[103.62141394419825,-1.6903212498257858],[103.62141666734539,-1.6902222218780025],[103.62069869358987,-1.6890844436920815],[103.62343855644428,-1.6852468890326691],[103.62683850099609,-1.6798218870703749],[103.62727441678095,-1.6791263334135351],[103.62849271846426,-1.6768251643497933],[103.6286772215766,-1.6764766671644225],[103.62629583298639,-1.6767083334228232],[103.62661564899309,-1.6738556083495837],[103.62663916716389,-1.6736458333884343],[103.62292076008509,-1.6723489516427321],[103.6217936109864,-1.6719558327953905],[103.61831287134197,-1.6692213640746445],[103.61822197596348,-1.6690833720999194],[103.61670749965145,-1.6667841671555266],[103.6162194438723,-1.6663083331629878],[103.61504746626764,-1.6654937002739985],[103.60973168696785,-1.6617987394202487],[103.6086706470328,-1.661061218000782],[103.6082842748994,-1.6607926525588255],[103.60787643504949,-1.6605091673641255],[103.60781888923043,-1.6604691673181833],[103.60790686810753,-1.6603771828606568],[103.60794445437313,-1.6603378860845055],[103.60847696903693,-1.6597811247989966],[103.60896869225138,-1.6592670147608715],[103.6089963014382,-1.6592381483218333],[103.60957506733553,-1.6586330322885487],[103.60980146986202,-1.6584380250947106],[103.60985176085012,-1.6583947083490784],[103.60997027890528,-1.6582926254042718],[103.61102297672903,-1.6573859046357597],[103.61103064974475,-1.657381354965537],[103.61115924560278,-1.657305096952598],[103.61177617423112,-1.6569392572408788],[103.61186111070174,-1.6568888889110553],[103.61209825563003,-1.6568711030189434],[103.61216072343871,-1.6568664175511003],[103.6128231874402,-1.6568167336052966],[103.61297222219036,-1.6568055559316122],[103.61362683960704,-1.6576279130976559],[103.61369049002417,-1.6577078718207758],[103.61631111086911,-1.6610000002497713],[103.61752777758494,-1.6626666670330223],[103.61758416507723,-1.6626967763351104],[103.6176925189946,-1.66275463511829],[103.61797438900692,-1.6629051483538433],[103.61840647098194,-1.6631358721227798],[103.619632730766,-1.6637906712024915],[103.62001103058464,-1.6639926760211097],[103.62125986335207,-1.6646595278149334],[103.62133916736872,-1.6647018750913958],[103.62325000008747,-1.6657222216031755],[103.62325194082445,-1.665717001038729],[103.62418832393206,-1.663198125892734],[103.62457539124136,-1.6621569133108665],[103.62458520644219,-1.6621305110141975],[103.62459366726398,-1.6621077500725505],[103.62750888892413,-1.6573847220272455],[103.62787614237016,-1.6568804505723165],[103.62801273769776,-1.6566928915636367],[103.62923757025771,-1.655011088291019],[103.63077650003549,-1.6528979998427644],[103.63324999988765,-1.6535555562438731],[103.63461111121387,-1.6548888893107687],[103.63647222221533,-1.6555000002247766],[103.64047222231528,-1.6541944436186213],[103.64430555645635,-1.6543888887361504],[103.64713875005333,-1.655898917001366],[103.64956379443362,-1.6570384632544233],[103.64981072488513,-1.657154498281443],[103.64983183287285,-1.6571644169042656],[103.64985752920165,-1.6571460383589169],[103.6511665284126,-1.656209786552381],[103.65130504559141,-1.6561107127391779],[103.65161813107193,-1.6558867815496683],[103.65248589680675,-1.655266118936197],[103.65316855328615,-1.6547778536150304],[103.65470692908156,-1.6536775438834752],[103.65529202440746,-1.6532590587585219],[103.6552924174112,-1.6532587781700272],[103.65531945283055,-1.6532078360727382],[103.65572722613064,-1.6524395119738529],[103.65576012692839,-1.6523775199065653],[103.65595647860869,-1.6520075550046158],[103.65604731643054,-1.6518364005294188],[103.65874767116816,-1.6467484060140691],[103.65881380371411,-1.6466237986493297],[103.65903532921715,-1.6462064026033545],[103.65935606343163,-1.6456020779734786],[103.66032991589299,-1.6437671480354084],[103.66047783278583,-1.643488443636727],[103.6614508030122,-1.6431566360698753],[103.66226677229378,-1.6428783687416626],[103.66389694998429,-1.6423224357317849],[103.66918194908772,-1.6405201161103946],[103.66929302435364,-1.6404822357665125],[103.66931880611804,-1.6404734439942104],[103.66947152269267,-1.6372686793060325],[103.66951702838821,-1.6363137665670138],[103.66953896195361,-1.6358534791547186],[103.66955294641139,-1.6355600285723995],[103.66945645365246,-1.6342391007538595],[103.66941666674586,-1.6336944443430639],[103.6694728294076,-1.6336642828803178],[103.67063929866475,-1.6330378457199686],[103.67091666667091,-1.6328888892108466],[103.67092153560043,-1.6325724069909597],[103.67092189083263,-1.6325493034075862],[103.67094101761393,-1.6313059960747864],[103.67094444403091,-1.6310833329294496],[103.67185336274258,-1.6310115769226741],[103.67199999990015,-1.6309999999500064],[103.67298638801145,-1.6293716892520251],[103.67305728966227,-1.6292621922962667],[103.67318794316913,-1.6290604186033875],[103.67327843115476,-1.6289206747492813],[103.67334933820143,-1.6288111696997021],[103.67385887338838,-1.6280242728018948],[103.67450620090051,-1.6270245747243166],[103.67491881075455,-1.6263873618871685],[103.67558333330425,-1.6253611113261854],[103.67826525373852,-1.6228092661346523],[103.67844294358702,-1.6226401935900299],[103.67891145260154,-1.6220372251377739],[103.67921311219544,-1.6216489923070867],[103.67960430469498,-1.6211455302419608],[103.67988911728901,-1.6207789791665164],[103.68105555596918,-1.6192777777471861],[103.6810442883633,-1.6192124240141084],[103.68099463499448,-1.6189244368132449],[103.68093679689571,-1.6185889770995914],[103.68089934372978,-1.6183717467586689],[103.6808367320296,-1.6180085960198198],[103.68083126415161,-1.6179768841258806],[103.68075553404071,-1.6175376507419514],[103.68053981096358,-1.6162864608514269],[103.68053167389769,-1.6162392680277549],[103.68042364373622,-1.6156126923718261],[103.68015873673636,-1.6140762285350547],[103.67998788533271,-1.6130852916528511],[103.67994444358129,-1.6128333330918281],[103.67901064422591,-1.6124598833168875],[103.67845615642653,-1.6122381293861281],[103.67703953264839,-1.6116715852754169],[103.67380423058086,-1.6103777063660232],[103.66925199728189,-1.6085571520908388],[103.66666668382044,-1.6069194173971368],[103.66519365366423,-1.6060711777425922],[103.6651107523594,-1.6060234390304231],[103.66458938659099,-1.6057232129558656],[103.66425000043722,-1.6055277776847561],[103.66400553592678,-1.6057232129558656],[103.66346864246395,-1.6061524278921979],[103.66305824943873,-1.6064805131650814],[103.66078279289167,-1.6082996078405927],[103.66072636223191,-1.6083447205323864],[103.65963888942326,-1.6093055562063796],[103.65962946093094,-1.6093046002270626],[103.65823258176829,-1.609162886857689],[103.65797018387696,-1.6091362669251339],[103.6577222219031,-1.6091111110888505],[103.65744444380607,-1.6106944439933386],[103.65733847758872,-1.6105476233740887],[103.65511803616852,-1.6074710849225653],[103.65507459801432,-1.6074108995932761],[103.65507417803093,-1.607410317731933],[103.65506624960778,-1.6073993334124452],[103.65485368944627,-1.606056078125448],[103.6547737172333,-1.6055507023030486],[103.65455729088632,-1.6041830223285842],[103.65427777799709,-1.6024166665958433],[103.65427852623304,-1.6024142986809125],[103.65448777958744,-1.6017516620095194],[103.65459102625493,-1.6014247161776893],[103.65477777767234,-1.6008333327920354],[103.65545190857875,-1.6002243550698836],[103.65604333603119,-1.5996900894260193],[103.65622003932344,-1.5995304651588071],[103.6562795312754,-1.5994767216733408],[103.65677775029297,-1.5977360829538156],[103.65677739146349,-1.597735106290088],[103.65677659916076,-1.5977329524137645],[103.65677615399636,-1.597731741026962],[103.65677545971977,-1.5977298542493372],[103.65675806413338,-1.5976825328226028],[103.65675727362935,-1.5976803825435582],[103.6567540576537,-1.5976716348380364],[103.65675263222823,-1.5976677560620374],[103.65671512240505,-1.5975657189827075],[103.65671229493654,-1.5975580288798596],[103.65665956228901,-1.5974145807182936],[103.65664486736682,-1.5973746058533038],[103.65659901093568,-1.5972498662882231],[103.65653115259067,-1.5970652759417021],[103.65652425568993,-1.5970465133858625],[103.65642373846481,-1.5967730781150067],[103.6564134700057,-1.5967451469709317],[103.65637241685363,-1.5966334727565368],[103.65631982090309,-1.5964903978135681],[103.65630726726664,-1.5964562469581551],[103.65629453916171,-1.5964216248580669],[103.65629218023997,-1.5964152072959337],[103.65622729505367,-1.5962387018545314],[103.65621755359729,-1.5962122033304809],[103.65617035088104,-1.5960837990280652],[103.65610408523543,-1.5959035389171277],[103.6559641606176,-1.5955229089550471],[103.65573254562054,-1.594892855620742],[103.65555181066759,-1.5944012097479572],[103.65546600904912,-1.5941678059994047],[103.65524431986955,-1.5935647548095631],[103.65519329683326,-1.5934259597402161],[103.65516977236717,-1.5933619657820373],[103.65513278415074,-1.5932613487321987],[103.65478372758702,-1.5923118265295102],[103.65448098700801,-1.5914882939495669],[103.65444444395598,-1.5913888891858505],[103.65421763043935,-1.5909360265763439],[103.65410126176386,-1.5907036849270639],[103.65395094368114,-1.5904035559792646],[103.65392353324455,-1.5903233571371516],[103.65273026778766,-1.5868320738410944],[103.6525698098489,-1.5863626007533753],[103.65200112715036,-1.5846987335596623],[103.65182645542666,-1.5841876749212247],[103.65168144244467,-1.583763390967647],[103.65163888922342,-1.5836388888236002],[103.65163729832273,-1.5836071562451934],[103.65163596193014,-1.5835804967424565],[103.65163291412773,-1.5835196890823227],[103.65162794177616,-1.5834205001559098],[103.65155834234366,-1.5820320287550658],[103.65154216713734,-1.5817093466089887],[103.65151295445935,-1.5811265706346944],[103.65143781880033,-1.5796276822716777],[103.65142578407273,-1.5793876001575882],[103.65140648282301,-1.5790025518262496],[103.65138485322848,-1.5785710553099079],[103.6513398763343,-1.5776737810201098],[103.6513174256587,-1.5772259213391635],[103.65119223823126,-1.5747285022185338],[103.65088762616307,-1.5686516788318841],[103.65084530586626,-1.5678074168787361],[103.65084523571909,-1.5678070175797529],[103.64986463474514,-1.5621834902757996],[103.64963888872381,-1.5608888892108439],[103.6505312769969,-1.5576999148191817],[103.65084768906968,-1.556569208002486],[103.65133896532103,-1.5548136189532897],[103.65152777798465,-1.5541388890983967],[103.64908333342913,-1.5507222216531318],[103.63918916674669,-1.5505175827202038],[103.63807895188216,-1.5506610173919739],[103.63806253295957,-1.5506631379933538],[103.6341571847064,-1.5511676855402357],[103.63297665095172,-1.5513202042639591],[103.63073591722883,-1.5516096942319564],[103.62899999995011,-1.5512499995877533],[103.6217222219031,-1.552611110913972],[103.61998959974028,-1.5509474002022898]]]},"properties":{"OBJECTID":284,"nama_kawasan":"Kawasan Perkotaan Jambi ","delineasi_asal":"Kota Jambi","Shape_Length":0.62820289441624155,"Shape_Area":0.01380715826005755}}]}