{"type":"FeatureCollection","features":[{"type":"Feature","id":291,"geometry":{"type":"Polygon","coordinates":[[[101.32045609976927,-2.0266438891041503],[101.32043396475575,-2.0266431291770459],[101.30552000004803,-2.0261311109619555],[101.29966413019554,-2.0262275002988304],[101.29063057514099,-2.0263761951052857],[101.2891169001249,-2.0264011108225759],[101.2830405830565,-2.0283244045475612],[101.28303291813472,-2.028326830918445],[101.27157999971729,-2.0319519441268881],[101.26181962607495,-2.0422942330923206],[101.25883190017214,-2.0454599995792933],[101.25691520477295,-2.0475858080385478],[101.25513988190011,-2.0495548196990967],[101.24608582679951,-2.0595966811418975],[101.24595310035534,-2.0597438893689741],[101.24594707489763,-2.0597505668351346],[101.24454223403694,-2.0613075801806531],[101.24453608177481,-2.061314398840409],[101.2430407915993,-2.0629716587150142],[101.24303941024067,-2.0629731902604931],[101.24180293775544,-2.06434359697937],[101.24179266839701,-2.0643549796985212],[101.24074648166487,-2.0655144882030072],[101.24074501397126,-2.0655161159759245],[101.24043847465595,-2.0658558591605356],[101.24043715714913,-2.0658573196595285],[101.24009463146211,-2.0662369486761918],[101.24009388772282,-2.0662377715558478],[101.23972874768361,-2.0666424637786349],[101.23972855522868,-2.066642677817299],[101.23970100989374,-2.0666732071027809],[101.23968495339795,-2.0666910028874099],[101.23968305582844,-2.0666930560396395],[101.23968940504204,-2.0667027750130273],[101.23968946529664,-2.0667028658445474],[101.24368333291955,-2.0728166666557968],[101.24145712594566,-2.0938456255751134],[101.24105555616904,-2.0976388886237487],[101.25721666741532,-2.0953833331742544],[101.26106666689321,-2.1018999996852017],[101.26305805818288,-2.1233144682880152],[101.26332875232015,-2.1262253830948907],[101.26343333268221,-2.1273499997026875],[101.26552133274339,-2.137565137121328],[101.26560000004002,-2.1379500001922906],[101.26620603877774,-2.1428538261430958],[101.26642650038275,-2.1446377096625042],[101.26778333273467,-2.1556166673752273],[101.26923445270791,-2.1675046885904408],[101.26995000009248,-2.1733666666382874],[101.27248139020406,-2.1898881047521854],[101.27276666684827,-2.1917499999624965],[101.27279440373883,-2.1920375599853514],[101.27440000025985,-2.2086833329693718],[101.27530816264164,-2.2167042298162869],[101.27648333283958,-2.2270833325297303],[101.27872390558383,-2.2431816962782136],[101.27891666717051,-2.2445666666183115],[101.27921367457151,-2.2469386662863826],[101.27928396738128,-2.2475000321007315],[101.27972221061157,-2.2510000001498156],[101.28157731683979,-2.2497657399968602],[101.28215627429267,-2.2493805423781055],[101.29475005017474,-2.2410013205544601],[101.29759823996687,-2.2391062367633481],[101.32581699715678,-2.2203294347555698],[101.33857655676275,-2.2118385845829494],[101.33882847125699,-2.2116709446582945],[101.34531084032307,-2.2073571018487428],[101.35100177900898,-2.2035698543652416],[101.3544279262079,-2.2012897582156938],[101.35891647311678,-2.1983025970871495],[101.35997842226641,-2.1975958549646748],[101.36972219981971,-2.1911111107891088],[101.37029270364542,-2.1882585628823108],[101.37083329961712,-2.1855555560440507],[101.36873940629863,-2.1750859788348293],[101.36861110002229,-2.1744444438559754],[101.37093417297376,-2.175045709891549],[101.37260764222896,-2.175478844073325],[101.37402621393869,-2.1758460039898182],[101.38701375078404,-2.179207486336395],[101.39198114801161,-2.1804931661266664],[101.39222219959487,-2.1805555556942977],[101.39236746888366,-2.1804699510273622],[101.40777779101228,-2.1713888883864456],[101.40885562308858,-2.1699742260296375],[101.40999999960036,-2.1684722224150619],[101.41041480110226,-2.1679277926334635],[101.41164970696849,-2.1663069687915026],[101.41222220908776,-2.1655555555444153],[101.41442462989284,-2.159131938288283],[101.41555392927046,-2.1558382063680597],[101.41555397423656,-2.1558380759663578],[101.41555560021084,-2.1558333329419384],[101.41555560021084,-2.1508333325921853],[101.41500000084943,-2.1481944492144294],[101.41462797470132,-2.1464274666541883],[101.41444439968933,-2.1455555559440995],[101.41386231709231,-2.1408988457051237],[101.41333438627299,-2.1366753559828453],[101.41333329989192,-2.1366666667332197],[101.41219613414432,-2.1318146804031244],[101.41029162186089,-2.1236886321246402],[101.40993558206151,-2.1221695027203396],[101.40916759071177,-2.1188926897457918],[101.40916670038297,-2.1188888892108366],[101.41229252438058,-2.1168049846622807],[101.41382066499176,-2.1157862137627035],[101.41583330006682,-2.1144444441557084],[101.41585461130131,-2.1143236849900404],[101.41750000012496,-2.1049999996502038],[101.41750115125717,-2.1049993818159578],[101.41927093610485,-2.1040497489966583],[101.4207499998127,-2.1032561107808192],[101.42966822221075,-2.104635946891392],[101.4334431004188,-2.1052199999029995],[101.43375207869553,-2.105167027136531],[101.43535807991151,-2.1048916880009756],[101.43875828526672,-2.1043087447527],[101.44004048018405,-2.1040889207670261],[101.44455244813702,-2.1033153716070387],[101.4445610996151,-2.1033138886249958],[101.44677743383158,-2.1008972852814622],[101.44787068028774,-2.099705252795161],[101.4517676027927,-2.095456201642321],[101.45237690786809,-2.0947918400713093],[101.45381390039125,-2.0932249998338079],[101.45352021508592,-2.0926167712469237],[101.45206395009126,-2.0896008120278111],[101.45045962431226,-2.0862782145679262],[101.44885499995831,-2.0829550001730581],[101.44828928592187,-2.0812065391504007],[101.44786364938795,-2.0798910126600845],[101.4472413652968,-2.0779677090424684],[101.44693400759843,-2.0770177551652296],[101.44665810009133,-2.0761650000146687],[101.44668649528558,-2.0743547483729117],[101.44672690002648,-2.0717788885847881],[101.44286809978303,-2.0671238888563153],[101.44391882269559,-2.0655125843382507],[101.44561974735353,-2.0629041816825975],[101.44429631762102,-2.0607296623439879],[101.44410547878488,-2.0604160948268486],[101.4430652950274,-2.0583113376980009],[101.44254068630369,-2.0572088498085463],[101.44183619788231,-2.0557283399908783],[101.44138482185213,-2.0534311081590886],[101.44072276434417,-2.0500616803022353],[101.44061513528032,-2.0495139239283731],[101.43995509495176,-2.0473144708860787],[101.44152274008246,-2.046854396613071],[101.44157090327462,-2.0468402619684412],[101.44385308764993,-2.0456985861208068],[101.44493922316667,-2.0448368422464114],[101.4402554352402,-2.0403389567773615],[101.43953540473518,-2.0394433219516941],[101.4382091196552,-2.0377935741141187],[101.43779255997873,-2.0372754207240291],[101.43759582968386,-2.0370213217765354],[101.43623207614945,-2.0352598799394741],[101.43590332537821,-2.0348176778934999],[101.43558259745896,-2.0343862677120228],[101.43296244066414,-2.0308619082504151],[101.4328791481542,-2.0307258660058665],[101.43173205928719,-2.0288523425614926],[101.42944121444054,-2.027001994646298],[101.42800859442116,-2.0271384101095009],[101.42741548433719,-2.0271948866346747],[101.42717643284618,-2.0272176502742809],[101.42418531559991,-2.028235635166368],[101.42317099004919,-2.0291998738750294],[101.42188775101897,-2.0294896093579382],[101.42033448784639,-2.0298403116809709],[101.41577243125278,-2.0304303865530642],[101.41570773582339,-2.0304387547446936],[101.41438486187195,-2.0306564743167996],[101.41225580775938,-2.0310068735682876],[101.40944089378229,-2.0311623906317777],[101.40893103663808,-2.0311905591968866],[101.40604652772515,-2.0309566958947585],[101.40601190022909,-2.0309538891106627],[101.40269587771263,-2.0303651919999766],[101.40240690035824,-2.0303138892745096],[101.40161839457329,-2.0301960061407271],[101.40097434419067,-2.0300997193265289],[101.40087743234767,-2.0300852312483926],[101.39633840199571,-2.0294066397046322],[101.39330999975675,-2.0289538886109995],[101.39209829010406,-2.0290059215859628],[101.38985742777811,-2.0291021490448884],[101.38970460058692,-2.0291087122971589],[101.38948076202763,-2.0291183242512147],[101.38924503083359,-2.0291284470201845],[101.38911018288871,-2.0291342377548176],[101.38807795363471,-2.0291785635398014],[101.38695764028296,-2.0292266727726656],[101.38584401159193,-2.0292744942224772],[101.38316143195459,-2.0293896892827092],[101.38098155985119,-2.0294832970164975],[101.38094189974896,-2.0294850003324427],[101.32045609976927,-2.0266438891041503]]]},"properties":{"OBJECTID":291,"nama_kawasan":"Kawasan Perkotaan Sungaipenuh","delineasi_asal":"Kota Sungai Penuh","Shape_Length":0.77536583621502553,"Shape_Area":0.029666418722345315}}]}