{"type":"FeatureCollection","features":[{"type":"Feature","id":317,"geometry":{"type":"Polygon","coordinates":[[[106.14026121568264,-2.07031781311656],[106.13846944780681,-2.0664793303567421],[106.13827141169634,-2.0660550805774847],[106.13815549807782,-2.0658818207893432],[106.13764484863094,-2.0651185337932247],[106.13566634822342,-2.062161190586437],[106.13551375485594,-2.0619331054284089],[106.13380640813926,-2.0593810650840396],[106.13149321334117,-2.0577657837638412],[106.13124572890734,-2.05759296824084],[106.13117267877618,-2.0575419577950811],[106.13087903304103,-2.0573369078719566],[106.12916636773372,-2.0574458256642743],[106.12894527120739,-2.0575862152315949],[106.12893463492554,-2.05759296824084],[106.12656273328355,-2.059099038589693],[106.12437057734036,-2.0610349956684786],[106.12367426195766,-2.0616499331978275],[106.12324101176335,-2.0619331054284089],[106.1228920433332,-2.062161190586437],[106.12103498018024,-2.0633749659818363],[106.11947355116354,-2.0639069149721081],[106.11912513042051,-2.0640256146903084],[106.11839511294414,-2.0642743168062339],[106.11747789618801,-2.0651428226830717],[106.11711205197969,-2.0664291805621815],[106.11683182143145,-2.0667420358162758],[106.11579282837641,-2.0679019849885663],[106.11540218176532,-2.0681509793841428],[106.11433347600916,-2.068832162774072],[106.11425916233054,-2.0688795300662264],[106.11290518892338,-2.0697725163884684],[106.11268985075606,-2.069914538225305],[106.11233344223461,-2.0700924313205746],[106.11174095538087,-2.0703881562883453],[106.11119170073647,-2.0706623020235497],[106.1109795425719,-2.0706717323145654],[106.110828310778,-2.0706784538475063],[106.11053516056927,-2.0706914841246657],[106.110441747089,-2.0706539680061837],[106.11004712277656,-2.0704954813813288],[106.10996408027813,-2.0704621300232589],[106.10994505691889,-2.0704423098646885],[106.10959932065219,-2.0700820972109568],[106.10957842670308,-2.0700603282215297],[106.1095529965736,-2.0699602498655736],[106.1094093001991,-2.0693947471697811],[106.10939236776363,-2.0693281128021113],[106.1093961440169,-2.0692948046115021],[106.10947927644753,-2.0685614389591933],[106.10949167090394,-2.0684520975862029],[106.10989809612028,-2.0675303509448781],[106.10994769013388,-2.0674178745352378],[106.10984727992809,-2.0666999592356774],[106.10951298483644,-2.0663529072608071],[106.10946337463508,-2.0663014039865857],[106.10941877995282,-2.066255107786958],[106.10934964187254,-2.0662361896484072],[106.1081625160873,-2.0659113563239657],[106.10652104920712,-2.0658119875331522],[106.1062837433002,-2.0661706506549535],[106.10623588587748,-2.0662429813284575],[106.10611140801512,-2.0668823957059317],[106.10590876917439,-2.0679233034176718],[106.10515326221332,-2.06931673008296],[106.10446398042842,-2.0701596520462431],[106.10373471298669,-2.0710413347896974],[106.10370338510319,-2.0710792106370377],[106.10346742907865,-2.0716143387306829],[106.10332336488142,-2.0719410633293478],[106.10328810696063,-2.0723631295547307],[106.10322899362319,-2.0730707656032905],[106.10341971284953,-2.0736641688662303],[106.10391468621384,-2.0739127252920184],[106.10442838526183,-2.0737209007988895],[106.10505504905132,-2.0729316872475465],[106.10518895360741,-2.0727630481760571],[106.10529982382786,-2.0727257802705026],[106.10615929781341,-2.0724368793584631],[106.10682533572071,-2.0723789720119044],[106.10745340425126,-2.0724551158108966],[106.10815768942587,-2.0726652298164367],[106.10849149978293,-2.0731883312764126],[106.10863397757606,-2.0734116005648389],[106.10861631668973,-2.0740398030943652],[106.10859683737419,-2.0747327253349681],[106.10855053128205,-2.0753123392929638],[106.10851514745616,-2.0757552347162687],[106.10848363790961,-2.0761496341982024],[106.10837774363802,-2.0765235057551195],[106.10826397040597,-2.0769251969402376],[106.10817989188854,-2.077222041563914],[106.10778057761161,-2.0777009827141342],[106.10692457680784,-2.0782568311877867],[106.10593530636936,-2.0787361860261058],[106.10589663282343,-2.0787420091363629],[106.10522724134415,-2.0788427916614864],[106.10504094858095,-2.0788708397174105],[106.10420335060422,-2.0785267959748239],[106.10374658403771,-2.0784888239000452],[106.10354358097152,-2.0787077143894521],[106.10329411982781,-2.0791674019540096],[106.10315887887924,-2.0796772689907357],[106.10312052279397,-2.0797405129142703],[106.1027056421517,-2.0804246029130695],[106.10253157657104,-2.0807116143494682],[106.10198961542847,-2.0813151062071142],[106.10141894612752,-2.0816888608521822],[106.10095515315783,-2.0818112450928652],[106.10046987358584,-2.0818259463103459],[106.09972536983003,-2.0815483327892821],[106.09972033722386,-2.0815464559041743],[106.09922056058048,-2.0812380702806763],[106.09872782203144,-2.080786081812164],[106.09859196774516,-2.0804128226935745],[106.09859887184052,-2.0800753628876123],[106.09881280077019,-2.0798310962280766],[106.09908364419488,-2.0797317948863565],[106.09928369568604,-2.0796584488782628],[106.09976169614544,-2.0794379306159385],[106.09977115521468,-2.079423634992736],[106.09996131146539,-2.079136235049134],[106.09998574514606,-2.0790178294092243],[106.10003243794671,-2.0787915500899317],[106.09974208373023,-2.078159788043763],[106.09974207024038,-2.0781597565674588],[106.09891745397738,-2.07636552454926],[106.09814728357031,-2.0754674147893297],[106.09811751241335,-2.0754326973610659],[106.09798479676101,-2.0754031231555814],[106.09793204342913,-2.075391367217776],[106.09760360022602,-2.0753181776917131],[106.09753535067597,-2.0753469766816011],[106.09699003326347,-2.075577081716915],[106.09617037136559,-2.0761541847677449],[106.09580593279765,-2.0764107766360098],[106.09576857585915,-2.0764519979612714],[106.09520691506714,-2.0770717468635667],[106.09517496215483,-2.0770977480625561],[106.09492613413386,-2.077300231320578],[106.0948360202662,-2.0773735611408597],[106.09450769667291,-2.0773163498695908],[106.09343649709672,-2.076283188918012],[106.09270829804956,-2.0758959804151118],[106.09226580012665,-2.0758532077592804],[106.09192333199621,-2.075982684952919],[106.09105304096511,-2.0765289619420173],[106.09066793237923,-2.0769169447611375],[106.09032181300131,-2.0772768939134494],[106.09022577799732,-2.0773767672239956],[106.0902092772364,-2.0775405715401121],[106.09015489343363,-2.0780804489535285],[106.09049779503727,-2.0785828048524877],[106.09079907961387,-2.0790426857712987],[106.08984062624398,-2.079282231889465],[106.08896205245679,-2.0782525333277135],[106.0887129672297,-2.07796060259966],[106.08851446167313,-2.0777279533822934],[106.08716613600842,-2.07737118962865],[106.08680591795883,-2.0772758767802202],[106.08634929798177,-2.0771550573599598],[106.08550673304933,-2.0771599703563197],[106.0851637729898,-2.077161969549195],[106.08384298546548,-2.077169672242519],[106.08383319544566,-2.0771697288998325],[106.08379451740313,-2.077169334097448],[106.08342946279953,-2.0771656091055206],[106.08310259520869,-2.0771622726207397],[106.08269557823843,-2.0771581186522212],[106.08140930039895,-2.077131856649828],[106.08078237940333,-2.0771190565991446],[106.0804020821904,-2.0771112918525887],[106.07911736017809,-2.0769207093232467],[106.07909646532966,-2.0769169015936768],[106.07903444178612,-2.0769056007128484],[106.07754710611414,-2.076634589114974],[106.07749359195577,-2.0766276643352057],[106.07734042122354,-2.0766078441766354],[106.07700971442682,-2.0765650508363933],[106.07586277664586,-2.0764166384170721],[106.07530675280447,-2.0763446890560999],[106.0747873646452,-2.0762774809209645],[106.07476951939788,-2.0762705453493595],[106.07465204365695,-2.0762248867690687],[106.07465200858337,-2.0762248732792159],[106.07404971911933,-2.0759907869452263],[106.07367129339553,-2.0757671804109918],[106.07324057659139,-2.0755126758692768],[106.07301250941981,-2.0754745940772068],[106.07290644157905,-2.0754568828288598],[106.07278613387302,-2.0754367937729512],[106.07238408385842,-2.0753696611808437],[106.07163276234218,-2.0754608866105855],[106.0715369170951,-2.0754725238378455],[106.07119474124437,-2.0755140707177588],[106.07070129492888,-2.075398588773794],[106.07063034201673,-2.0753819836915568],[106.07060978531342,-2.0753771732179302],[106.07048096372557,-2.0753470252449802],[106.07015224083329,-2.0751208601395206],[106.06914887262241,-2.0744305333423654],[106.06779977623876,-2.0735023421593155],[106.06771521658402,-2.0734441650161557],[106.06764383289664,-2.0733950521399152],[106.06756559637523,-2.0733412241181668],[106.06655399846829,-2.072645235189384],[106.06652245834482,-2.0726768571511798],[106.06609229732175,-2.0719465455965747],[106.06598247391213,-2.071760091854685],[106.06595670383888,-2.0717045551210731],[106.06575377181917,-2.0712672211053018],[106.0656484450198,-2.0704321619147095],[106.06562941086867,-2.0702812556753543],[106.0653814776731,-2.0694868377473199],[106.06531478664817,-2.0693624309313918],[106.06542749058627,-2.0691991985841014],[106.06546688718714,-2.0691421419962239],[106.06544668032012,-2.069052389656008],[106.06540008104895,-2.0688454151837163],[106.0652477502835,-2.0687210650251018],[106.06510229843241,-2.0686646388619465],[106.06482895938905,-2.0685586006987933],[106.06462553004422,-2.0685029308655203],[106.06463154111282,-2.0684809658238805],[106.06352738318225,-2.0684853473208591],[106.0626083479969,-2.0681566873811903],[106.06205626228672,-2.0682229071613847],[106.06129224324252,-2.0679361385419384],[106.06129215331026,-2.0679361043676749],[106.0610408287713,-2.0678417726796283],[106.06064821624227,-2.0676944088698406],[106.06040777979524,-2.0676041637011622],[106.05979130082795,-2.0670312218134086],[106.05915656292512,-2.0683075981170873],[106.05862199690768,-2.0693825415709739],[106.05860454736205,-2.0694176322178919],[106.05831634612252,-2.0699971670355808],[106.05831153385026,-2.0700068428414511],[106.05803351473497,-2.0705659027941579],[106.05750513965052,-2.0709757877023662],[106.05731021969092,-2.0711269970132662],[106.0570147798083,-2.0713561838407486],[106.05668718916252,-2.0716103115665874],[106.05615103674103,-2.072026230026438],[106.05569893945454,-2.0723769431413643],[106.05505639993299,-2.0728753905867734],[106.05335517040487,-2.0741951151124454],[106.05298665610934,-2.0744809880071671],[106.05161433923041,-2.0753663912458933],[106.05024202235148,-2.0762517935853566],[106.05007104684142,-2.0761860612377063],[106.04805854486602,-2.0754123340119577],[106.04577034942213,-2.0745326135892128],[106.0454035879053,-2.0743916088856054],[106.04459875313,-2.0752826913430908],[106.0436469691324,-2.0763364701519436],[106.04073514511094,-2.0795603283464175],[106.04073104959832,-2.0795648618288851],[106.04061008898447,-2.0830051014042397],[106.04071623506627,-2.0832947307671361],[106.04115184957823,-2.0844833539235879],[106.04150870596209,-2.085457075083923],[106.04130512732985,-2.0895767686528757],[106.04115550082577,-2.0926046528823576],[106.04298680559668,-2.0950507503917493],[106.04447415295988,-2.0958275892717779],[106.04611908043125,-2.0968791467551569],[106.04702526880118,-2.097458449547787],[106.047419332836,-2.0977103649413493],[106.04750814628397,-2.0977925512851812],[106.04756849708855,-2.0978484000835351],[106.04855002166624,-2.0987566901690684],[106.04832711480458,-2.0992398185627508],[106.04821593971388,-2.0994807793144901],[106.04819847667841,-2.0995186290814445],[106.04821883103426,-2.0996009431289622],[106.048321556095,-2.1000163813508834],[106.0483725791313,-2.100222728995675],[106.04838093563171,-2.100526272669299],[106.04840084931982,-2.1012495416329671],[106.04840305445748,-2.10132962716051],[106.04833233626834,-2.1016996271360426],[106.04826229886606,-2.1020660639975972],[106.04807708798728,-2.1030351005893522],[106.04783240224361,-2.1034556793360935],[106.04744548691974,-2.104120727989141],[106.0470671960943,-2.10477095401626],[106.04595413667414,-2.104954548813339],[106.04592419194796,-2.104959487890028],[106.04561025211149,-2.1050112708534243],[106.04551558767429,-2.1050851051933819],[106.04468888858139,-2.1057298948187508],[106.04455394620771,-2.1058628146171259],[106.04354643841748,-2.1068552227902728],[106.04335160659144,-2.1070471336182663],[106.04265032785042,-2.1072350433624933],[106.04149799233852,-2.1075438147951786],[106.04144878503348,-2.1075569997556727],[106.04126893591274,-2.1075508816678052],[106.03994405197648,-2.1075058121434722],[106.03972400495894,-2.1074983261867715],[106.03933766340248,-2.1078575873577279],[106.03921927215174,-2.1086953373198867],[106.03939108762864,-2.1101684025496752],[106.03942862173358,-2.1104902060581026],[106.03952751388374,-2.1108593220000671],[106.03959846769521,-2.1111241588528173],[106.04017389710771,-2.1132719674272948],[106.04166130472549,-2.1141086346057705],[106.04193757016282,-2.1141735791472911],[106.04356477289599,-2.1145561003836519],[106.0449326147484,-2.1144654262383824],[106.04731209497726,-2.1152416472841651],[106.0482940979943,-2.1162581491942092],[106.04873948543894,-2.1163889645790164],[106.04882913345779,-2.1164152958291993],[106.04921156476195,-2.1165276211527271],[106.04951355710506,-2.1166163203868109],[106.05050383838147,-2.1167462922075515],[106.05132767403302,-2.1168544176971977],[106.05141998134712,-2.1168569861609399],[106.05669444759076,-2.1191722979631322],[106.0590384756452,-2.1206433352217005],[106.05923643531332,-2.1207675675691462],[106.06161545329059,-2.1222605635741161],[106.06511044808877,-2.12519669627045],[106.07073513731677,-2.1256444363415881],[106.07089744246304,-2.1256582688139929],[106.07096040759677,-2.1256636350686335],[106.07096546178667,-2.125664065843921],[106.073095199384,-2.1258605110537019],[106.07342839640341,-2.1258739649114773],[106.0736367882073,-2.1258609166479232],[106.07497789771185,-2.1257769469485197],[106.07536121304958,-2.125752946741045],[106.07592286394907,-2.1260836490411066],[106.07622393538639,-2.1262609216042279],[106.0765691509456,-2.1264574045854943],[106.07795769429219,-2.1272477090145117],[106.07800885582412,-2.1272768281630192],[106.07804248327403,-2.1273047359247812],[106.07869320033097,-2.1278447590283349],[106.07908171824675,-2.1279828832034582],[106.08012092534051,-2.1283523336932149],[106.08127308098796,-2.1287729088426204],[106.08142968263382,-2.1288300733491496],[106.08229497703161,-2.1289866642031257],[106.08241112627252,-2.1290076822587025],[106.08303269270465,-2.1290892453723131],[106.08328190203821,-2.1291219456212502],[106.08388147824769,-2.129236400539412],[106.08399597813195,-2.1292462607063385],[106.08401357066981,-2.1292477760639485],[106.08408493187414,-2.1292539211315216],[106.08417479842825,-2.1292614313699119],[106.08421644243492,-2.1292793521603244],[106.08427000245871,-2.1293271799053741],[106.08440388902829,-2.1294288005986459],[106.08447535815134,-2.1295723485849862],[106.08451710468069,-2.1297368588689096],[106.08462730130896,-2.12997910385252],[106.0846719823262,-2.1300867706878535],[106.08478957857625,-2.1302845495922611],[106.08480000081943,-2.1303020782782482],[106.08483277031615,-2.1303858213485114],[106.08491609610104,-2.1304755107361757],[106.08499942188587,-2.1305652010231597],[106.08505900107212,-2.1307147411923211],[106.08508881269859,-2.1308224188195481],[106.08509780591908,-2.130924127646324],[106.08515095225471,-2.1312304340372634],[106.08518433059243,-2.1313357158705344],[106.08522963663847,-2.1314864620305229],[106.08525586986258,-2.1315797828806353],[106.08526302576809,-2.1316061042382444],[106.08527016368714,-2.1316084919383229],[106.08528206171786,-2.1316132700363255],[106.08530277760116,-2.1316166667756988],[106.08541174935283,-2.1316162243092549],[106.08551290239859,-2.1315938096065565],[106.08562913437709,-2.1315663281234833],[106.08581715743594,-2.1315074782874603],[106.08586869668306,-2.1315236319100563],[106.08592723625299,-2.1315465664208659],[106.08598720214775,-2.1315694991330361],[106.08605716130899,-2.131595297085255],[106.08611142280398,-2.1316268506985807],[106.08615140306483,-2.1316454900472763],[106.08618853067622,-2.1316698751645617],[106.08620994982937,-2.1316813478159133],[106.08623992962913,-2.1316885073186995],[106.08627847277336,-2.1316942234096246],[106.08637411477366,-2.1317056430009984],[106.08654255239696,-2.1317155760129936],[106.08666152640836,-2.1317423353404479],[106.08668088341608,-2.1317438030340554],[106.08680302394049,-2.1317751911720961],[106.08711274145992,-2.1318547838711197],[106.08721630558807,-2.131924137788701],[106.08721984442036,-2.1319265066029516],[106.08734126908433,-2.1320664303214585],[106.08738348326119,-2.132139022697686],[106.08753198920999,-2.1323944031790916],[106.08757707042554,-2.1324719265381304],[106.08759510992644,-2.1325623371820939],[106.08765227173501,-2.1328488198171272],[106.08767389593362,-2.1328685932109579],[106.08767392021531,-2.1328686147946883],[106.08767499490517,-2.1328695977537109],[106.08771652919455,-2.1328846739884852],[106.08810899963066,-2.132805415837197],[106.08878339134048,-2.1327439067058549],[106.0890260140394,-2.1327006547114138],[106.0894251898207,-2.1326972202004981],[106.08951809068742,-2.132696420703212],[106.089398446681,-2.1334433616218007],[106.08939480262808,-2.1334661099729715],[106.08935713272558,-2.1337012862852589],[106.08934436415115,-2.1337810048894426],[106.08934455840472,-2.1340574322047132],[106.08929129515718,-2.1344308262216032],[106.08939556165592,-2.1353091329100948],[106.08942070400235,-2.1357733782387527],[106.08928309244084,-2.1358218211200892],[106.08911572411142,-2.1358807402039588],[106.08911382204531,-2.1358951149675249],[106.0890431767013,-2.1364289300510109],[106.0890326483381,-2.1365355680619587],[106.08903188031707,-2.1365447420461692],[106.08901942740471,-2.1366934467451415],[106.08900336101635,-2.1368853027145178],[106.08902691336141,-2.1374456828719417],[106.08852350075904,-2.1375907695983187],[106.08862483097124,-2.1378610059805965],[106.08875924634219,-2.1382741491326556],[106.08879623096135,-2.1383878270365244],[106.08883321468119,-2.1385015040411304],[106.08891067598699,-2.1387078723703894],[106.08900811843,-2.1389719771749469],[106.08912217764646,-2.1392811218262864],[106.08919919019053,-2.1394898535738207],[106.08922958277907,-2.1395587371459328],[106.08938422390287,-2.1399092119405054],[106.0894644281409,-2.1400638827419698],[106.08957241873219,-2.1402721423454523],[106.0898028987848,-2.1405496011831247],[106.08982360567489,-2.1411313258499831],[106.08968689523408,-2.1415874170256188],[106.08940993911744,-2.1417436598420068],[106.08913298300081,-2.1418999035576576],[106.08912073333522,-2.142981490303498],[106.08894554809865,-2.1434747387681341],[106.08871788472266,-2.144115744046303],[106.08864513676372,-2.1443205709375661],[106.08892402282544,-2.1445374649320001],[106.08892699778278,-2.1445380054245788],[106.08896362806905,-2.1445446586090497],[106.08933704636763,-2.1446124836791114],[106.09424750841583,-2.1455043944122281],[106.09442682603725,-2.1455369642594633],[106.09566414568383,-2.1457617039394563],[106.09632153031441,-2.1458811078268241],[106.09661884438424,-2.1459351112163745],[106.09668561994545,-2.1459472403727773],[106.09682006319542,-2.1459716596643261],[106.09687152060422,-2.1459810072176424],[106.09690968873122,-2.1460067530092033],[106.09692554467819,-2.1460174486463188],[106.09714543881103,-2.1461657792272604],[106.09853469262202,-2.1471029042755845],[106.10221708814817,-2.1495868731356609],[106.10299167242778,-2.1501093702511866],[106.1030156996149,-2.1501255778330801],[106.10305787871818,-2.1501433295509855],[106.10348340823276,-2.1503224178452456],[106.10692753467805,-2.1517719181394455],[106.10692756075838,-2.1517719289313391],[106.10706610221888,-2.151830235576881],[106.1077226702651,-2.1521065576714591],[106.11119351466903,-2.1535673030884936],[106.11239937243317,-2.1546009451774353],[106.11764157100174,-2.154471710800749],[106.1176422050238,-2.1544716946129938],[106.11781594415055,-2.1544674120414129],[106.1179503208507,-2.1544043308950904],[106.12154795707261,-2.1527154850315355],[106.12261789489997,-2.1522132217627359],[106.12504938921802,-2.1515128909071564],[106.12814231691448,-2.1489921802448748],[106.12845030503763,-2.1487878012160309],[106.13207528964296,-2.1463822766207272],[106.13268074202267,-2.1460069373702026],[106.13272777836431,-2.1459777777521936],[106.132904312584,-2.1460805432823804],[106.13325828664068,-2.1462865986475776],[106.13350916781388,-2.1464326422525914],[106.13585547115315,-2.1479198313351162],[106.14427542686951,-2.153256763588729],[106.14547546332204,-2.154017399383406],[106.1466470767013,-2.1547600190596086],[106.14831163007773,-2.1558150847982915],[106.14977900169964,-2.1567451690542612],[106.15058700568585,-2.1572573167716769],[106.15250926519047,-2.1584757281722773],[106.15305906212609,-2.158824212767172],[106.1544361112376,-2.1597722223101528],[106.1552631295898,-2.160066528147695],[106.15586949298279,-2.1603341439055725],[106.15631619613561,-2.1605312941838406],[106.15675525684969,-2.1607250720044249],[106.15684605330279,-2.1599897961921215],[106.15688073565747,-2.1599023730959743],[106.15730194033233,-2.158840688347027],[106.15739304795085,-2.158518964878283],[106.15762100900241,-2.1579673863857352],[106.15766707677426,-2.1577580817699982],[106.15771204737314,-2.1575537629957466],[106.1578341339382,-2.1572254789726344],[106.15784879558549,-2.1571860562914367],[106.15801786543221,-2.1570157094074034],[106.15807699945401,-2.156956129321884],[106.15835098331127,-2.1568640189592543],[106.15862468927804,-2.1564043062136875],[106.15880714733203,-2.156082512597834],[106.1588493776967,-2.1560515660269175],[106.15892527508146,-2.1559959465556631],[106.15930929908495,-2.1557145262043491],[106.16252905097497,-2.1554582374076858],[106.16256620646533,-2.1554552786381578],[106.16612581035793,-2.1551719382343322],[106.17097949011145,-2.1547855903826303],[106.17454974467506,-2.1545014010188197],[106.17468638406945,-2.1544905246179837],[106.17468900739186,-2.154485421864706],[106.17570211346185,-2.1525140099136024],[106.17665762335071,-2.1506546750731559],[106.17725995058629,-2.1494825985430452],[106.1779846503714,-2.1480724022195545],[106.17806384467076,-2.1480421121536892],[106.17805153924718,-2.1480228567693871],[106.17798686270362,-2.1479346773434145],[106.17791718592946,-2.1478535126294673],[106.17791523799792,-2.147851637542999],[106.17784223193354,-2.1477813708135614],[106.17776322199518,-2.1477174227208593],[106.17768306632053,-2.1476636333699162],[106.17760857367682,-2.1476143604143658],[106.17754744675733,-2.1475658258021895],[106.17749700917972,-2.1475152389371033],[106.17746095176159,-2.1474601185895494],[106.17743997507483,-2.1473989565965326],[106.17743078490287,-2.1473332287454809],[106.17743747406024,-2.1472632336112838],[106.17745520779164,-2.1471920315869397],[106.1774808996239,-2.1471210229168491],[106.17750832984558,-2.1470508901863923],[106.17753511165614,-2.1469816109125759],[106.17755793465102,-2.1469113702634672],[106.17757392999295,-2.1468377229824682],[106.17758143033882,-2.1467600107658313],[106.17758110298558,-2.1466814073210685],[106.17757459728989,-2.1466064362380166],[106.17756239888564,-2.1465359932414572],[106.17754235209793,-2.1464631553503182],[106.17751122925989,-2.1463776289243697],[106.17746740169929,-2.146272313816155],[106.17741282724023,-2.1461476093246574],[106.17735102043332,-2.1460075947746304],[106.17728415943645,-2.1458563791684924],[106.17721123790835,-2.1456970543754892],[106.17712991941033,-2.145531973921436],[106.17703950606841,-2.1453617754255561],[106.17694302589996,-2.1451838085858412],[106.17684524531188,-2.1449941964249888],[106.17675030118551,-2.1447917167642458],[106.17666055064393,-2.1445809363610806],[106.17657743080383,-2.1443690947578489],[106.17650205862316,-2.1441623235323846],[106.17643335671409,-2.1439617621255707],[106.17637535314009,-2.1437725816392685],[106.17632612604996,-2.1435929429599128],[106.17628292801476,-2.1434157783154433],[106.17624068146233,-2.1432344201323303],[106.17619873078684,-2.1430484879972482],[106.17615887193443,-2.1428685786219717],[106.17612443419534,-2.1427096207523277],[106.17609607587326,-2.1425744940176514],[106.17607503623401,-2.1424580390072379],[106.17605581592323,-2.1423263386895428],[106.17603590403382,-2.1421545331051561],[106.17601737799964,-2.141966477670735],[106.17600260483641,-2.1417707878915166],[106.17599267901898,-2.141579264671293],[106.17598535044363,-2.1413930051829766],[106.17597695617167,-2.1412076836875826],[106.17596546193658,-2.1410177423748564],[106.17595256026249,-2.1408166791463827],[106.17594160921794,-2.1405982661970029],[106.17593484092021,-2.1403614090517635],[106.17593169599104,-2.1401154067006019],[106.17593029574664,-2.1398743065539634],[106.17592910864153,-2.1396496891817378],[106.17592768411538,-2.1394467238871471],[106.17592619303946,-2.139266741666745],[106.17592546638724,-2.1391061542256011],[106.17592748986181,-2.1389524672824791],[106.17593470871986,-2.138789646824705],[106.17594875702957,-2.1386074738558136],[106.17596949,-2.1384086292547977],[106.17599582304888,-2.138202009115389],[106.17602615268487,-2.1379957855770044],[106.17605809480528,-2.1377948563475115],[106.17608906206061,-2.1376022692293191],[106.17611768927998,-2.1374194316613853],[106.17614517346107,-2.1372449371041284],[106.17617387712278,-2.1370762485699402],[106.17620553325884,-2.1369125827494599],[106.17624023989521,-2.1367570665852895],[106.17627737829844,-2.1366145636111469],[106.17631682705996,-2.1364886917996273],[106.17635970673513,-2.1363800213208606],[106.17640788341714,-2.1362875323437152],[106.17646416209146,-2.1362095602229942],[106.17653306005275,-2.1361435769644572],[106.1766196296922,-2.1360864915982347],[106.17672683337673,-2.1360342140077364],[106.17685319981535,-2.1359807843856515],[106.17699481336001,-2.1359196691573743],[106.17714580683355,-2.1358467889980943],[106.17729705931191,-2.1357632212955764],[106.17743831492635,-2.1356723358096019],[106.17756258504534,-2.1355758349567964],[106.17766986517222,-2.135471351721435],[106.17776352326803,-2.1353549713547864],[106.17784652979356,-2.1352258826682942],[106.17792008084712,-2.135090085938657],[106.17798457572763,-2.1349562389392531],[106.17804098300502,-2.1348283283646197],[106.17809166339958,-2.1347000175916833],[106.17813936973619,-2.1345608187267544],[106.17818486913649,-2.1344064959629918],[106.17822473518345,-2.1342468096424909],[106.17825369245401,-2.1340975572564389],[106.1782678297966,-2.1339687689434754],[106.17826656804772,-2.1338569490389432],[106.17825089286447,-2.1337524990785255],[106.17822133304816,-2.1336494673490165],[106.17817702524957,-2.1335511255839492],[106.1781167913569,-2.1334648572173478],[106.17804203521183,-2.1333951831411468],[106.17795951432021,-2.133339584354303],[106.17787843144453,-2.1332921649014338],[106.17780674018894,-2.1332475009713221],[106.17774913591393,-2.1332021301741406],[106.17770847846356,-2.1331536738029513],[106.17768599900973,-2.1331006821507117],[106.17768013273201,-2.1330432649346562],[106.17768801798769,-2.1329824662677765],[106.17770729045913,-2.1329204517174389],[106.17773698787175,-2.1328614220169584],[106.17777484932992,-2.1328078808789428],[106.1778245188865,-2.1327687297929856],[106.17788269243238,-2.1327436441038685],[106.17794897606444,-2.1327359710881524],[106.17801941276576,-2.1327389487434516],[106.17809402681792,-2.132752308172428],[106.1781714872244,-2.132771752414385],[106.17825054572614,-2.1327932039431516],[106.17833011504285,-2.1328133721393669],[106.17840926527543,-2.1328294807958628],[106.17848766097683,-2.1328397105841077],[106.17856613581858,-2.1328440390211085],[106.17864616738677,-2.1328432458191173],[106.17872973958589,-2.1328375755936122],[106.17881969697152,-2.1328259428629508],[106.17891919436539,-2.1328067153575603],[106.17903067342689,-2.1327789847622967],[106.17915502178687,-2.1327434903197968],[106.17929229790127,-2.1327018876819466],[106.17944205840433,-2.1326566580782469],[106.17960308561396,-2.1326116865800486],[106.17977364473796,-2.1325713987509971],[106.17995105489734,-2.1325391463644792],[106.18013084016621,-2.1325159357617736],[106.18030796434113,-2.1325013550534209],[106.18047954689365,-2.1324930597069169],[106.18064729563622,-2.1324851861423895],[106.1808149166751,-2.1324705056093194],[106.18098442808895,-2.1324443173513146],[106.18115380820177,-2.1324074703284737],[106.18131909819789,-2.1323634611047737],[106.18147659287052,-2.1323152880200951],[106.18162367339386,-2.1322641471726342],[106.18175826413267,-2.1322103362379607],[106.18187836769255,-2.132154021590793],[106.18198198578006,-2.1320953776994997],[106.18206729906666,-2.132034479207789],[106.18213372928824,-2.1319707811265971],[106.18218318210825,-2.1319024848118033],[106.18221869543652,-2.1318272646165042],[106.18224266236905,-2.1317434100303103],[106.1822558500275,-2.131650618880883],[106.18225817567435,-2.1315493893927737],[106.18224920763487,-2.1314409806167305],[106.18222804838581,-2.131327987996201],[106.18219367899513,-2.1312135420712366],[106.18214582427044,-2.131100009857505],[106.18208575945027,-2.1309880406654997],[106.18201559524357,-2.1308776030189165],[106.18193794058357,-2.1307698345601693],[106.18185618411565,-2.1306684512879315],[106.18177386377283,-2.1305782357969179],[106.1816929041043,-2.1305025911216262],[106.18167407140135,-2.1304884600743321],[106.18161188328185,-2.1304417987499846],[106.18152780926107,-2.1303945222893503],[106.18143814865169,-2.130358805714252],[106.18134177010666,-2.1303319177837352],[106.18123846768123,-2.1303107909102437],[106.18112977382009,-2.1302927352215306],[106.1810204819098,-2.1302759116039738],[106.18091663359581,-2.1302588838403835],[106.18082182526706,-2.1302400403455408],[106.18073429065504,-2.1302173045849031],[106.18064986859662,-2.1301885370712625],[106.18056604278871,-2.1301527332619798],[106.18048433218627,-2.130111233146863],[106.18040810744827,-2.1300663938489492],[106.18033982282464,-2.1300196911557805],[106.18027952418078,-2.1299704847500038],[106.18022592638545,-2.129917236791016],[106.18017671997973,-2.1298593132566452],[106.18012788859124,-2.1297981890351707],[106.18007478272511,-2.1297363705370458],[106.18001418820427,-2.1296763156094585],[106.17994598991555,-2.1296200926930737],[106.17987159259997,-2.1295694078018528],[106.17979230477113,-2.1295248059250298],[106.17970881261169,-2.1294845693573166],[106.17962152171589,-2.1294457905906938],[106.17953098067028,-2.1294050566979763],[106.1794381328636,-2.1293582442875163],[106.17934396125486,-2.1293010078351813],[106.17924842987122,-2.1292298516762571],[106.17914940821868,-2.1291430823873156],[106.17904396270876,-2.1290400812347343],[106.17893076324418,-2.1289216081456743],[106.17881197809038,-2.1287909231625122],[106.17869122072329,-2.1286519860003068],[106.17857025831086,-2.1285051114217026],[106.17844665279085,-2.1283429492676191],[106.17831650200503,-2.1281555611301997],[106.17818003617981,-2.1279410917079531],[106.17804636005155,-2.127714957179478],[106.17792815945705,-2.1274998483392551],[106.1778328052398,-2.1273102002054998],[106.17775576481677,-2.1271414586113906],[106.17768700625038,-2.1269803099932574],[106.17761879537119,-2.126817200853111],[106.17754970135769,-2.1266528146755945],[106.17748135917742,-2.1264926265334338],[106.17741527069825,-2.1263405772558031],[106.17735130192114,-2.1261951370958627],[106.17729020198129,-2.1260559589153445],[106.17723043483676,-2.125917562245661],[106.17716699845829,-2.1257704241656938],[106.1770976688224,-2.1256114537055737],[106.17702013557084,-2.1254361083896356],[106.17693690961073,-2.1252483919996621],[106.17685252172657,-2.1250556816743256],[106.17682878502046,-2.1250000037471182],[106.17678164345813,-2.1248292899397256],[106.17672971210658,-2.1246448659677526],[106.17664609404204,-2.1244596496930512],[106.17655857831579,-2.1242769578153116],[106.17647304559466,-2.1241030945820967],[106.17639622640479,-2.123944262617556],[106.17633228370801,-2.1238034431743245],[106.17627514797977,-2.1236707338172778],[106.17621618932571,-2.1235330125384735],[106.17614975640618,-2.1233823257337008],[106.176082101308,-2.1232313970112955],[106.17602245916919,-2.1230981183833819],[106.17597805784118,-2.1229966271925491],[106.17594812120888,-2.1229260717807392],[106.17592986317271,-2.1228818467197925],[106.17591651723353,-2.122849255288827],[106.17589159881828,-2.1227891679856725],[106.17586831087391,-2.1227376584161561],[106.17583421937377,-2.1226689646009618],[106.17578835305011,-2.1225836018517157],[106.1757333918826,-2.1224841530212188],[106.17567293226006,-2.1223737243678329],[106.17561045365954,-2.1222551028906196],[106.1755490002862,-2.1221297958533683],[106.17549149673522,-2.1219989957569965],[106.17543972006706,-2.1218641163358711],[106.17539085180641,-2.1217274580557159],[106.17534092144643,-2.1215915471121889],[106.17528799724334,-2.1214607101435945],[106.17523831059964,-2.1213464746600152],[106.17520013258013,-2.1212621731107788],[106.17516513546269,-2.121187413368375],[106.17513950388508,-2.1211409283111493],[106.17510060910587,-2.1210700752237699],[106.17504654995838,-2.1209679967755619],[106.17498169804696,-2.1208386104135002],[106.17491041868095,-2.120687346243983],[106.17483707357212,-2.1205256616299266],[106.17476602623117,-2.1203665193992833],[106.17470002228828,-2.1202188057532112],[106.17463536463043,-2.1200750680099532],[106.17456674905628,-2.1199237741628281],[106.1744906709078,-2.1197568662863091],[106.17441087136467,-2.1195801728866286],[106.17433288845211,-2.1194030010476013],[106.17426171160878,-2.1192329959059748],[106.17420011344456,-2.1190711817895362],[106.17415030359371,-2.1189169138844477],[106.1741132470288,-2.1187692568956322],[106.17408489320331,-2.1186260479536827],[106.1740599424125,-2.1184848247148693],[106.17403402574973,-2.1183445331736266],[106.1740065325755,-2.1182097319934883],[106.17397778394763,-2.118086389075529],[106.17394750557298,-2.1179786682808412],[106.17391304445152,-2.1178835218070162],[106.17387115582926,-2.1177960978116062],[106.17381942322788,-2.1177116532701348],[106.17375875136537,-2.117625860644921],[106.17369087773187,-2.1175345048134773],[106.17361777723869,-2.1174338176165293],[106.17354237627973,-2.1173218349346712],[106.17346783327395,-2.1171970396116535],[106.17339648196213,-2.1170574837158256],[106.17332733398933,-2.1168994683357596],[106.17325856283247,-2.1167188547912588],[106.17318885278337,-2.1165134838101949],[106.1731188900248,-2.1162890966644454],[106.17304986705778,-2.1160534131344662],[106.17298327136092,-2.1158162421258453],[106.17292174694114,-2.1155957742255396],[106.17286823907801,-2.115412298139006],[106.17282371903946,-2.1152794188100756],[106.17278128183074,-2.1151840115328469],[106.17273205743857,-2.115106273235881],[106.17266928386044,-2.1150294090799093],[106.17259464642586,-2.1149486526581427],[106.17251193397863,-2.1148622556884789],[106.17242349734659,-2.1147676551031509],[106.17232587413986,-2.1146590565701331],[106.17221415765732,-2.1145298626630051],[106.17208625337793,-2.1143766523605905],[106.17195129661513,-2.1142087246528831],[106.17182124295607,-2.114038565727185],[106.17170601462095,-2.1138774719677258],[106.17160741385112,-2.1137319832444064],[106.17152521671545,-2.1136074550199737],[106.17145926403384,-2.1135082346173135],[106.17140963045017,-2.1134346475908501],[106.17137645625849,-2.1133860068586614],[106.17135155762833,-2.1133496130941012],[106.17131602091769,-2.1132969658822276],[106.17128233321318,-2.1132428500774267],[106.17123233810196,-2.1131565466372422],[106.17116398872713,-2.1130326263545953],[106.17107966109756,-2.1128790877996266],[106.17098283469011,-2.1127072831145597],[106.17087693412327,-2.1125259015490769],[106.17076516997668,-2.1123329870776502],[106.17065070876328,-2.1121239252788655],[106.17053636266309,-2.1118967610266282],[106.1704235921751,-2.1116602069529335],[106.17031351245868,-2.1114256412802774],[106.17020801209014,-2.1112040537240659],[106.17011206971631,-2.1110049042528658],[106.17003143830027,-2.110837267026227],[106.16997047505743,-2.1107080794142803],[106.16992793622535,-2.1106157235367391],[106.16990118858905,-2.1105564474220841],[106.16988145746336,-2.1105124597821714],[106.16982282436391,-2.1103815895386902],[106.16977851206872,-2.1102817279193573],[106.16972878315687,-2.1101679546873129],[106.16967724121179,-2.110046181086318],[106.16961866387032,-2.1098978541026554],[106.16954562722896,-2.1096983062317918],[106.16945397911792,-2.1094331708041523],[106.16935265160367,-2.1091292952806953],[106.16925385658027,-2.1088238252592646],[106.1691671556398,-2.1085470427117912],[106.16909154963537,-2.1083017607176089],[106.16902339811139,-2.108083923334334],[106.16895935109324,-2.1078893298286516],[106.16889721603377,-2.1077131922099852],[106.1688350899675,-2.1075505812942197],[106.16877082171612,-2.1073953331280677],[106.16870125286061,-2.1072363473794553],[106.16862297137311,-2.1070612979405041],[106.1685341543278,-2.1068617230899918],[106.16843931542212,-2.106644649231157],[106.16834454666355,-2.1064209698518539],[106.16825493371829,-2.1062004300057993],[106.16817149911543,-2.1059881576273369],[106.16809423925781,-2.105788135813782],[106.16802258127717,-2.1056017971851588],[106.16795361496742,-2.1054203877406508],[106.16788385095902,-2.1052326146933638],[106.16781046628006,-2.1050294326621497],[106.16773327297221,-2.1048108191639017],[106.16765274767624,-2.1045790000208058],[106.16756992281375,-2.1043380986242823],[106.16748805123262,-2.1040998241475108],[106.1674109352665,-2.103877776138404],[106.16734042661943,-2.1036800970587706],[106.16727055828972,-2.103493080341309],[106.16719340904865,-2.1032975533393596],[106.16710364321864,-2.1030807645655614],[106.16700627901662,-2.1028556300832406],[106.16690892290853,-2.1026414718264164],[106.16681769028423,-2.1024540441188151],[106.16673272323663,-2.1022947786810278],[106.16665267997723,-2.1021615270328198],[106.16657638509218,-2.1020519833123217],[106.16650334935014,-2.1019632049379311],[106.16643325169326,-2.1018920883491319],[106.1663655660181,-2.1018351288880126],[106.16629891276466,-2.1017872426870667],[106.16623171092476,-2.1017429348884775],[106.1661630297001,-2.1016972628183908],[106.16609458319851,-2.1016474529675406],[106.16602874293221,-2.1015912768159524],[106.16596708361408,-2.1015269689943921],[106.16590803232987,-2.1014546221330761],[106.16584921037281,-2.101374793811658],[106.16578793146795,-2.1012868284243496],[106.16572023679953,-2.1011851798521093],[106.16564185099071,-2.1010630932870527],[106.16555059678268,-2.1009173176800005],[106.1654526902895,-2.1007586592846792],[106.16535644304548,-2.1006014317106292],[106.1652680495809,-2.1004573917951461],[106.165185204034,-2.10032806568762],[106.16510347364647,-2.1002124245637219],[106.16501959118125,-2.1001093586599495],[106.16493492810451,-2.1000174308596797],[106.16485201061187,-2.0999351294026383],[106.16477261126704,-2.0998610369572361],[106.16469546742195,-2.0997941229003914],[106.16461855380328,-2.0997334492392383],[106.16453325220789,-2.0996712188515971],[106.16447270535116,-2.099633368185323],[106.1644208522406,-2.0996007281909783],[106.16438077485293,-2.0995757756015223],[106.16433049465667,-2.0995445205631427],[106.16427677725153,-2.0995114210152224],[106.16418843774625,-2.0994573600690387],[106.16406239146625,-2.0993791325408893],[106.16392469806641,-2.0992853548352173],[106.16381200761811,-2.0991903801319154],[106.16373938196699,-2.0990963155424538],[106.16370817459267,-2.0990174548915661],[106.16369814805114,-2.0989558351436131],[106.16369467127214,-2.0989023443676729],[106.16369543659516,-2.0988709202567293],[106.16371785669378,-2.0985535728890454],[106.16371967332435,-2.0985291284164873],[106.1637224980949,-2.0984922679037936],[106.1637277726187,-2.0984299529798704],[106.16373757522899,-2.0983452413397572],[106.16375426394819,-2.0982434803522665],[106.16378001603499,-2.0981297475897236],[106.16381628029717,-2.0980080513304529],[106.16386432567816,-2.0978821291569147],[106.16392457485932,-2.0977554695392655],[106.16399407896364,-2.097630553707063],[106.16406414874155,-2.0975167732804039],[106.16408620281607,-2.0974738999005353],[106.16414561742636,-2.0973945302333163],[106.16421974494534,-2.09728581298981],[106.1642873137086,-2.0971836284216465],[106.16434481725958,-2.0970880421793368],[106.16439117371374,-2.096998747594057],[106.16442591092709,-2.0969153507627993],[106.16444890928977,-2.0968370557854428],[106.16446146742283,-2.096761473163383],[106.16446524727343,-2.0966858167969349],[106.1644619584527,-2.0966075056318232],[106.16445350572479,-2.0965247787954695],[106.16444561507313,-2.0964607146901812],[106.16444570410602,-2.0964366533288512],[106.16442832021085,-2.0963401201004217],[106.16441160541132,-2.0962367439305467],[106.16438976987206,-2.0961260616683717],[106.164361487093,-2.0960094222969587],[106.1643278443546,-2.0958931165740182],[106.16429053957683,-2.0957846772210473],[106.16425104494982,-2.0956897942485853],[106.16420991265738,-2.0956068290918211],[106.16416747185139,-2.0955323058711883],[106.16412314426776,-2.0954629411617702],[106.16407273007252,-2.0953962276537368],[106.16401113100898,-2.0953298558881102],[106.16393475158759,-2.0952622799302389],[106.16384603796433,-2.095195044815398],[106.16374893636436,-2.095130462700638],[106.16364544777923,-2.0950694176194702],[106.16352978687024,-2.095007056830184],[106.16339421407179,-2.0949370985682094],[106.16323379480383,-2.0948553798718308],[106.1630547820526,-2.0947662291781057],[106.16286622569584,-2.0946760919280791],[106.16267509637868,-2.0945897354279168],[106.16248001993705,-2.094505201853508],[106.16227754027631,-2.0944188543465998],[106.16206661238431,-2.0943283456765585],[106.16185584906822,-2.0942365159024234],[106.16165627331844,-2.0941474911138016],[106.16147597543596,-2.0940642147916151],[106.16131130687137,-2.0939848990837504],[106.16115568818452,-2.093906570831507],[106.16100537190044,-2.0938274134043695],[106.16086796898162,-2.0937502587673862],[106.1607539223557,-2.0936790999105028],[106.16067095180307,-2.0936176618255899],[106.1606158710257,-2.0935686433781484],[106.16058276518254,-2.0935344763349804],[106.16055867324422,-2.0935085479810596],[106.16051821814131,-2.0934648121512964],[106.16048438025001,-2.0934270406253859],[106.16044057517246,-2.0933762280304791],[106.16038857007652,-2.0933131279983854],[106.16033392187308,-2.0932426373378235],[106.16028313625782,-2.0931706789835971],[106.16023976645209,-2.0931002099067086],[106.16019556657221,-2.093022295342621],[106.16013934635379,-2.0929250246700803],[106.16006493015249,-2.0928014830020061],[106.15998622598363,-2.092664704212666],[106.15993252116897,-2.09255404803082],[106.15992216637494,-2.0925327134139593],[106.15988589311951,-2.0924198988591911],[106.15986740036033,-2.0923261040663874],[106.15985089420349,-2.0922475338965114],[106.15982290640204,-2.0921796998332525],[106.1597792928801,-2.0921153551394696],[106.15971824060438,-2.0920465552043197],[106.15963927833008,-2.0919676702717425],[106.15954731365764,-2.0918823425959658],[106.15944860676785,-2.0917965247897428],[106.15934737997765,-2.0917140731459085],[106.15923973562536,-2.0916304667725854],[106.15911974897728,-2.0915390911561076],[106.1589832201995,-2.0914343785936467],[106.15883286164728,-2.0913149477266302],[106.15867311687089,-2.0911804631078326],[106.15863070933983,-2.0911422401222239],[106.15850872889479,-2.0910322989014389],[106.15834565213021,-2.0908786749108685],[106.15819014495929,-2.0907295133563366],[106.15804904402825,-2.0905945440029541],[106.1579314819524,-2.0904827303936599],[106.15784717230923,-2.0904028301264361],[106.1577916481661,-2.0903502575582706],[106.15801026526157,-2.0885535595990632],[106.15801051257517,-2.0885515172386704],[106.1580529479852,-2.0882027637464944],[106.15784609672005,-2.0880146381649638],[106.15784187440306,-2.0880105201693482],[106.1565913976749,-2.0867912670033206],[106.15615421564462,-2.0864028965763737],[106.15404380807536,-2.0845281239737119],[106.15227102938456,-2.082953280669301],[106.15009401172932,-2.0824163979983155],[106.14889939009481,-2.0829349066206078],[106.14828644096656,-2.0832009485648655],[106.14752568286406,-2.0835311463453081],[106.14678308657022,-2.0843580972483551],[106.14663040416985,-2.0845281239737119],[106.14644206724768,-2.0847378548680808],[106.14601716006393,-2.0852110295653006],[106.14549341828666,-2.085794265992547],[106.14324767444066,-2.0889191169236483],[106.14199769863495,-2.0904265920135572],[106.14178206189268,-2.0906866516675677],[106.14089466575626,-2.0917568556943138],[106.13997641208181,-2.0928851343414294],[106.13797127105738,-2.0953488918378298],[106.13735603135581,-2.0958900507851581],[106.13695243001069,-2.0962450545655429],[106.13598669932679,-2.0970945029089307],[106.13572467375474,-2.09732497756562],[106.13213024181726,-2.0975403247261397],[106.13208516869565,-2.09754302539028],[106.13200918587529,-2.0975103287386219],[106.13067067181413,-2.0969343561355913],[106.13010639579358,-2.0966915436797535],[106.12983644719435,-2.0965753827476874],[106.12974227828357,-2.0964655782237855],[106.12924870516366,-2.0958900507851581],[106.12783652943233,-2.0942433912194929],[106.12734661025792,-2.0928851343414294],[106.12721868709281,-2.092530477699313],[106.12708569984522,-2.0921617826401189],[106.12720962102725,-2.0917680873272957],[106.12779774437047,-2.0898996243681154],[106.13108112329525,-2.0875973203599756],[106.13389644196729,-2.0856232185366821],[106.13433135320946,-2.085305891853352],[106.13788394958465,-2.08271378491321],[106.14010196823131,-2.0810954369048318],[106.14102759544721,-2.0797097156308268],[106.14134951316953,-2.0792277842348312],[106.14155886544933,-2.0767851787929317],[106.14159175275722,-2.0764014632569001],[106.14161411799722,-2.0761405240658632],[106.14163260176321,-2.0759248720351593],[106.14132164677665,-2.0740398030943652],[106.14095167917674,-2.0717969838436829],[106.14026121568264,-2.07031781311656]]]},"properties":{"OBJECTID":317,"nama_kawasan":"Kawasan Perkotaan Pangkalpinang","delineasi_asal":"Kota Pangkal Pinang","Shape_Length":0.52568662094419072,"Shape_Area":0.0084986592666987694}}]}