{"type":"FeatureCollection","features":[{"type":"Feature","id":360,"geometry":{"type":"Polygon","coordinates":[[[110.36062694227962,-7.7713189018458024],[110.35978999181475,-7.7712831106269959],[110.35941321634692,-7.7712697772783486],[110.35929596723514,-7.7712650927098252],[110.35900704473937,-7.7712545202798538],[110.35896287363778,-7.7712529041981497],[110.3586929250385,-7.7710183942834306],[110.35860297484749,-7.770940252190826],[110.35841763176836,-7.7708075716120675],[110.35760454841125,-7.7702255141960563],[110.35671638785107,-7.7695219448818307],[110.35639697743864,-7.7692689188255031],[110.35560699496688,-7.7686654872223926],[110.35530813496251,-7.7684389632874513],[110.35475800437848,-7.7680258875845993],[110.35462344331734,-7.7679321755294382],[110.35433160432012,-7.7677289323443119],[110.35410195524111,-7.7675480678889812],[110.35396421597585,-7.7674395889658285],[110.35390146308214,-7.7674032896300673],[110.35365542925473,-7.7672609737149401],[110.35338487541173,-7.7670289657141325],[110.35332652020281,-7.7669789247375434],[110.35312854884353,-7.7668437719224812],[110.35312547586011,-7.7668422610614698],[110.35266407778505,-7.7666153441227834],[110.35226109877073,-7.7664680117892431],[110.35223006406625,-7.7664897079336015],[110.35226623210099,-7.7665715624276004],[110.35234808569567,-7.7667105220729127],[110.3524356499853,-7.7667695328875652],[110.35258222508969,-7.7668685176678878],[110.35274212365016,-7.766982733366433],[110.3528886987545,-7.7671407289614081],[110.35289441034882,-7.7671921252163543],[110.35290583083946,-7.7673958072706455],[110.35286014617884,-7.7676052000199434],[110.35277448485465,-7.7679725883642163],[110.35273450998972,-7.7681058382138417],[110.35263552520939,-7.7682581240131867],[110.35262004338034,-7.7683604587680861],[110.35263773934025,-7.7685033439541371],[110.35264288166371,-7.7685585902067373],[110.35265265729436,-7.7686635842569558],[110.35273641385447,-7.7690547668639738],[110.35283471065344,-7.7693136735871349],[110.35286811057489,-7.7694016479676407],[110.35295379618083,-7.7697000574116828],[110.35297868222045,-7.7697867241779477],[110.35309095268536,-7.7702016668733904],[110.35319243937965,-7.7704943188576863],[110.35335370221162,-7.7710961838417916],[110.35345025162786,-7.7713795008632474],[110.35344549331495,-7.7718768079682832],[110.35335507367779,-7.7720124374239958],[110.35323610146497,-7.7720933386366369],[110.35296484165417,-7.772105235767981],[110.35253178031746,-7.7720576472426046],[110.35251243410164,-7.7720525696702794],[110.35226853526473,-7.7719885631216243],[110.35219276288575,-7.7719686782118629],[110.35168961198605,-7.7705206249268599],[110.35142779235878,-7.7698158792993581],[110.35139248857257,-7.7693095942623245],[110.35129450024107,-7.7683849536026628],[110.35140429577172,-7.7683562193639659],[110.35137817136558,-7.7681459569702724],[110.35133112243341,-7.7681608884142292],[110.35124521379566,-7.7681881513620397],[110.35119108000441,-7.7682042600185355],[110.35108916793081,-7.7682202733469126],[110.35108901504606,-7.7682202958299627],[110.35108077186021,-7.7682215332970941],[110.35113599203248,-7.7684981269869127],[110.35117241907193,-7.7687058586884064],[110.35117471773907,-7.7687795563314239],[110.35117681945474,-7.768846918250631],[110.35114589266885,-7.7691916958400498],[110.35111174900806,-7.7694775651374925],[110.35110642322292,-7.7695221598197577],[110.35109366274241,-7.7696289893863195],[110.35109063202708,-7.7696622634026653],[110.35106776496542,-7.769913295662036],[110.35105922320463,-7.7700070742670277],[110.35103556743752,-7.7702809223266627],[110.35103532731858,-7.7702837057283887],[110.35103768713964,-7.7703172549373107],[110.35104079069998,-7.7703690082230992],[110.35106346530677,-7.770478578923246],[110.35107569878454,-7.7705591887554988],[110.35098545181722,-7.7705593632239811],[110.35100794925751,-7.7707593391721161],[110.35102885939443,-7.7709452020594085],[110.35113052685239,-7.7727747837292327],[110.35111602438508,-7.7729527074014868],[110.35105662146594,-7.7737161436850215],[110.35099254926678,-7.7739842648618946],[110.35077336379976,-7.7747923335992937],[110.35066402692337,-7.7751441366925178],[110.3508196743885,-7.7752388811694004],[110.35084296323225,-7.7753527065621029],[110.35090218718625,-7.7756421677518119],[110.35096515681659,-7.7760917586277287],[110.35101287124706,-7.776477916722456],[110.3510274960222,-7.776830081343121],[110.35106541593626,-7.7777411026697223],[110.35108652122602,-7.7778969021202897],[110.35114655816716,-7.7781836419614478],[110.35118567867619,-7.7783133340930704],[110.35119165377188,-7.778446099208054],[110.35120033133029,-7.7786482137440203],[110.35120610677649,-7.7789106098367142],[110.35123354599142,-7.7794529199162525],[110.35122101573734,-7.7796866546153751],[110.35122393313804,-7.7797383035797907],[110.35125734115343,-7.7798082213722637],[110.35124812040448,-7.7798385069414735],[110.351235837464,-7.7799113727116378],[110.3512327249104,-7.7799872736936777],[110.35126612393253,-7.7800632295343917],[110.35129937816384,-7.7801119062394264],[110.35131140839485,-7.7802029266237014],[110.35130826346563,-7.7803000677938599],[110.35130809978904,-7.7804063757536142],[110.3513141432332,-7.7804944733412071],[110.35131329427315,-7.7806816834129222],[110.35124809702211,-7.7811937600839087],[110.35119720528684,-7.7814042563013572],[110.35118500328531,-7.7814547226572586],[110.35079879572788,-7.7813888230356838],[110.35078548306365,-7.7815228076314042],[110.35071146346331,-7.7820485108300659],[110.35051790597663,-7.7839629156559909],[110.3502260076242,-7.786387264860366],[110.35018525844299,-7.7867077940294394],[110.3501134071081,-7.7871609273348668],[110.35006530237189,-7.7872721599821375],[110.35004522680583,-7.7874192539953242],[110.34999768324656,-7.7877737172831871],[110.34995125034999,-7.7880148956708695],[110.34990362944899,-7.7882975148183959],[110.34983304435957,-7.7886582931456587],[110.34981462894206,-7.788821841155027],[110.34976456188508,-7.7893549727537561],[110.34969583569432,-7.7894812717432274],[110.35027538490118,-7.7896801406259328],[110.35016355870135,-7.7900106118002554],[110.34958391416637,-7.7897853604060288],[110.34951581840033,-7.7897744120594439],[110.34945206995712,-7.7899504876248784],[110.34919582432786,-7.7906198080576701],[110.34910475358157,-7.791029076031009],[110.34898171193652,-7.7915284650665626],[110.34892804759136,-7.7917223615976354],[110.34884296902788,-7.791916193377574],[110.34878824618067,-7.792040863694865],[110.34874864903099,-7.7923404665392582],[110.34873859191254,-7.7925479662156363],[110.34871278586644,-7.7930106449252889],[110.34871716286682,-7.7931617139419131],[110.34871723031597,-7.7931640243002107],[110.34871637596007,-7.7931650810036217],[110.34866192201014,-7.7932325202645529],[110.34862858594056,-7.793273804542423],[110.34861067144539,-7.7932959908172847],[110.34868055596297,-7.7933472269928643],[110.34886042666744,-7.7934358983479797],[110.34900879681857,-7.7935104692327286],[110.34915063069712,-7.793573577358643],[110.34940641137683,-7.7936928769246947],[110.34970808985651,-7.7939174106599012],[110.3498044261334,-7.7941006052586772],[110.34989727304077,-7.7941183443860496],[110.34983075018903,-7.7942726545593359],[110.34963983491053,-7.794708841939439],[110.34951494875594,-7.7949470885372421],[110.34936019072029,-7.7954923465944717],[110.34880486385345,-7.7954637967167741],[110.34871041525355,-7.795028734388552],[110.34820342245007,-7.7951055248000785],[110.348253595627,-7.7954739860355744],[110.34830904782439,-7.7960617361601408],[110.34793675457763,-7.7959716177958853],[110.34776106931798,-7.7966077406546788],[110.34809690135097,-7.7966646920218636],[110.348472281071,-7.7968173924086841],[110.34840158716355,-7.7970044945617474],[110.34827907971584,-7.7971565330475414],[110.34802521369272,-7.7977348519817724],[110.34777178294149,-7.7982740216287425],[110.347844378915,-7.7983103677292434],[110.3484040027426,-7.7985897556126815],[110.34823412890199,-7.7988580251776511],[110.34795312583617,-7.7993059424152875],[110.34831945477907,-7.7995003812375785],[110.34814582986621,-7.7998931736310055],[110.34791614031769,-7.8004570566478151],[110.34774614686722,-7.8009075396511776],[110.34771740273601,-7.8009837122285148],[110.347601554768,-7.801429071794189],[110.34747756343887,-7.8019338720504834],[110.3473127159092,-7.8024608909573203],[110.34683952862139,-7.8023460439347332],[110.34677311908422,-7.8023210382852426],[110.34667765335109,-7.8022850905844052],[110.34654732989543,-7.8024042129840154],[110.34649658474967,-7.8025256448426035],[110.34644841166494,-7.8026451242729991],[110.3463193256764,-7.8029652874180329],[110.34628757870883,-7.803151616154139],[110.3462540807613,-7.803259434075585],[110.34623343502506,-7.8033241591825799],[110.34621324884245,-7.8033874408776569],[110.34610817025589,-7.8035287810283762],[110.34601674877399,-7.8036768049405509],[110.34596284430989,-7.803903498847319],[110.34592231905981,-7.8040746128530714],[110.3457956522476,-7.8043712677197732],[110.34571458466041,-7.8046041678480265],[110.34571382743127,-7.8046276545425712],[110.3457100601712,-7.8047443092024764],[110.34569521506216,-7.8047782298314132],[110.34559984465716,-7.8048879399264592],[110.34559054206994,-7.8048986409594932],[110.34553989135298,-7.8049585367070335],[110.34541404562179,-7.8053283909924289],[110.34538453706682,-7.8053992530730056],[110.34530823858438,-7.8055756209181482],[110.34524057629164,-7.8057383631348785],[110.345137711836,-7.8060195406692401],[110.34506675982317,-7.8061294881852632],[110.34502815732367,-7.8061485870875913],[110.34491747146421,-7.8061622639772281],[110.34488607523224,-7.8062421813315837],[110.34490336469861,-7.8063222767516436],[110.34492527488158,-7.8064133259142068],[110.34494782987849,-7.8065070577544589],[110.34495276715654,-7.8065832833917739],[110.34493931779537,-7.8066822816619492],[110.34491583020144,-7.806734931571782],[110.34486084115497,-7.8068148120538581],[110.34480010544058,-7.8068577196080469],[110.34480008385685,-7.8068713596255179],[110.34479964228973,-7.8070343095856742],[110.34526564489363,-7.8070758483716531],[110.34526452523772,-7.8071065413337806],[110.34526232010006,-7.8071669487956115],[110.34521696728928,-7.8077930675959237],[110.34486664537945,-7.8077769067787699],[110.34480091033379,-7.8077830527456626],[110.34480129344502,-7.8077837245392061],[110.34495739866509,-7.8080575519144304],[110.34509676660258,-7.8082645542657474],[110.34518332724883,-7.8083597160280078],[110.34527696915688,-7.8084626650199311],[110.34530993830305,-7.8085742304163546],[110.34536698499841,-7.8088566966791859],[110.34536462607667,-7.8089287458648755],[110.34536650206246,-7.8092871355927969],[110.34539185485028,-7.8093601650395499],[110.34553588577256,-7.8096988883929157],[110.34557815480804,-7.8097310229682648],[110.34562435298159,-7.8097651423473735],[110.34567810186297,-7.8098805928150341],[110.34568232507928,-7.8100548994140127],[110.34567558825785,-7.8101007918180585],[110.34563898495128,-7.8103501216607469],[110.34561548027028,-7.8104129752785525],[110.34575830160441,-7.8104148161907574],[110.34613883983565,-7.8104197201938632],[110.34604351439674,-7.8107902462728021],[110.34592086395679,-7.8113918810304313],[110.34592012111676,-7.8113962049708334],[110.34583639693221,-7.8118836222313348],[110.34582442875444,-7.8122341815621894],[110.34579519988864,-7.8122454860402968],[110.34577939340437,-7.8125360659865919],[110.34588404481286,-7.8125503876901803],[110.34604111320687,-7.8125743708105233],[110.34642134836662,-7.8126238955762801],[110.34746412576885,-7.8127681549263457],[110.34899778372079,-7.812976577307154],[110.34929528484957,-7.8130054608333239],[110.34996113120133,-7.8131450715877122],[110.35111985189968,-7.8133909138595641],[110.3514877546562,-7.8134772640644314],[110.35134899196248,-7.8136721867219876],[110.3511906078603,-7.8140145046656357],[110.35118170637071,-7.8140510989790073],[110.35113953805927,-7.8142244406054147],[110.35118614722296,-7.8143566427448263],[110.35130693876425,-7.8144695930972148],[110.35143938911659,-7.8145514278061228],[110.35159928587842,-7.8145633348299839],[110.35179444146036,-7.8145403112862937],[110.3519583123263,-7.8145250479925039],[110.35205559379068,-7.8145835057241584],[110.35212957921675,-7.814692427113755],[110.35219161085422,-7.8149025357233768],[110.35216446481826,-7.8152631728571009],[110.35215537806829,-7.8153377644262605],[110.35213905087653,-7.8154717939880811],[110.3521523716347,-7.8155761450230443],[110.35217819386861,-7.8156084315838257],[110.35221423509893,-7.8156534984101995],[110.35232088030443,-7.8157115541448547],[110.35246213861689,-7.8157890289405145],[110.35251236665243,-7.8158818776464614],[110.35250620269915,-7.8159932793662961],[110.35249241699154,-7.8160915401923603],[110.35249048794572,-7.8161052908264423],[110.3523758261835,-7.8162673369679965],[110.3522029297215,-7.8165485136029815],[110.35214675267054,-7.816670458075123],[110.35193650646465,-7.8168863969895597],[110.35183147734085,-7.8169943147357799],[110.35151295995519,-7.8171124209014806],[110.35131339319861,-7.8172027002443656],[110.35129664062754,-7.8172704353822269],[110.35127457576112,-7.817359657122438],[110.35127455957331,-7.8173697484151035],[110.35127433384349,-7.8175165681350904],[110.35124370833051,-7.8178260761124534],[110.35119329143731,-7.8180972360985379],[110.3511936709512,-7.8183364054007143],[110.35122434772552,-7.8184792033525241],[110.35123717115857,-7.8186637271492145],[110.35128397727379,-7.8188159374055317],[110.35132714742997,-7.8189669641540149],[110.35130758177951,-7.8191465443774746],[110.35124974098284,-7.8193755243609075],[110.35107721144419,-7.819539771143468],[110.35096732508202,-7.8196621670753075],[110.35089750981228,-7.8197399296539629],[110.35086126893248,-7.8199259400300889],[110.35089716177464,-7.8200619229193649],[110.35092549581503,-7.8201692677974393],[110.3510041757022,-7.8203912717397657],[110.35092582586623,-7.820561391095282],[110.35085149959707,-7.8207940942720029],[110.3507941444343,-7.8210723229292967],[110.35079791619091,-7.8212968161950585],[110.3508834983748,-7.8215359072562478],[110.35103237934089,-7.8217705151970449],[110.35167628403332,-7.8224248691123535],[110.35182420092622,-7.8225574363765418],[110.35205897344292,-7.8227106466789564],[110.35232428333904,-7.8229758360659503],[110.35256899516304,-7.8232409939766399],[110.35260830632836,-7.8234927169153252],[110.35257555122075,-7.8236042850097078],[110.35252101633188,-7.8236422489905522],[110.35246719910202,-7.8236797120489996],[110.35234433642205,-7.8236938916597296],[110.35219262888677,-7.8237116721559232],[110.3520625950128,-7.8236395240447791],[110.35192534138145,-7.8236356686511499],[110.35179526703803,-7.8237110624155548],[110.35164691757126,-7.8238584792853203],[110.3515996042384,-7.8240599867789342],[110.35152538498858,-7.8242234475540045],[110.35149676586309,-7.8243510865333974],[110.35144468162684,-7.824583377820602],[110.35139856529162,-7.8247376160480826],[110.35136991019328,-7.8248156933894961],[110.35132936246015,-7.824926177800819],[110.35132638480485,-7.8250347727365011],[110.3513974726153,-7.8251627633508178],[110.35163170463954,-7.8255844851358347],[110.35165069922044,-7.8256097354009171],[110.35166734207422,-7.8256318596226038],[110.35175257981774,-7.8257451724017528],[110.35177907024797,-7.8257411731166258],[110.35181367436167,-7.8257359498541632],[110.35200006874823,-7.8256897975460902],[110.35232523662046,-7.8256351277589147],[110.35252846541641,-7.8256009598163701],[110.35271719893962,-7.8256157221877629],[110.35287970463474,-7.8256390865745402],[110.35347072919086,-7.8257389086236913],[110.35386296490395,-7.8257863640494065],[110.35423986807552,-7.825819011238309],[110.3545817759283,-7.8258370255582577],[110.35468701639275,-7.8258371865368872],[110.35559739560341,-7.8258566883354774],[110.35590659781133,-7.8258633109430207],[110.35612718532138,-7.8258665628915196],[110.35664957361899,-7.8259091134148093],[110.35743636529611,-7.8259576875971675],[110.35788725389369,-7.8259785743516659],[110.35913936828729,-7.8260393055694522],[110.3593443570565,-7.8244844496975361],[110.35970224766066,-7.8245819308114051],[110.36033329384651,-7.8247161636199962],[110.36043005370408,-7.8241366629765707],[110.36111699365438,-7.8242504910672892],[110.36117646761994,-7.8242603458382405],[110.36099483694221,-7.8253605368592503],[110.36091393123303,-7.8258583269002315],[110.36154636507274,-7.8258204465562926],[110.36238918900995,-7.8257187440247549],[110.36316321660922,-7.8256643116586133],[110.36430258659516,-7.8256105330995638],[110.36468652516305,-7.8255740440068848],[110.36496278880173,-7.82553739213688],[110.36581967903504,-7.8255447198129104],[110.3662537584043,-7.8255376673294563],[110.36671798484718,-7.8255311796202136],[110.36727034395125,-7.8255699089241375],[110.36716842108581,-7.8267228047135973],[110.36747561510759,-7.8267710857169845],[110.36748674421796,-7.8267728348983496],[110.36747770063545,-7.8268725085593474],[110.36751367801389,-7.8268725966929082],[110.36755339027678,-7.8268726938197233],[110.3678740831225,-7.8269281514130284],[110.36830496899915,-7.8269287971262429],[110.36835514667274,-7.8269338702019127],[110.36837525911096,-7.8268839209561634],[110.3685612029372,-7.8265145648952057],[110.36856999111228,-7.8264971881946508],[110.36869474326784,-7.826250503258052],[110.36891770408886,-7.8256714999397445],[110.36909389296886,-7.8251820663991793],[110.36910128269813,-7.8251615375748429],[110.36920182600352,-7.8249737060716029],[110.36936989580408,-7.8246295013503868],[110.36950994992429,-7.8246180799603735],[110.36965173074282,-7.8246473196180659],[110.37126860835963,-7.8249155568074684],[110.37124048116334,-7.8252728448658786],[110.37136754907317,-7.8252792030727392],[110.37142017739933,-7.8252854506629888],[110.37146043105412,-7.8252839685802655],[110.37151460261686,-7.8252933053417451],[110.37157031381901,-7.8253072718130738],[110.37164151944063,-7.8253150923176236],[110.37171207035584,-7.825324432676382],[110.37166967811322,-7.8257368572701012],[110.37163141196015,-7.8257346296493893],[110.37169238419625,-7.8262516400011464],[110.3719895624684,-7.8262590504148193],[110.37209449626403,-7.826137437792454],[110.37215730131845,-7.8259285927303495],[110.37217720961058,-7.8257852947555193],[110.37225822413779,-7.8249535999286195],[110.37225831766727,-7.8248848458588895],[110.37227788691501,-7.8248003392641863],[110.37289511142029,-7.8247666443651269],[110.37293259606253,-7.8247498000631595],[110.37332897765026,-7.8247722849129673],[110.37338764762188,-7.8247564325632766],[110.37336101419953,-7.8244150867867575],[110.37330328312009,-7.8239970980875455],[110.3733883338046,-7.8239882451613312],[110.37358083818521,-7.8240083135327723],[110.37369459972604,-7.8240542769832473],[110.37377853165395,-7.8241270222442267],[110.37385244423496,-7.8241754678235225],[110.37389585720808,-7.8242112203714669],[110.37397001890133,-7.8242164724122176],[110.37413091570926,-7.8242293605964619],[110.37449485695214,-7.8242716548129465],[110.37482236486034,-7.8243107069735061],[110.37501260384863,-7.8243462301942941],[110.37513538918694,-7.8243645601762637],[110.37513651603746,-7.8243647283495079],[110.37514051442326,-7.8243653246000235],[110.37514133730292,-7.8248659232237401],[110.37515234500478,-7.8252990169360146],[110.37513119115164,-7.8255931213254257],[110.37514569541759,-7.8257901933627068],[110.37516595444532,-7.8259726694031428],[110.37521472198188,-7.8261386302934852],[110.3752927750416,-7.8262632898189395],[110.37531842730363,-7.8262953677369751],[110.37532249943388,-7.8263004605977358],[110.37532479180578,-7.826302313201154],[110.3755890791727,-7.8265156980409643],[110.37575713098687,-7.8266928393030639],[110.37581122161066,-7.826761927920586],[110.37587164166297,-7.8269286253557198],[110.37587759157765,-7.8269952831057594],[110.37588055664241,-7.8270284995655288],[110.37588016094071,-7.8272948670644382],[110.37585531087393,-7.8277109393083606],[110.37580759644351,-7.8279561529540729],[110.37574809010232,-7.8281696726921837],[110.37574336326566,-7.828363014341619],[110.37574521317111,-7.8283872870435971],[110.37575207140105,-7.828477286697364],[110.37584824310198,-7.8286599470988563],[110.37579708157011,-7.828679951618426],[110.37569750413655,-7.8287188886657191],[110.37537222384913,-7.8292577759255551],[110.37495944941912,-7.8292080587049213],[110.37492327868642,-7.8292732478620337],[110.37466655461787,-7.8292430000643662],[110.37466079266153,-7.8293099932615178],[110.37457966122247,-7.82930987185307],[110.37461215372798,-7.8299090595554048],[110.3746437720925,-7.8299723367538832],[110.37469927015525,-7.8299724203908454],[110.37490303045058,-7.830748918427787],[110.37492750010409,-7.8307841547648991],[110.37498305122688,-7.8308136093605185],[110.37516602189447,-7.8308446035955512],[110.37519338376768,-7.830840927167003],[110.37526895200057,-7.8308307720224661],[110.37533911710665,-7.8308213435301468],[110.37539827990673,-7.8308143396100149],[110.37547197125451,-7.8308056161861828],[110.37584969460778,-7.830988276587675],[110.37622100759347,-7.8311766207044116],[110.37685375169934,-7.8313798557956602],[110.37682942144073,-7.83111149719781],[110.37681741729006,-7.8309134691812119],[110.37681199707606,-7.8308971608752245],[110.37671366430425,-7.8306012695329059],[110.37652120938634,-7.8302065786706407],[110.37647041657652,-7.8300848563309842],[110.37700103007353,-7.830023304931558],[110.37720905765195,-7.8308221754030001],[110.37746452806556,-7.8318032278366445],[110.37823373260073,-7.8318007187281182],[110.37791622605306,-7.8306886233812065],[110.37791457219981,-7.8306828299486142],[110.37812151609518,-7.8306216643582616],[110.38016278198688,-7.8300183289826464],[110.38005934736105,-7.8296762088899072],[110.37971504821098,-7.8285374099734213],[110.3797561328393,-7.8285363406795341],[110.37982888709354,-7.8285344494052538],[110.37998657242247,-7.8285298277892821],[110.38019093886078,-7.8285238392037968],[110.38039459033814,-7.8285200251789888],[110.38066867402017,-7.8285415099826423],[110.3808129315716,-7.8285509780451434],[110.38081616823166,-7.8285755619126007],[110.38081863057539,-7.8285942696098232],[110.38088411381085,-7.8289468371268072],[110.38122004386997,-7.8289506700373295],[110.38136421058988,-7.8289523148973785],[110.38295141777377,-7.8289704272433482],[110.38304444094825,-7.8289798188635018],[110.38341371517089,-7.8290473111844108],[110.38354630581745,-7.8290660170829938],[110.38448496241114,-7.8290057903848833],[110.38455542519279,-7.829001268593629],[110.38452716309814,-7.8295455131149083],[110.38449772469028,-7.8301124223503393],[110.38454871625032,-7.8301336247669155],[110.38466763360447,-7.8301830721910051],[110.38482433687369,-7.8302482307711898],[110.3851730579903,-7.8303316329984227],[110.38528382568808,-7.8303491751742627],[110.38553754512168,-7.8303845122354119],[110.38586471578407,-7.8304060716828303],[110.38598622408506,-7.8304155046717483],[110.38602944100597,-7.8304181306921237],[110.38604312509023,-7.8304189625650338],[110.38619946863065,-7.8304284648017415],[110.38642583158691,-7.8304416641514081],[110.38650740819037,-7.8309030055692119],[110.3864268271364,-7.8312953096307751],[110.38663889267082,-7.831749998763371],[110.38644349966785,-7.831799883257986],[110.38641708208274,-7.8317463870860706],[110.38634813735672,-7.8317840300089188],[110.38635478334663,-7.8317265129681459],[110.38619021910341,-7.83175110762744],[110.38613281177987,-7.831664034367634],[110.38596499468883,-7.8317260839915548],[110.38593966528339,-7.8317354495313225],[110.38601978138786,-7.831995418353813],[110.38617650714014,-7.8324989325796537],[110.38621178394675,-7.8327056588390178],[110.38621571128613,-7.8329541514129346],[110.38620045878423,-7.833202333720692],[110.38616914708854,-7.8333891795669501],[110.38621238019726,-7.8334018905847529],[110.38679116138303,-7.8335720647988865],[110.38674987260862,-7.8337877429099763],[110.38694017544879,-7.8338273625427064],[110.38693608083554,-7.8339889212516596],[110.38693589107856,-7.833996427892771],[110.38637422578995,-7.8340237124243686],[110.38612963897174,-7.8340543811047496],[110.38587479898285,-7.8340877657377632],[110.38563285886943,-7.8341288323796903],[110.38507895383071,-7.834302738780309],[110.38453674897187,-7.8344916503693298],[110.38370843289795,-7.8347918197866306],[110.38375752778774,-7.8348879177431741],[110.38407194516418,-7.8355405575506438],[110.38468109016026,-7.8352875818563916],[110.38497071412723,-7.8351391469540204],[110.38500763579384,-7.8349682298998573],[110.38503684037795,-7.8348873628614797],[110.38507563982898,-7.8348753434223113],[110.3851130678139,-7.8349720070524427],[110.38514295138617,-7.8350623196702713],[110.38525170280388,-7.8350309423240674],[110.38536776930715,-7.8346809405729232],[110.38604836184248,-7.8346355643797665],[110.38613888670034,-7.8341944478154915],[110.38677154267259,-7.8343897553828583],[110.38715566290358,-7.8345279560003291],[110.38760200992488,-7.8347236421822686],[110.38795611078592,-7.834878884952559],[110.38806913937935,-7.8365258026236688],[110.38804422725934,-7.8366071319135813],[110.38780556607406,-7.8373862838498667],[110.38775678145038,-7.8379603561854196],[110.38775228124285,-7.8389672029740041],[110.38765700346801,-7.8399285989256668],[110.38813429885886,-7.8399804556334516],[110.38893317922293,-7.8400672528014184],[110.3897961515712,-7.8400719463631958],[110.38988917834297,-7.8400724517821914],[110.39028222344592,-7.837840838084162],[110.39064809643259,-7.836381700654897],[110.39065142302479,-7.8363628023014371],[110.39067003179662,-7.8362570959881168],[110.39072222035423,-7.8358888928580654],[110.39152872876787,-7.8360012280741671],[110.39177583458718,-7.8365333776132502],[110.39190121536888,-7.8368033855677481],[110.39202055900165,-7.8368494425477024],[110.39430878232452,-7.8371612770712318],[110.39436750445685,-7.8367661068703001],[110.39436754312766,-7.8367658325770435],[110.39449561468092,-7.8358587367912378],[110.39449820113111,-7.835623055059898],[110.39484666863893,-7.8356524979643609],[110.39500446278578,-7.8356396556455365],[110.39521270260423,-7.8356227088208925],[110.39521960310225,-7.8354558018437501],[110.3952334220848,-7.835236453599407],[110.39520404842813,-7.8350838926074857],[110.39517737003968,-7.8349848151970036],[110.39508112999022,-7.8346399413801464],[110.39506297897339,-7.8345494138243339],[110.39504730199144,-7.8344779950633665],[110.39503413142012,-7.8343432001785231],[110.39525448330784,-7.8343435158405441],[110.39529751316974,-7.833726562930508],[110.39532305121787,-7.8334507426575897],[110.39534352608291,-7.8332296101583552],[110.39539747821112,-7.8328910765619071],[110.39540826557908,-7.8327475483606008],[110.39541406260895,-7.8324605522126944],[110.39542018699211,-7.8323332163048462],[110.39538690668047,-7.8323128970225184],[110.39527473064436,-7.8322453732253621],[110.39522853966542,-7.8322098248235079],[110.39516817986765,-7.8321244800606564],[110.39503247037226,-7.8319583968624897],[110.39488539614416,-7.831848039255533],[110.39458677625879,-7.8316516911725671],[110.39451305073675,-7.8315985169579676],[110.39439449760806,-7.8314637229723871],[110.39415877630654,-7.8311327382851914],[110.39402258207656,-7.8309183156277413],[110.3939089878096,-7.8308079040614871],[110.39372170039621,-7.8304956027897674],[110.39357162423113,-7.8302874349171248],[110.39345109709052,-7.8299836637150406],[110.3932138406463,-7.8295632009808855],[110.39309320918431,-7.8292038930451895],[110.39311186921748,-7.8290909966521554],[110.39314874142133,-7.8290464145603096],[110.39329650902675,-7.8289310297431598],[110.39345486614923,-7.8287840868160856],[110.39355935567977,-7.8286665831961955],[110.39366714212497,-7.8284435639192793],[110.39369122237207,-7.8282919031487381],[110.39370941745574,-7.8281163725724809],[110.39369758777354,-7.8279824518286318],[110.39364463029551,-7.827796847046784],[110.39363429708521,-7.8277493142794015],[110.39363050824142,-7.8276833849801619],[110.39363929102052,-7.8276058796076313],[110.39363943041542,-7.8276046556302958],[110.39365205419898,-7.8274932557091574],[110.39366431825374,-7.8273629502398876],[110.39366445225272,-7.8273615302103963],[110.3936598666096,-7.8273343715839587],[110.39365084820815,-7.8273042254096481],[110.39364360506841,-7.827279933821842],[110.39363115215599,-7.8272381711046819],[110.39361696804872,-7.8271975271441079],[110.39360645587328,-7.8271766340943145],[110.39357301278437,-7.8271522121048633],[110.39353182293536,-7.8271125573985501],[110.39349968116539,-7.8270836118192051],[110.39346168211102,-7.8270120797436107],[110.39344676595556,-7.8269559602493359],[110.39344346994022,-7.826943558598316],[110.39343430584859,-7.8268856440571994],[110.39342073687754,-7.8268034523174492],[110.39340441957836,-7.8267037705625171],[110.3933949892874,-7.826573865291607],[110.39338910412391,-7.8265508192648667],[110.39334744033215,-7.826455421880155],[110.3933234590105,-7.826411061021588],[110.39329970161998,-7.8263395496304611],[110.39329972770031,-7.8263218608651641],[110.39330515780682,-7.8262762049828325],[110.39330693306857,-7.8262599029720832],[110.39346811316295,-7.826297774322768],[110.39393991909208,-7.8263652855294481],[110.39398626295571,-7.8267637463497408],[110.39407361680401,-7.8270852000219406],[110.39409052405853,-7.8271406252396218],[110.39413539663133,-7.8272877327426045],[110.39461622905577,-7.8273775201564035],[110.39498029800239,-7.8274190121776428],[110.39548189667227,-7.827457474382868],[110.39576430807642,-7.8274627444100702],[110.39607639710812,-7.827468568419647],[110.39647080738189,-7.8274684308233873],[110.39700072570298,-7.8274668039497897],[110.39753658404618,-7.8274995527621058],[110.39769889278972,-7.8275094731835679],[110.3979494043416,-7.8275538871021695],[110.39940039840974,-7.8278851200022359],[110.39942977746233,-7.827998982267161],[110.39944395167709,-7.8281752790658174],[110.39942697517483,-7.8285350060855876],[110.39940363417043,-7.8286893432385796],[110.39936658659877,-7.8288351350333869],[110.39909695186287,-7.8294458898159291],[110.39903024195218,-7.8295969957047191],[110.39898726694889,-7.8296799239892607],[110.3987790810898,-7.8300250271332743],[110.39857944328674,-7.8303384687453104],[110.39852729879584,-7.8304540478160334],[110.39837271522867,-7.8304445680623189],[110.39817794905315,-7.8304432622467175],[110.39792622431588,-7.8304426686941611],[110.39780422588439,-7.8307249910654377],[110.39769923273349,-7.8311385613954485],[110.397666019871,-7.8312475340464403],[110.39739474207374,-7.8312205058216477],[110.39711881568087,-7.8311393626913741],[110.39701343222418,-7.8316158558869802],[110.3969327738285,-7.8319739308522003],[110.39689337363035,-7.8322271880342669],[110.39700006739923,-7.8322603253536727],[110.39698624392008,-7.8324493592504609],[110.39718675676346,-7.8325612079333382],[110.39715429663352,-7.8326722220453462],[110.3978653474079,-7.8327610849560756],[110.3977882278445,-7.8333332318431417],[110.39900602680677,-7.8334418699462844],[110.40005280259481,-7.8335352510509324],[110.40026666407533,-7.8330046546410586],[110.40047583469209,-7.8321999403748919],[110.40051059258985,-7.8319071642841323],[110.40057536266289,-7.8313615815716844],[110.40198213526742,-7.8317590702248481],[110.40191117605997,-7.8319530917617044],[110.4018758830656,-7.8322289417122306],[110.4018787258226,-7.8324482288026616],[110.40189394864689,-7.8325780162624028],[110.40191234068203,-7.8326984561687709],[110.4019153776926,-7.8327818808790539],[110.40192228988184,-7.8328810113495706],[110.40191195577222,-7.8330985258762098],[110.40210897295083,-7.8329611886078965],[110.40222091426386,-7.8329474181887235],[110.40236511965463,-7.8328953420463563],[110.40247061912385,-7.8328314883824532],[110.4026502685951,-7.8328958213850228],[110.4031289822168,-7.8330315083973687],[110.4033774136368,-7.8330760518182956],[110.40346984146009,-7.8330906289293125],[110.40356599877191,-7.8330926020419156],[110.40361251530538,-7.8328344633397364],[110.4032041916202,-7.8326775802061093],[110.40363103234631,-7.8319163202818913],[110.40358333500296,-7.8318888918588527],[110.40422222057907,-7.8313333383628105],[110.4047482214533,-7.8310760504193695],[110.40507651177165,-7.8304612100167788],[110.40510745474529,-7.8304032586034396],[110.40505555127271,-7.830333332717089],[110.40497716366525,-7.8302007573590231],[110.40491117860807,-7.8300891568890165],[110.40483116862362,-7.8295116716262783],[110.40480204857573,-7.829177589673975],[110.40480690311614,-7.8286247017685469],[110.4048198974204,-7.8283309948794795],[110.40484628712653,-7.8282425861264073],[110.40487000045022,-7.8281877130924613],[110.40489008321083,-7.8281412424243513],[110.40494999694488,-7.8280147213022815],[110.40487570215197,-7.8280120152422796],[110.40470623570428,-7.8280058440943776],[110.40468344688361,-7.8277717370759774],[110.40471334574437,-7.8276871378510577],[110.40476565121389,-7.8273242712980391],[110.4048412743054,-7.8269525931875705],[110.40489074511186,-7.8263699952790375],[110.40490410094355,-7.8262127110477309],[110.40489837945671,-7.8258133563012962],[110.4049005702052,-7.8253118862344877],[110.40492229602722,-7.8251210366065038],[110.40493544591413,-7.8248472811770284],[110.40487824903204,-7.8247481605990856],[110.40486110435654,-7.8247082333982121],[110.40485305632353,-7.8245602760358679],[110.40479066495726,-7.8241640833057318],[110.4048036628588,-7.8239974919906103],[110.40481820129901,-7.8236589467030058],[110.40481247711421,-7.8235214349662101],[110.40478742469998,-7.8230572597846617],[110.40478080928699,-7.8228970176831467],[110.40480985738907,-7.8227604808114961],[110.40482619627198,-7.8225089278446944],[110.40388444960774,-7.8226462579183931],[110.40386642989188,-7.8226488857374648],[110.40246263314407,-7.8227218711174373],[110.40246086237897,-7.822742265942793],[110.40191074618406,-7.8227146531586413],[110.40139798063234,-7.8226510369157722],[110.40142265173404,-7.8225339982453761],[110.40144318325639,-7.8224553660222682],[110.40255949372573,-7.8224991036506708],[110.40299362165837,-7.822457993841283],[110.40334289405939,-7.8224065265399076],[110.40346511732139,-7.8223844607741739],[110.40348859232472,-7.82237874108597],[110.40351786975395,-7.822374572728279],[110.40341325701627,-7.8222070542121287],[110.40337893528971,-7.8221505426134286],[110.40334942763405,-7.8220892061518725],[110.40333780839319,-7.8220661520312547],[110.4033203291699,-7.8220009242032233],[110.40332273305773,-7.8218715477336787],[110.40334576739332,-7.8218021596418907],[110.40338550034062,-7.8216955656977802],[110.40340307219407,-7.8215647718966466],[110.40342390229131,-7.8215333558796374],[110.40348867326372,-7.8214129510467956],[110.40321532882444,-7.8213126973230942],[110.4031944492645,-7.8211666690065158],[110.40312433541982,-7.8210518849364803],[110.4031302430663,-7.8210145486824558],[110.40316711167293,-7.8207815703131587],[110.40321423075221,-7.820474500397836],[110.40322033804824,-7.8204385895692212],[110.40333715368678,-7.8204501197771492],[110.40344588442008,-7.8204694956706362],[110.40353884733997,-7.8204805942040139],[110.40355828258873,-7.8203929058079211],[110.40357858298529,-7.8203132393644523],[110.403625186753,-7.8201909549485435],[110.40365789689452,-7.8200795963962264],[110.40366951793396,-7.8199118620427726],[110.4037248262398,-7.8196817740945335],[110.40331880032244,-7.8196933870401608],[110.40314884914011,-7.8196738123965019],[110.40295816318871,-7.8196678858641917],[110.40291137595932,-7.8196624719454917],[110.40279285880348,-7.819632478655933],[110.40259354565569,-7.8195804663653803],[110.40243344564703,-7.8195270691189194],[110.40235265864834,-7.8194982602364576],[110.40228554314336,-7.8194814015453744],[110.40216757007738,-7.8194593285850829],[110.40189521669095,-7.8193937392296107],[110.40184602467434,-7.8193884242363652],[110.4016516892741,-7.8193483477480186],[110.40153872183458,-7.8193176430947346],[110.40141249838814,-7.819279995675231],[110.40136852603672,-7.8192632880702604],[110.40129737977031,-7.8192362553488692],[110.40134535680284,-7.8191150726024716],[110.40156841564993,-7.8185982843832562],[110.40171836411128,-7.8181167702726952],[110.40183965657496,-7.8177556466057467],[110.40191150161456,-7.8173094021071847],[110.4019401432231,-7.8170685789517051],[110.4019621064661,-7.8165825637343005],[110.40208190605517,-7.810639316651077],[110.40226045475623,-7.8024326378559294],[110.40159999804155,-7.8023862409322078],[110.39955175970601,-7.8023126386173089],[110.39754348994018,-7.8022510458490615],[110.39752160943476,-7.8022503749547809],[110.39706691670489,-7.8022364300671256],[110.3970683331371,-7.8020866641681437],[110.39722723165147,-7.8018212778296743],[110.39725647580576,-7.8018067160070927],[110.39732254270126,-7.8017788361243561],[110.39741154230887,-7.8017533538341581],[110.39750163099552,-7.8017413469855228],[110.39758634083699,-7.801740130202802],[110.39775761312342,-7.8017358485305408],[110.39782992491115,-7.8017384196922421],[110.39791350880142,-7.8017490289944362],[110.39791630209572,-7.801749029893756],[110.39801190272721,-7.8017490658666588],[110.39811438137366,-7.8017393387993934],[110.39820114976334,-7.8017210528842611],[110.39830923208547,-7.8016721495500292],[110.39834091969777,-7.8016292051236746],[110.39835243821449,-7.8015934318913196],[110.39837994038203,-7.8015032757555218],[110.39838924836516,-7.8014736700737899],[110.39840873757322,-7.8014116816037813],[110.39844580133274,-7.801336169128831],[110.39846104664008,-7.8013051056460654],[110.39850486520743,-7.8011864850681718],[110.39852442636123,-7.8010881927658602],[110.39853976699669,-7.800965314797395],[110.39853508332749,-7.8007486132578379],[110.39852866486603,-7.8006607809701904],[110.39851930112491,-7.8005326158874482],[110.39849808701717,-7.8003645370936852],[110.39842988423186,-7.7998788968935173],[110.39842906225147,-7.799873045004972],[110.39842688409351,-7.7998690637062964],[110.39839032395435,-7.7998022332864139],[110.39829084904352,-7.7996521427321568],[110.39807560260704,-7.7993673679096673],[110.39793941557161,-7.7991529479501196],[110.39784762896494,-7.7989300545783067],[110.39784436802324,-7.7988932866957725],[110.39783980216521,-7.7988418032065852],[110.39785219302433,-7.7987130580611392],[110.39785741538748,-7.7985534499816822],[110.39784731060496,-7.7985053038766523],[110.39777713200908,-7.7983045536122404],[110.39775524970509,-7.7980865939211412],[110.39772196129951,-7.7979554188074758],[110.39768413941158,-7.7978908816588159],[110.39763741873196,-7.7978397012411733],[110.39750723736915,-7.7976948132649682],[110.39733293796479,-7.7974885663442137],[110.39712231044632,-7.7973382149866097],[110.39697018562561,-7.7971159142679767],[110.39692371945415,-7.7970480118561909],[110.39688101784475,-7.7969242111833523],[110.39667525296062,-7.796327639608819],[110.3966331862726,-7.7962566165495559],[110.39651049086655,-7.796049723915587],[110.39650078088641,-7.7959852263370522],[110.39640716326005,-7.7954921559381773],[110.39633251503358,-7.7950551636648129],[110.39626746796932,-7.7948875372300108],[110.396235729995,-7.7948362749740454],[110.3961753396203,-7.7947747901243929],[110.39605418924947,-7.7946521288926078],[110.39603210100074,-7.794578562550555],[110.39601754367476,-7.7944115215744318],[110.39603542129771,-7.794068558816889],[110.3960243911128,-7.7940222626172613],[110.39601505704928,-7.7939536515397663],[110.39593908142353,-7.7937977342779732],[110.39588350601906,-7.7936029690017676],[110.39587092360432,-7.7934934585562132],[110.39587071945817,-7.7934916716033058],[110.39584161379952,-7.793177643633328],[110.3958271895732,-7.793022018651186],[110.39581945090697,-7.7928725738102003],[110.39578062537561,-7.7927440454013208],[110.39577674570029,-7.7927312039818162],[110.39577436339624,-7.7925871146036343],[110.39578789369642,-7.7924378028622527],[110.39585308195421,-7.7923659668158507],[110.39593516037939,-7.7922755184004018],[110.39594897846263,-7.7921958735406633],[110.39594951985453,-7.7921927483965874],[110.39596513298454,-7.7921383663924644],[110.39600069127891,-7.7921053001194309],[110.39600978702214,-7.792100552598356],[110.39617559682637,-7.7920140171331127],[110.39623356262888,-7.7919605182632381],[110.39624433560766,-7.7919283423190677],[110.39626595441035,-7.7918132902510706],[110.39626069427567,-7.7917409820606167],[110.39624602903109,-7.7916499427905705],[110.39623128914275,-7.7916110471120987],[110.39617424874262,-7.7915351686131089],[110.39600371030303,-7.7912888173250394],[110.39598591002181,-7.7911913982643455],[110.39598878965097,-7.7911176619504658],[110.39603130510073,-7.7910045928875888],[110.39603616413774,-7.7909975772763005],[110.39607912025525,-7.7909355492361669],[110.39616929977342,-7.7908584413639232],[110.39630865512038,-7.7907988154129271],[110.39650685131022,-7.7907140129412937],[110.39665444624575,-7.7906469945630761],[110.39672349079655,-7.7906156441965777],[110.39689882442127,-7.7905360317124632],[110.39704118440318,-7.7904416172867741],[110.39728544117025,-7.7902233158533249],[110.39740090872505,-7.7900512152913279],[110.39743723144312,-7.7898718005430965],[110.397440933952,-7.7897390336294734],[110.39740522906811,-7.7894877315735016],[110.39731681132184,-7.7890647498383032],[110.39730658692952,-7.7890158420074727],[110.39723387944002,-7.7887963489722551],[110.39716442210045,-7.7885866720372405],[110.39712688619693,-7.7884838507490599],[110.39703843157844,-7.7884915417512275],[110.39695634146204,-7.7884963009634589],[110.39686711072864,-7.7885034397818913],[110.39632578360806,-7.7885510292065874],[110.39600165265421,-7.7885782013228777],[110.39558594463568,-7.7886130509514828],[110.39483564564858,-7.7886759495353886],[110.39483267159056,-7.7885480542492473],[110.39485533630477,-7.7884716199692434],[110.3948582950743,-7.7884616410918284],[110.39498436293803,-7.7880364704067233],[110.39508548990352,-7.787649807792377],[110.39510333605017,-7.7875010923015111],[110.39510209498576,-7.7875005518089893],[110.39496651679138,-7.7874416048461512],[110.39360427501737,-7.78681104789149],[110.39287980545873,-7.786467136349188],[110.39283987286188,-7.7864481795398319],[110.39282080183858,-7.7863940808221059],[110.3926941314291,-7.7860347486047203],[110.39256861844706,-7.7856639554271396],[110.39231265610425,-7.7849077820684442],[110.3919654206677,-7.7840360008606808],[110.39121989078541,-7.7818729092073227],[110.39112269565595,-7.7815909069947224],[110.39086392922701,-7.7807610701672161],[110.39075090513023,-7.7803892787421773],[110.39068434540627,-7.7803860708604589],[110.39050403583263,-7.7803773816108333],[110.38988537600937,-7.7803476392321045],[110.38909117301927,-7.7803165487696901],[110.38904959016651,-7.7803149209967728],[110.38859154386472,-7.7802970748500684],[110.38820683457783,-7.7802602170353339],[110.38809483121156,-7.780249486324692],[110.38739586462754,-7.780249486324692],[110.38698838180841,-7.7802524603827123],[110.38587003527397,-7.7802435373093317],[110.38537629667883,-7.7802643566147367],[110.38485281570496,-7.7802881517767446],[110.38435907800908,-7.7803178950547931],[110.38369580281909,-7.7802941007920481],[110.38333767299525,-7.7802708452232991],[110.38323775741662,-7.7802643566147367],[110.38312312263406,-7.7802598842861812],[110.38262801976737,-7.7802405632513683],[110.38256401861463,-7.7802310313369958],[110.38234843313376,-7.7801989219426559],[110.38193500219865,-7.7801691786646074],[110.38193454983968,-7.780170301917849],[110.38183684929123,-7.7804130739041852],[110.38133121446401,-7.7803476392321045],[110.38087473927783,-7.7802734343714519],[110.3807274249308,-7.780249486324692],[110.38066830799607,-7.7802160378398071],[110.38050137673719,-7.7801215901392311],[110.38016710322927,-7.7799434937971341],[110.38013850928485,-7.7799282592816894],[110.38013478519224,-7.7799223633263637],[110.3801028169915,-7.779871745884293],[110.37993030633862,-7.7794285716711897],[110.3797488717131,-7.7790478580721469],[110.37961205335364,-7.7783340202987574],[110.37953769470892,-7.7781287914105519],[110.37944636495786,-7.7781095639052182],[110.37931164561599,-7.7780812019858558],[110.37894877816365,-7.7779949471090504],[110.3789464929863,-7.7779931070961652],[110.37884170218285,-7.777908691332982],[110.3786156539893,-7.7777302316648047],[110.37813047514135,-7.7773697492145288],[110.37797914801934,-7.777257314173653],[110.37793314859601,-7.7772207774169146],[110.37745864110349,-7.7768438823392785],[110.37741338362082,-7.7768160321341497],[110.37722664299525,-7.7767011149644532],[110.37633137059635,-7.7766089110723442],[110.37567999433634,-7.7765137322228952],[110.37561481237373,-7.7763641965503894],[110.3755788673709,-7.7762817350140381],[110.37554317507755,-7.7761776330912653],[110.37550128645529,-7.7756631489351093],[110.37546083494965,-7.7752848149422107],[110.37544536930841,-7.7750599556524094],[110.37542038524265,-7.7746899502809583],[110.37539659008064,-7.7746911391846538],[110.37519525525687,-7.774792696925374],[110.37499327112261,-7.7748945829186482],[110.37492069763215,-7.7749124290652958],[110.37465062942306,-7.7750016588993844],[110.3739938977003,-7.7752015341234824],[110.37339665343285,-7.7753788039885876],[110.37290053523157,-7.7755287101817885],[110.37266021030052,-7.7756036632783889],[110.3725753071048,-7.7756035805407464],[110.37244843794514,-7.7755667811819649],[110.37225927094863,-7.7755406073131326],[110.37175006581293,-7.7754692227264286],[110.37123134315203,-7.7754121157764757],[110.37095651573065,-7.7753692855640111],[110.37073760545621,-7.7753573875333473],[110.37038782493823,-7.7753597680388111],[110.37013679088028,-7.7753764243824435],[110.37006540809216,-7.7753728549732273],[110.37005707857139,-7.7753657170541715],[110.3700572791202,-7.7753440802650289],[110.37005826927378,-7.7752372264168343],[110.37004756194551,-7.775158703011698],[110.3700059206368,-7.7750635250615687],[110.36989170673695,-7.7749255159997119],[110.36984060366098,-7.774895318564063],[110.36981318513045,-7.7748791172774077],[110.36957047969395,-7.7747363490032626],[110.36951932086004,-7.7747030372153745],[110.36948405844259,-7.7746538317089176],[110.36946816292544,-7.7746316526286137],[110.36935632773242,-7.7744722289102128],[110.36933967228811,-7.7744282088946761],[110.3693188502848,-7.7743022372583823],[110.3693158771261,-7.774284250817459],[110.36931983324376,-7.7742249189448103],[110.36932301594447,-7.7741771757360425],[110.36932658535369,-7.7740272695427848],[110.36935670724631,-7.7736858895920591],[110.36935870823788,-7.7736632122873743],[110.36934800001023,-7.7735025987659014],[110.36930992901006,-7.773262272935483],[110.36928256533815,-7.7730909520857381],[110.36924211383257,-7.7729695993674568],[110.3692326718504,-7.7729465191664531],[110.36922069917597,-7.7729172507304725],[110.3692195093729,-7.7728839389425843],[110.36920880204462,-7.7727364123554707],[110.36920166322625,-7.7726364751931101],[110.3691683514383,-7.7724651543433652],[110.36916359222607,-7.7723771134130288],[110.36915407380155,-7.7722510023818359],[110.36915369788488,-7.7722367580199148],[110.36914838199232,-7.7720353899212569],[110.3691148129983,-7.7720106756520977],[110.36910626044562,-7.7720060531368063],[110.36906885944035,-7.7719858363772119],[110.36902677296723,-7.7719630871267213],[110.36892802470862,-7.7719297753388332],[110.36890066103672,-7.7719178782074891],[110.36891493777421,-7.771889323833193],[110.36893278392091,-7.7718429242115121],[110.3689256460018,-7.7718131809335205],[110.36889471292073,-7.771773920130272],[110.36888518910024,-7.7717668046942094],[110.36869245898987,-7.7716228241339991],[110.3686753403947,-7.7716057055388319],[110.36867223323702,-7.7716025992804703],[110.36867461284317,-7.771576425411638],[110.36867104343395,-7.7715466821336463],[110.36865472613476,-7.771539689005408],[110.36862940302461,-7.7715288359869419],[110.36843309720973,-7.7714515032841973],[110.36840454373475,-7.7714300877283335],[110.36840454373475,-7.771386086598568],[110.36840454373475,-7.7713813093998851],[110.36841525106303,-7.7713337199751322],[110.36844618414415,-7.7711100513877227],[110.36851756783153,-7.7706543837927029],[110.36855801933717,-7.7703569510124453],[110.36852864388186,-7.7703468534244848],[110.368519948337,-7.7703438640780291],[110.3681130599698,-7.7703153106030527],[110.36787035543261,-7.7703022227693168],[110.3678501287805,-7.7703283975374688],[110.36780903066227,-7.770610308918549],[110.36776401869457,-7.7709190632641025],[110.36775972263314,-7.7709545622032579],[110.36775820187955,-7.7709726026034787],[110.36772061831192,-7.7712835476975215],[110.36769227258037,-7.7714457008583508],[110.36766290971559,-7.7716136834246754],[110.36762170098075,-7.7718881340301209],[110.36760623533957,-7.7719488112885529],[110.36740041110016,-7.7719047903737533],[110.36665564024565,-7.7717227621956795],[110.36653428662811,-7.7716942078213833],[110.36652976123958,-7.7716613888619577],[110.36652952921446,-7.7716597062304231],[110.36655622019344,-7.7715870715860547],[110.3666021018056,-7.7714622106124693],[110.36661637944241,-7.7714015342533571],[110.3666021018056,-7.7713610836470366],[110.3665750394066,-7.771332380884644],[110.36656284100235,-7.771319443237644],[110.36652587526896,-7.7712945787817489],[110.36652260533401,-7.7712923790400055],[110.36652255227403,-7.7712921919810469],[110.36651588739835,-7.7712686216495399],[110.36651580016411,-7.7712605754151696],[110.3665143792353,-7.7711295621795102],[110.36652199379506,-7.7710857795850075],[110.36657905937614,-7.7708136168548663],[110.36659904590931,-7.7707429472291665],[110.36663973483593,-7.7705202301244753],[110.36665900910606,-7.7704459910895594],[110.36665972316774,-7.7703824593829722],[110.36663973483593,-7.7703560471937863],[110.36658762541862,-7.7703132169813216],[110.36657574357577,-7.7703071690405636],[110.36657541802117,-7.7703070026660157],[110.36649226760414,-7.7702646760739071],[110.36631589166512,-7.7702113516725149],[110.36630095842253,-7.7702071878114225],[110.36610774717485,-7.7701533166222134],[110.36581650083093,-7.7700581377728213],[110.36564327611637,-7.7699981763747132],[110.36558426620098,-7.7699867549846999],[110.36545101635136,-7.7700038870696631],[110.36529301985706,-7.7700219706374014],[110.36518832438173,-7.7700172123244329],[110.36513787871019,-7.7700229221201198],[110.36507506106528,-7.7702189896146479],[110.36504365224283,-7.7702561100314256],[110.36499606281808,-7.7702542061666122],[110.36497131707267,-7.7702275556571294],[110.36497497281681,-7.7702140280549088],[110.36498083459787,-7.7701923400044279],[110.36500558124266,-7.770141895232257],[110.36508457859048,-7.7699582006104038],[110.3651140844475,-7.7698554081005682],[110.36514168643976,-7.7698544566178498],[110.36517214288017,-7.7698535051351314],[110.36519308179533,-7.7698373236335101],[110.36524599790454,-7.7696893401908369],[110.36524923816188,-7.7696802804205731],[110.36527303242457,-7.7696431600037954],[110.36528826064477,-7.7696441123858335],[110.36543012510026,-7.7696981175740234],[110.36545577466433,-7.7697078824127743],[110.36564898681138,-7.7697706991584141],[110.36566421593091,-7.7697459534129507],[110.36569943158355,-7.7697478572777641],[110.36594118463802,-7.769810674023347],[110.36593928077326,-7.7698439867105549],[110.36606301309763,-7.7698706372200945],[110.36610869865757,-7.769868733355338],[110.36617246868457,-7.7697040746832613],[110.36621434741426,-7.7695594025443597],[110.36621339503222,-7.7695384636291465],[110.36603565662034,-7.7694837758555195],[110.36580508034024,-7.769412829238604],[110.36558902541327,-7.7693680951614397],[110.36553001369924,-7.7694785022310384],[110.36548242517387,-7.7695099110534898],[110.3654395949614,-7.7695146693664583],[110.3652501896446,-7.7694594662813188],[110.36522879657178,-7.7694486762154042],[110.36520814993622,-7.7694382629654228],[110.36514073405772,-7.7694042622968027],[110.36510667223519,-7.769381731581575],[110.3649579918179,-7.7692833862192288],[110.36478286323859,-7.7691644131071484],[110.364678166864,-7.7691139683349206],[110.36454872384456,-7.769073992570668],[110.36427270662017,-7.7690844633772258],[110.36427222818082,-7.7690667530281985],[110.36426889978998,-7.7689435989678941],[110.36427365900221,-7.7688531793307334],[110.36428793484038,-7.7687694218712977],[110.36426985217201,-7.7686276059791908],[110.36421559967027,-7.7685628853687945],[110.3640690254652,-7.7685210066391051],[110.36406141090544,-7.7684743686971274],[110.36407384223412,-7.7684326869189135],[110.36407759060836,-7.7684201170947063],[110.36406331387087,-7.7683553955849902],[110.36401096613326,-7.7682802050673558],[110.36397670196328,-7.768267832194681],[110.36385868123324,-7.768324939144577],[110.36379491120624,-7.7683630101447534],[110.36379706778052,-7.7684210766713022],[110.36379770899714,-7.7684383391579672],[110.36376159941835,-7.7684638996891522],[110.36353412220205,-7.7685419455543183],[110.36329903132531,-7.7686742439211685],[110.36312485512804,-7.7687608558287593],[110.36302777331315,-7.7687580013806041],[110.36290689633626,-7.7687532421683727],[110.36280315234364,-7.7687151711681963],[110.36269946860563,-7.768660540051826],[110.36268233202406,-7.7686174076671932],[110.36267466080699,-7.7685981010214959],[110.36265346558503,-7.7685022629690366],[110.36265327582805,-7.7685014050157974],[110.36265277040911,-7.7684991162411734],[110.36265172359822,-7.7684996333513254],[110.36256996533172,-7.768540041689505],[110.36250598846067,-7.7685782358968254],[110.36223481768275,-7.7685483010632197],[110.36211741298825,-7.7685353400338499],[110.36211536613132,-7.7685443035766752],[110.36207778166437,-7.7687089010948398],[110.36204639982157,-7.7688311693229366],[110.36201515377638,-7.7689686288990742],[110.36200426388575,-7.7690165402810862],[110.3619575351122,-7.7691648169027303],[110.36193856481299,-7.7692462100445141],[110.36192945198269,-7.7692853080704367],[110.36189212921846,-7.7694254233445577],[110.36187897573421,-7.7694588583395898],[110.36187607272262,-7.7694662372769585],[110.36186621345507,-7.7694913022817218],[110.36151561005744,-7.7694549480873434],[110.36147055941882,-7.7694457588146975],[110.36142038983917,-7.7699175944213721],[110.36136779568727,-7.7703964618272039],[110.36135628076778,-7.7705013011940309],[110.36134225044458,-7.7705008290499791],[110.36129436424358,-7.770499216565554],[110.36107531457418,-7.7704886378403444],[110.3608959133158,-7.7705428885434458],[110.36077699236438,-7.7705766697774266],[110.36072308070567,-7.7708916843037628],[110.36068384958003,-7.7711209169966651],[110.36063836546828,-7.7713193901776663],[110.36062694227962,-7.7713189018458024]]]},"properties":{"OBJECTID":360,"nama_kawasan":"Kawasan Perkotaan Yogyakarta","delineasi_asal":"Kota Yogyakarta","Shape_Length":0.34943863909483425,"Shape_Area":0.0026905060228131694}}]}