{"type":"FeatureCollection","features":[{"type":"Feature","id":406,"geometry":{"type":"MultiPolygon","coordinates":[[[[116.08759700819542,-8.3592260138693746],[116.08755797492063,-8.3586539892901328],[116.08754001905675,-8.3583569935803439],[116.08755799560504,-8.3568409794276022],[116.08747900635115,-8.3559010152196151],[116.08736002694377,-8.3548330082367102],[116.08713296431495,-8.3533900334232385],[116.08682501576197,-8.3522100068862528],[116.08664497958216,-8.3517339588550499],[116.08635698158946,-8.3512819856750298],[116.08547401731209,-8.3502609547791735],[116.0853169651059,-8.3501419555867074],[116.08505503576134,-8.3500729901763293],[116.08404497119852,-8.3501250006681857],[116.08317802294744,-8.3502659559090944],[116.08284102269511,-8.350342036755535],[116.08229102071414,-8.3505290273926676],[116.08143800925677,-8.3508910072141589],[116.08083903739168,-8.3512680443847103],[116.08081048391671,-8.3512828175479399],[116.0804970072312,-8.3514450237688038],[116.08011296883853,-8.3516210022074233],[116.07987702180719,-8.3517449683555469],[116.07938101242382,-8.3520580403462645],[116.07914255808259,-8.3522600397689644],[116.07858923040874,-8.3527287763119489],[116.07797154634989,-8.3532520306566198],[116.07787601496614,-8.3533329570502701],[116.07703194996463,-8.354154045272935],[116.07685967043756,-8.3543216348355145],[116.076371987877,-8.3547960416040041],[116.07598496283583,-8.3551260010640362],[116.07506800868168,-8.3561450201764842],[116.074991022218,-8.3562749614202971],[116.0748689968068,-8.3568000395900981],[116.07485880568936,-8.3569915232401399],[116.07483499164164,-8.3574389881187585],[116.07484473579598,-8.3575161796279644],[116.07488498045757,-8.3578349820987228],[116.07504400937364,-8.3583540267169383],[116.07531200734331,-8.3589630269220834],[116.075503975728,-8.3593589912244397],[116.07564002876438,-8.3597140426688838],[116.0758170027525,-8.3600860085624049],[116.07640501727781,-8.3617000065499951],[116.07666900067386,-8.3622979657784526],[116.0770919770132,-8.3630190008261707],[116.07741699739654,-8.363488970339688],[116.07763398132329,-8.3637260262350992],[116.07801899098376,-8.3640340035663598],[116.07823701092934,-8.364213010022354],[116.07861003082837,-8.3645250289069395],[116.07883998927412,-8.3646590305897348],[116.07955700615094,-8.3648230120722928],[116.0801160220368,-8.3648569560835995],[116.08067598580817,-8.3646460317888796],[116.08107201576092,-8.3644069668080192],[116.0814270303332,-8.3642229637187597],[116.08213502970796,-8.3639849842195986],[116.08262202068977,-8.3639480445665413],[116.08286903657688,-8.3639289960262886],[116.08304401407008,-8.363909960076569],[116.08361896774124,-8.3640130196850464],[116.08425298888437,-8.3642840438734538],[116.08486299722961,-8.3646410045786297],[116.08536301309266,-8.3649279926327154],[116.08567700508979,-8.3650580256073681],[116.08649101025196,-8.3650910127399811],[116.08700402131853,-8.3650080134090672],[116.08727697545214,-8.3648809643849518],[116.0876719981643,-8.3644620349948582],[116.08770599433626,-8.3639479600302593],[116.08759503238491,-8.3626200022112585],[116.08755196295283,-8.3614650011088543],[116.08755097459789,-8.3609239887510398],[116.08758002809589,-8.3595080088874738],[116.08759496313712,-8.3595260375965381],[116.08759700819542,-8.3592260138693746]]],[[[116.05897196518413,-8.3592239903948098],[116.05934296700434,-8.3591189855526977],[116.0610050112723,-8.3581829783616968],[116.06124203569141,-8.3580189690001703],[116.06141702127854,-8.357775963190079],[116.06166196962431,-8.3571480079741605],[116.06179597220637,-8.3567259561378933],[116.06185699390517,-8.3562589705749701],[116.06184303282976,-8.3557399952045444],[116.06180201475127,-8.3552309924162955],[116.06182102372134,-8.3541389879239318],[116.0618372591822,-8.3540293839488413],[116.06198603133032,-8.3530249959067646],[116.06213000109869,-8.352222011036929],[116.06225496999093,-8.3510969816403531],[116.0622070082469,-8.3505479949939172],[116.06192298885492,-8.3494459603627433],[116.06167100241487,-8.3485400390914606],[116.06163939124497,-8.3483377123155265],[116.06144398475215,-8.3470870215487594],[116.06144097921788,-8.3470360263914358],[116.06140296487501,-8.3463910227274596],[116.06144198376057,-8.3460749928665905],[116.06144100619758,-8.3455750372581292],[116.06134200882673,-8.3451689807637877],[116.06120239537427,-8.3447985823885915],[116.0610940009874,-8.3445110115738999],[116.06083401957437,-8.3440380212376226],[116.0606609090737,-8.343800442836141],[116.06063045083465,-8.3437586432467583],[116.06035251895366,-8.3433772083914164],[116.06034000129011,-8.3433600277430173],[116.05996000175276,-8.3429750063913843],[116.05957500288412,-8.3426769611727991],[116.05943624558631,-8.3425923403641491],[116.05933401425341,-8.3425299930646588],[116.05878202656936,-8.3422339911057861],[116.0585980306746,-8.3421460239198382],[116.05835898997543,-8.3420299852955395],[116.05750379496419,-8.3419083735725508],[116.05680499565403,-8.341809002983041],[116.05653997174238,-8.3417870325454828],[116.05617898926903,-8.3418110399475154],[116.05595152913986,-8.3418531174273767],[116.05508202501551,-8.3420139611753257],[116.0543350247417,-8.3422280214060152],[116.05405910374475,-8.3423168339546692],[116.05397667188595,-8.3423433666529831],[116.05377898021584,-8.3424069990837211],[116.0534699749594,-8.3425200150865635],[116.05328503657529,-8.3426060181531625],[116.05256697378684,-8.3429610237321867],[116.052406015825,-8.3431019717785375],[116.05233797581695,-8.3432150201570039],[116.05229801713983,-8.3433899841604102],[116.05207901423523,-8.3436910241214264],[116.05195197060698,-8.3438649655956283],[116.05185397418165,-8.3440729778855598],[116.05162796735692,-8.3442969585377682],[116.05147903243142,-8.344450955746936],[116.0513580304488,-8.3446659647624415],[116.05136996984834,-8.3450239812716518],[116.05136142988613,-8.3453204077105738],[116.05135199060192,-8.3456480406245532],[116.05135039160734,-8.3462092400643542],[116.05135003097917,-8.3463359797216299],[116.05141202124787,-8.3467440291136086],[116.05145396742671,-8.3476699773875112],[116.05157802530573,-8.3492610066900852],[116.05172302389849,-8.3498079653652439],[116.05200796959218,-8.3509479837624099],[116.05226199659398,-8.3516199877721533],[116.05258497461693,-8.3522680131582092],[116.05290398303248,-8.3531340396041855],[116.05303500436207,-8.3537340429916185],[116.05307996686702,-8.3540085367645247],[116.05312902038804,-8.354308005609937],[116.05325103500729,-8.3551030305803238],[116.05361103092434,-8.3567979792433107],[116.05364701909468,-8.3569040407887769],[116.05387597299784,-8.3575729996941277],[116.05397897145247,-8.3578390020682605],[116.05415599670198,-8.3581180203303234],[116.05439601496414,-8.3583290093762344],[116.05476402204204,-8.3585659852319623],[116.05530400377677,-8.3588170237865711],[116.05592700372836,-8.3590179862910077],[116.05657897893684,-8.3591899888268699],[116.05734898836522,-8.3593240237846089],[116.0578129629979,-8.3593580433390002],[116.05897196518413,-8.3592239903948098]]],[[[116.03480899304066,-8.3618749570635487],[116.03563897106176,-8.3617069861884374],[116.03639202287366,-8.3616690347980693],[116.03717602305505,-8.3615920051668695],[116.03823499005284,-8.3613649955980236],[116.03854000591662,-8.3612679902255422],[116.03947897007845,-8.3608420263383891],[116.04042698231945,-8.3603290035806026],[116.0406580352402,-8.3600689646110027],[116.04105503376286,-8.3594090232078315],[116.04134496529798,-8.3585890438492356],[116.04165400472857,-8.3578239968799153],[116.04244597020545,-8.3564739939795913],[116.04264603698505,-8.3560220001151606],[116.04305999312419,-8.3552220297727899],[116.04344601092475,-8.3545779730949334],[116.04375597935507,-8.3541049935505498],[116.0437598104669,-8.3540959310823268],[116.04397198661798,-8.3535939897707863],[116.04425396634758,-8.3530210236012863],[116.04427297711629,-8.3529019830400557],[116.0443880093992,-8.3525890342564821],[116.0445819679835,-8.3519370059879634],[116.04465103142002,-8.3513740150986564],[116.04457000610091,-8.350789955791754],[116.0444299924502,-8.3504139987070403],[116.04394398712532,-8.3495300217930435],[116.04369601076235,-8.3492089629232282],[116.04356802014809,-8.3490010423641934],[116.04340899572867,-8.3485910396447025],[116.04314100225554,-8.3479419665484897],[116.0426599818727,-8.3463970059170265],[116.04250098892953,-8.345883017287349],[116.04236999008299,-8.3454039987954616],[116.04230092484784,-8.3450208372418047],[116.04206500389682,-8.343711981922354],[116.04198796707112,-8.343091038720388],[116.04195503119979,-8.3425329572301621],[116.04198998784773,-8.3417390330299099],[116.04196598404303,-8.3414179723615121],[116.04180602612723,-8.3406859700813811],[116.04161301992497,-8.3401800357800084],[116.04145797140836,-8.3398284206450626],[116.0414489655974,-8.3398079997393779],[116.04117597639026,-8.3395529789867169],[116.04107302200248,-8.3393970212554791],[116.04095700316327,-8.3392250259141747],[116.04079301988202,-8.3390700061758025],[116.04070631264631,-8.339036770830262],[116.04060001008247,-8.3389960252463311],[116.03985296394319,-8.3388920375374482],[116.03941898260007,-8.3388219947391917],[116.03871402383322,-8.3388079886976811],[116.03811099962297,-8.3388460417114061],[116.03780419500765,-8.3389154118167426],[116.03727098426862,-8.3390359731316153],[116.03708317884571,-8.339038357234358],[116.03672097599235,-8.3390429563672797],[116.03635093374862,-8.3390537131583073],[116.03565104715813,-8.3390740594202839],[116.03541198577454,-8.3390810075823651],[116.0343679628113,-8.3391930343310037],[116.03424750761644,-8.3392220257758254],[116.03398600095329,-8.3392849684265116],[116.03307799505353,-8.3395959818690244],[116.03186296870115,-8.3402459632805517],[116.03181570573031,-8.340284724060723],[116.03056800071272,-8.3413079843759306],[116.03014397846187,-8.3417850135674598],[116.03003138424106,-8.3419261648605811],[116.02993103428992,-8.3420519647263518],[116.02938902008725,-8.3427019560303961],[116.02914196912661,-8.3431959653215131],[116.02903399742115,-8.3434060253677558],[116.02893798669879,-8.3436540008314068],[116.02871599804496,-8.3440959879394541],[116.02827501098307,-8.3449809631009089],[116.02796203611911,-8.3457880353894893],[116.02794698866262,-8.3458470444055024],[116.02791103286791,-8.3460340413378731],[116.02790000268305,-8.3463759941567446],[116.02797203028501,-8.3468640031711629],[116.02800902030015,-8.3472579763744648],[116.02802801218309,-8.3477539929523914],[116.02806502288252,-8.3483210361868032],[116.02820797461834,-8.3496519617685863],[116.02837396878374,-8.3519000141742481],[116.02856303685473,-8.3527209773911295],[116.02908027833223,-8.3540602064133509],[116.02911996541411,-8.3541629620510207],[116.02940398660473,-8.3546809688515964],[116.02969896423588,-8.3551899599486319],[116.03009198865436,-8.3559919807452729],[116.03034501830803,-8.3562949758324407],[116.03088799928184,-8.357112011709944],[116.031138986575,-8.357574959316878],[116.03121803068768,-8.35764902927923],[116.03133700469903,-8.3578070176796473],[116.03179098606518,-8.358458993787508],[116.03203996337368,-8.3587969707035654],[116.03204796284331,-8.3588930200967297],[116.03189296738663,-8.3592219624235895],[116.03193097813221,-8.359416012738734],[116.0321069691613,-8.3597439559187592],[116.03223600928447,-8.3598590178793302],[116.0325130346489,-8.3600589875322271],[116.03345999018643,-8.360949980956832],[116.03398396668672,-8.3614000313862675],[116.03428198942231,-8.3617109998626802],[116.03438702034475,-8.3618149722830708],[116.03454897925201,-8.3618820086477399],[116.03480899304066,-8.3618749570635487]]]]},"properties":{"OBJECTID":406,"nama_kawasan":"DPP Lombok Gili Tramena Kab. Lombok Barat","delineasi_asal":"Gili Matra","Shape_Length":0.15763398981368895,"Shape_Area":0.00058593058285526592}}]}