{"type":"FeatureCollection","features":[{"type":"Feature","id":408,"geometry":{"type":"MultiPolygon","coordinates":[[[[116.07106302274042,-8.5800599490074205],[116.07106299396207,-8.5800599112358782],[116.07106300115663,-8.5800599642958559],[116.07106302274042,-8.5800599490074205]]],[[[116.0730353978654,-8.5528220050314872],[116.07289650566929,-8.5527843063505884],[116.07268368740233,-8.5527172223219168],[116.07258840423151,-8.5526871867642171],[116.0725595638728,-8.5526780964169689],[116.07213194972974,-8.5524161041198568],[116.07190973264812,-8.552279954855976],[116.07142504842727,-8.5521120757117046],[116.07109112475564,-8.5520173546171918],[116.07094243174788,-8.5519751764132366],[116.07087600962018,-8.5519563347170333],[116.07023373899597,-8.551855911920768],[116.07017121632862,-8.5518461362901235],[116.06990175516194,-8.5518040039515881],[116.06986224794446,-8.5517978274077677],[116.06980772114946,-8.551789300935468],[116.06944560103375,-8.5519926763209355],[116.06970540977693,-8.5535161008872933],[116.06970804568982,-8.5535259997250819],[116.06974637029884,-8.5536699101381828],[116.06981202620409,-8.5539410413459223],[116.06986835344185,-8.5541279681311835],[116.06995988014444,-8.554471663836182],[116.06998164913387,-8.5545534086128896],[116.0699817498579,-8.5545537890261016],[116.07001738009808,-8.5546875811668883],[116.07001743135947,-8.5546877736218221],[116.07003327111863,-8.5547472529833044],[116.0701544367779,-8.5552022442880684],[116.07023367964064,-8.555499810168044],[116.07022601561823,-8.5555071891054695],[116.07023372190883,-8.5554999675493946],[116.0702883782061,-8.5557052045315345],[116.07087134573612,-8.557644465719477],[116.07112765161992,-8.5585119625569632],[116.07118067564772,-8.558691428566533],[116.07137432666389,-8.5596420767204222],[116.07160796063897,-8.5604730053248659],[116.07160801819555,-8.5604732346520223],[116.0716779710616,-8.5607700307123196],[116.07173903143121,-8.5609880065911739],[116.07181502324477,-8.5612600020473906],[116.0718150673116,-8.5612601576301017],[116.07182200108457,-8.5612849753213141],[116.0719079789701,-8.5618550276873293],[116.07191989408796,-8.5619659158942341],[116.07191994534924,-8.561966387139023],[116.07196901505802,-8.5624230322970334],[116.0719798797677,-8.5625787651978271],[116.07199001332856,-8.562724012003514],[116.07209641301915,-8.5642964990840937],[116.07209648406558,-8.5642975467943074],[116.07212101037635,-8.5646600149476626],[116.07212638112765,-8.5648015763316607],[116.07212640720797,-8.5648022670109754],[116.07214798194389,-8.5653709865817405],[116.07197001060752,-8.5670819980357464],[116.07167499700358,-8.5693209807785706],[116.07163100216906,-8.5699508056850959],[116.0716309859813,-8.569951033213556],[116.07162330217375,-8.570017803378903],[116.07162327789206,-8.5700180111222721],[116.0715829963583,-8.5703680398531219],[116.07152371125028,-8.5708840870309473],[116.07138000678196,-8.5721349621587137],[116.07109930408967,-8.5740644639038237],[116.07108688984817,-8.5741497978748384],[116.07107722663272,-8.5742162191031639],[116.07105601522301,-8.5743620270858401],[116.07105470041415,-8.5743706578795127],[116.07104596439979,-8.5744280121430165],[116.07102797436164,-8.5745550144023355],[116.07102609387914,-8.5745696328822305],[116.07101499084922,-8.5746559848857373],[116.0710119718251,-8.5746650203743684],[116.07098129505084,-8.5747536539579414],[116.07098128605753,-8.5747536809375902],[116.07097597735958,-8.5747692940676075],[116.07096652368614,-8.5751572993698346],[116.07095462745417,-8.5756391399343102],[116.07094522684076,-8.5759352390199979],[116.07093295199422,-8.5763219007350813],[116.07093083229211,-8.5763886700010517],[116.07092488417618,-8.5767098970440543],[116.07088919188277,-8.5767812807314954],[116.07089944145616,-8.5769401378769885],[116.07090094512262,-8.5769634519017472],[116.0709031493609,-8.5769976225421942],[116.07091298614546,-8.5771500980985138],[116.07106692579805,-8.5771459369353806],[116.07113308712235,-8.5771441490831535],[116.07115688138504,-8.5772393270332827],[116.07114608502388,-8.5778061220548238],[116.07114498425369,-8.5778639358719033],[116.07112373417306,-8.5781444452099436],[116.0711152409757,-8.5782565466022902],[116.07111685166149,-8.5782899681074696],[116.07111726804749,-8.5782985944045436],[116.07113903523839,-8.5787502851974295],[116.07116283040034,-8.5792856642020183],[116.07118062708435,-8.5797661719711868],[116.07118662466303,-8.5799281182879668],[116.07122092930251,-8.5802711646824719],[116.071258076699,-8.580642643143392],[116.07126395736577,-8.5807014426174533],[116.07146141341354,-8.5815057207124141],[116.07155659136367,-8.5822290769103233],[116.07162321583883,-8.5829333971585129],[116.07165512018776,-8.5831681184138802],[116.07167401494394,-8.5833071347164491],[116.0717564656884,-8.5839137346310963],[116.07178758402983,-8.584181346791695],[116.07178759212377,-8.5841814169388044],[116.07185164363852,-8.5847322696784545],[116.07200393033713,-8.5858268219502065],[116.07205392185108,-8.5861798930875466],[116.07215621523721,-8.5869023382722389],[116.07217058100753,-8.5870567491696193],[116.0722322780972,-8.5877198966558694],[116.07223198671693,-8.5877219749891083],[116.07223259375928,-8.5877241171742185],[116.07227994666232,-8.5885584434173552],[116.07229898261198,-8.5893103530902977],[116.07228773569057,-8.590198451597189],[116.07228773658983,-8.5901984929660102],[116.07230500896901,-8.5903259736647328],[116.0723060108138,-8.5904105333194138],[116.07230799381887,-8.5905779888830125],[116.07233501394978,-8.5907129663302726],[116.07237396718494,-8.5908410091052474],[116.07258901127386,-8.5920449657025415],[116.07271691915059,-8.5930355635403544],[116.07271698030445,-8.5930360401810617],[116.07280002640016,-8.5937660450669],[116.07280551586189,-8.593854682247752],[116.0728290097511,-8.5942339632267704],[116.07284414174376,-8.5944540363246915],[116.07287359813813,-8.5948824157908348],[116.07291303520844,-8.5954559611236618],[116.07303500396233,-8.5966039942788939],[116.07304357719943,-8.5978902253535807],[116.07304358079671,-8.5978907748393567],[116.07304702879742,-8.5984079632568751],[116.07303971730914,-8.5987082621765012],[116.07301997719026,-8.5995190162895483],[116.07300050327069,-8.6002864383684141],[116.0729909731549,-8.6006619853623079],[116.07301261264206,-8.6009784936625238],[116.07302201325535,-8.6011159829162125],[116.07309197871189,-8.602141005902638],[116.07317909693779,-8.6026785837495936],[116.07321903133334,-8.6029250078827886],[116.0733559998796,-8.6035440121464148],[116.07341802791973,-8.6039819900767611],[116.07358396902498,-8.6047659947548141],[116.07360500596633,-8.6048350393055557],[116.07361737164445,-8.6049396970093426],[116.07361800206922,-8.604945024593178],[116.07361803444485,-8.6049454526704494],[116.07361901740376,-8.6049590423259019],[116.07362209938049,-8.6050416909212686],[116.07362210207839,-8.6050417691622556],[116.07362401133912,-8.6050929711636286],[116.07366402487492,-8.6058329989936624],[116.07383902305253,-8.6080700329056299],[116.07391798083017,-8.6090959830930842],[116.07394444787803,-8.6093559249359259],[116.07394447485774,-8.6093561857393297],[116.07397601677985,-8.6096659689092689],[116.07420197594047,-8.6119009550649821],[116.07420896727012,-8.6119839813756016],[116.07422910488935,-8.6122288056148477],[116.07422913096968,-8.61222911678027],[116.07425001682486,-8.6124830340647236],[116.07427803700182,-8.6130400156841347],[116.07428924974909,-8.6132665728939628],[116.0743170343037,-8.6138279656880172],[116.07432129259359,-8.6139247048611765],[116.07432399325774,-8.6139860413226756],[116.07433265822567,-8.6150406088369778],[116.07433266362159,-8.6150413013149318],[116.07433798580951,-8.6156890119382865],[116.07433898585555,-8.615802043229678],[116.07434901419572,-8.6169470034014353],[116.07434903218211,-8.6170007109140556],[116.07434903218211,-8.6170009852072553],[116.07435702265855,-8.6189839813256413],[116.07434779201708,-8.6193587126344369],[116.07432401304288,-8.620323970274967],[116.07430096431813,-8.6212350167825775],[116.07429000787761,-8.6215800443835064],[116.0742280059178,-8.6219620215300097],[116.07421738402513,-8.6220821556669307],[116.0742173759312,-8.62208224919641],[116.07421297914573,-8.6221319808062162],[116.07417001943088,-8.6226339958621452],[116.07412803727914,-8.6230409795575156],[116.07411425337011,-8.6231317886011425],[116.07410298306627,-8.6232060312332806],[116.07406698680211,-8.6235549771803903],[116.07404107193793,-8.6238313883079059],[116.07412019968751,-8.6238648655710222],[116.07420778016501,-8.6239460428755592],[116.07438508420432,-8.6239590767499408],[116.07447619991672,-8.6238858557475737],[116.07450667704154,-8.6238613654096525],[116.07453236707511,-8.6235020610712354],[116.07453558574878,-8.6234552441641199],[116.07455166023101,-8.6232214492104617],[116.07457659573333,-8.6229654338076784],[116.0745904354003,-8.6228233580115443],[116.0748989739086,-8.6228685642328173],[116.07517510444757,-8.6231748346508539],[116.07535524135142,-8.6233181173371918],[116.07553612828974,-8.6233635268052922],[116.07572890336621,-8.6232079180109622],[116.07594729383266,-8.622999397604076],[116.07611008910942,-8.6229482648504927],[116.07632371226953,-8.6228883169422375],[116.07677062046787,-8.6230958723765525],[116.07687416571025,-8.6230720331477642],[116.07708103136451,-8.6228379000489781],[116.0773028059798,-8.6226757118146224],[116.07756535585656,-8.6225833478432037],[116.07776522208735,-8.6226235070691359],[116.07800028238717,-8.622755584202821],[116.07819392081285,-8.6229818914011389],[116.07827827812014,-8.6230961610589247],[116.07833642738433,-8.6231946925809666],[116.07841068620428,-8.6233552341566906],[116.07846929322341,-8.6235207615738432],[116.07847015657251,-8.6236444759117603],[116.07847107657904,-8.6237784946817442],[116.07847170520506,-8.6238712732406384],[116.07847225469084,-8.6239537419715475],[116.07837898780008,-8.6240507455454463],[116.07824384577691,-8.6241164032493884],[116.07806665685075,-8.6241146216923994],[116.07793581988221,-8.624020520230772],[116.07779007215413,-8.6240190201615974],[116.07769723424008,-8.6241366029218511],[116.07780238836961,-8.6243026177715478],[116.07801583436333,-8.6243047959295609],[116.07808438428697,-8.6244343261831773],[116.07823130383167,-8.624582502980104],[116.07839850758512,-8.6246459888212712],[116.07859636383114,-8.6245860786845583],[116.07877906740009,-8.624587832362522],[116.07903017969909,-8.6246571853807268],[116.07919221325005,-8.6246586881479175],[116.07936964499322,-8.6245881741049288],[116.07943242666522,-8.6245887433757389],[116.07965748740321,-8.624590758756483],[116.07990887579399,-8.6245929692900631],[116.07999270160201,-8.6245936977409201],[116.08018509896317,-8.6246571952733007],[116.08027365700377,-8.6246579534017656],[116.08045240265631,-8.6246594840479247],[116.08052544109626,-8.6245622061808263],[116.08066673268365,-8.6244809578299169],[116.08083981710399,-8.6244824129329913],[116.08102891844987,-8.6245664311957739],[116.0811340608883,-8.6246445885768708],[116.08142244918679,-8.6247933778120682],[116.08154311122564,-8.6247943571738119],[116.08174820341696,-8.6250175464225549],[116.08184822511555,-8.6251935041768206],[116.08192708666581,-8.6252920114171729],[116.08224951610237,-8.6254418267788537],[116.0824330866177,-8.6254432567008621],[116.08277946769829,-8.6256262129792844],[116.08289485521345,-8.6256270934155737],[116.08319244177778,-8.6256899110604763],[116.08340224641665,-8.6256914767801618],[116.08353017407831,-8.625774715330806],[116.08355438922376,-8.6257904705537385],[116.08365407997189,-8.625956027648499],[116.08379301263744,-8.6261271641372446],[116.08393983235749,-8.6262621397858652],[116.08409188163512,-8.6262632423546961],[116.0842963658846,-8.6262647118469431],[116.08445895881391,-8.6261422646537653],[116.08458194919763,-8.6261439239029301],[116.08475502912131,-8.6260884869940355],[116.08500673587218,-8.626090244269335],[116.08519546040225,-8.6261482055751912],[116.08549948881046,-8.626232697780722],[116.08571433414932,-8.6263268630942207],[116.08598151013859,-8.626462568093018],[116.08647945666166,-8.6265791795854057],[116.08673117960029,-8.626467543142553],[116.08689378961674,-8.6263656121832355],[116.08722389476702,-8.6263677651601824],[116.08752252364559,-8.6263696969039643],[116.08784244577237,-8.6261657630394666],[116.08798203764104,-8.6260154143798218],[116.08809436746117,-8.6258944276856369],[116.08832503457279,-8.6257877456079086],[116.08855292008127,-8.6257891908184661],[116.08863162874673,-8.6257621571977552],[116.08886212228913,-8.6256829889787241],[116.08887679922498,-8.6256786650383219],[116.08911887693466,-8.6256073479007114],[116.08929214211878,-8.6256084270871725],[116.0893911763618,-8.6256090440220987],[116.08941040476645,-8.6256030203630303],[116.0896007516734,-8.6255433926134515],[116.08992031676928,-8.6254526654081474],[116.09020825540676,-8.625454428978685],[116.09066670370544,-8.6255447559856293],[116.09116912975162,-8.6255477696138314],[116.09146198318399,-8.6256267498745842],[116.0922147831858,-8.6254355072427984],[116.09250250418722,-8.6254371808811356],[116.09271697001225,-8.6254384210462263],[116.09292637175474,-8.6253726913965352],[116.09312693046354,-8.6254356277519832],[116.09329412612306,-8.6254932176378247],[116.09354959923473,-8.6257572397047966],[116.09379555302246,-8.6256916962147443],[116.09407788978285,-8.6256932763236023],[116.09429764272204,-8.6256378699916354],[116.09435543765335,-8.6255455240066681],[116.09435561302121,-8.6254888936974226],[116.09446539865928,-8.6254895043371107],[116.09459793534654,-8.6254815840078436],[116.09492831658861,-8.6254284799403536],[116.09508453782121,-8.625422395127373],[116.09534134642604,-8.6254132310357363],[116.09564584787768,-8.6254039931996545],[116.09584064732803,-8.6254102183069108],[116.0959074273859,-8.6254123532974063],[116.09625410973945,-8.6253416908663212],[116.09651069801032,-8.6253204308931117],[116.09679902695359,-8.6251133547974632],[116.09696316671682,-8.6249833407085816],[116.09704631533521,-8.6249837795777466],[116.09748497225371,-8.6246870095977783],[116.09764854634341,-8.6246882173873018],[116.09792508697319,-8.6247816308675169],[116.09802665190853,-8.6248091564173706],[116.09850077539056,-8.6248134443849267],[116.09909892437588,-8.6248767152881101],[116.0992334143906,-8.6248389221784691],[116.09954496562773,-8.6248769644003573],[116.09967406690475,-8.6248585903516073],[116.10012690882979,-8.6245973094182204],[116.10049513983893,-8.6245869977916527],[116.10084351471653,-8.6245753389806623],[116.10100215512546,-8.6246377276489739],[116.10157771044305,-8.6243449974236341],[116.10185175815218,-8.6242553943708913],[116.10218364845662,-8.6242569699831506],[116.10237884900471,-8.6241454927202881],[116.10241960987719,-8.6240873299662439],[116.10248548341838,-8.6240209707911504],[116.10269609924569,-8.6238977142081126],[116.1029518799254,-8.6238525970196633],[116.10323212126548,-8.6236331408567253],[116.10340864918987,-8.6234255908183286],[116.10372026877542,-8.6232134668279627],[116.10403843812344,-8.6229423625999289],[116.10431921545944,-8.6228222257650486],[116.10434182261713,-8.6228125526571375],[116.10437458671788,-8.6227726866101762],[116.10455319837149,-8.6225553609411349],[116.1045690426273,-8.6225437039287272],[116.10487970893143,-8.6223151511233027],[116.10491492818142,-8.622253250786855],[116.10495038035583,-8.6221909421582268],[116.10507098483811,-8.6219789701532932],[116.10527852228608,-8.6218251627010432],[116.10563914682928,-8.6215046820953489],[116.10610977734439,-8.6212373819995491],[116.10640614802537,-8.6211337279391387],[116.10653123023212,-8.6211110470371182],[116.10674704593953,-8.6210996903983528],[116.10690280222263,-8.6210914876819515],[116.10696937273838,-8.6210917799616027],[116.1070905249079,-8.6210274460597134],[116.10711019128235,-8.6207460859630487],[116.10701117682436,-8.6203482978356192],[116.10702367470287,-8.6203067896265679],[116.1071336536952,-8.6199415236823143],[116.10729611982015,-8.6196282043781025],[116.10803389574778,-8.6192408330979333],[116.10852392374011,-8.6189835406578368],[116.1090981570544,-8.6186820357473266],[116.10912260692282,-8.6186691979251009],[116.10931855031095,-8.6183639752172212],[116.10963634823895,-8.6176345647833159],[116.10984565825061,-8.6171541577381277],[116.10996758923295,-8.6168743004085968],[116.11048650075145,-8.6167171825518949],[116.11088867127523,-8.6166277620615119],[116.11126556095689,-8.6166144898667767],[116.1118180990261,-8.6166670111736039],[116.11143265769101,-8.6176213969098967],[116.11183416181723,-8.6176230336760113],[116.11177079198853,-8.6178081483273559],[116.11165090426584,-8.6179324193456068],[116.11139458759021,-8.6181218921115601],[116.11107030465087,-8.6183522687421714],[116.1109389406796,-8.618583422386962],[116.1108705877075,-8.6187131846656939],[116.1108069031161,-8.618965191790096],[116.11075335658222,-8.6192790003255482],[116.11069422435901,-8.6196699796857956],[116.11080703981315,-8.6200727221783495],[116.11104028887826,-8.6203515587773722],[116.11122027829322,-8.6208531340648165],[116.11121777008407,-8.6213574181103354],[116.11183235777719,-8.6214266011566565],[116.11308663234229,-8.6214876948012034],[116.11349324102036,-8.6214890869517831],[116.11354915726781,-8.6214892776080205],[116.1135757043553,-8.6214893693388603],[116.11364305908,-8.6214895995653364],[116.11375381778453,-8.6214899790792288],[116.11391115327717,-8.6214905177731112],[116.11410985668465,-8.6213522757868759],[116.11419428593763,-8.6211519131302339],[116.11427805059168,-8.621075020195974],[116.11448165710283,-8.6209933770426801],[116.11460857122859,-8.6208691123196104],[116.114664950627,-8.6208139101337906],[116.11479590180943,-8.6206805712513415],[116.1149905636637,-8.6206812025753834],[116.11513683659575,-8.6206045020960573],[116.11529895738101,-8.6204866891093843],[116.11552327887625,-8.620425662014668],[116.11565400522818,-8.6203334671157563],[116.115780413935,-8.6203338619181409],[116.11601449667171,-8.6203916442589161],[116.1163115841124,-8.6202132952073498],[116.1163385053178,-8.6201971325915565],[116.116343188987,-8.6201956945756137],[116.11652111535727,-8.6201410913382688],[116.1166675483687,-8.6200334883547498],[116.11685299127259,-8.6197591870367773],[116.11687234917963,-8.6197305526228547],[116.11723589472081,-8.619543064660661],[116.11730413617704,-8.6194727097976624],[116.11733542179229,-8.6194404547131853],[116.11727897404546,-8.6192859430917679],[116.11718132295971,-8.6190438393016962],[116.11718168538653,-8.6189769513251804],[116.11724979014571,-8.6189051179767944],[116.1174173374402,-8.6187461025505172],[116.11765226374109,-8.6186490207356883],[116.11792312065552,-8.6186497905553665],[116.11825693011326,-8.6186507186557151],[116.11849701312667,-8.6185615976395979],[116.11870014029932,-8.6185621417293987],[116.11900187543631,-8.6186246751885847],[116.11926262487032,-8.6185636067250471],[116.11941840093857,-8.6186463173735888],[116.11963275524749,-8.6188474912186734],[116.11979965233218,-8.6189106829816069],[116.11989257568189,-8.6189458671580041],[116.1201107835858,-8.619033837941231],[116.12037578681316,-8.6191321922967745],[116.12058894592315,-8.6191892587772259],[116.12084929605828,-8.6191898307460519],[116.12095037895688,-8.6191643781335188],[116.12101564095917,-8.6191479439224281],[116.12107211298769,-8.6191337229429337],[116.12117578683319,-8.6190840084202023],[116.12130708875122,-8.6190210450851055],[116.12150016779856,-8.6189494221780478],[116.12157306414565,-8.6189495696668814],[116.12170286509524,-8.6190115581368332],[116.1220925260493,-8.6190123117686994],[116.1223636536597,-8.6190128099931371],[116.12236382543028,-8.6190128099931371],[116.12248821965568,-8.6190130393202367],[116.12249769581206,-8.6190130564073684],[116.12275374808712,-8.619013506068427],[116.12296235213091,-8.6189212680020546],[116.12316104204854,-8.6187827076557824],[116.12339046899501,-8.6187264910346926],[116.12366157771964,-8.6186651779555632],[116.1239227965998,-8.6185935451559317],[116.12418831693731,-8.6185939156766267],[116.12444380623674,-8.6185325261550929],[116.12474644069573,-8.6184248791048503],[116.12488218886199,-8.6183633106182356],[116.12514327284384,-8.6182401493633733],[116.12544168588511,-8.6182404641260746],[116.12546563033459,-8.6182471721692195],[116.12564436879268,-8.6182972491187115],[116.12599785721545,-8.6183798752310281],[116.12625294901443,-8.6183800829743973],[116.12645637925857,-8.6183185036959458],[116.12658408478774,-8.6181878304039969],[116.12658497691518,-8.6180489346106128],[116.12658586904263,-8.6179100397164916],[116.12658698600069,-8.6177351332697185],[116.12658783945733,-8.6176013789004742],[116.12669786161712,-8.6174934161881538],[116.12697380239911,-8.6174935780661031],[116.12711195625184,-8.617517411898973],[116.12733264538531,-8.6175554846977889],[116.12740058017266,-8.6175825893649858],[116.12751334706343,-8.6176275797489552],[116.12780372016562,-8.6178077319412409],[116.12800594531814,-8.6179312502269454],[116.12814366389898,-8.6179672860613437],[116.12828138427858,-8.6180033218957419],[116.12855209010695,-8.6180033452781117],[116.12886381940984,-8.618095944871925],[116.12908658777587,-8.6182554117577865],[116.12919583112273,-8.6183487748760399],[116.12920696383037,-8.6183582888039609],[116.12936101679759,-8.6186669478213389],[116.12953222343344,-8.61874922769465],[116.12964228606268,-8.6187753494028243],[116.12979205465967,-8.618810893308023],[116.12995725922019,-8.6189306623201674],[116.13000697734014,-8.6189667062484432],[116.13014118586705,-8.6191261497519349],[116.13037496643165,-8.6191877856876999],[116.1307497067337,-8.6191875779443308],[116.13094402594606,-8.6191874511399078],[116.13098391897279,-8.6191874250595788],[116.1311040845859,-8.6190954433000115],[116.13112522135191,-8.6190792635970865],[116.13119904759799,-8.6189454201949616],[116.13120019243502,-8.6187859038463444],[116.13118172485679,-8.6187177846979353],[116.13116556763691,-8.6186581857266447],[116.13114440479046,-8.6185801245730431],[116.13120468364934,-8.6185058171896571],[116.13132819743839,-8.6183535556720017],[116.13142394106205,-8.6180653049697753],[116.13149867472407,-8.6178027937638717],[116.13181418387751,-8.6174944701936056],[116.13191577938971,-8.6171135371599803],[116.13195538103605,-8.6170059665520853],[116.13199538917593,-8.6168972951739988],[116.1322161502552,-8.6165985017194089],[116.13225443709268,-8.61651082321589],[116.13227271491394,-8.6164689651705544],[116.13230610044627,-8.6163925120047793],[116.13249267739525,-8.6159693791834684],[116.13263104888381,-8.6157739627980732],[116.13267146891326,-8.6157168801298667],[116.13291692897315,-8.6156134931681549],[116.13297489117838,-8.6155974951282701],[116.13300675505775,-8.6155887006579519],[116.13307462419459,-8.6155699686790399],[116.13319866678512,-8.6155357332874019],[116.13350630327329,-8.6154784626608603],[116.13357451595118,-8.6154886214027329],[116.13382377204948,-8.6155257382221748],[116.13388084392591,-8.6155342368155061],[116.13392726423194,-8.6155276960462857],[116.13406182889037,-8.6155087338409544],[116.13413452918519,-8.6154984896635369],[116.13430693281873,-8.6154741971764111],[116.13432708572645,-8.6154713571173716],[116.13457872502818,-8.6155576785440076],[116.13477382035558,-8.6156246042920088],[116.13481373676461,-8.6156365895569138],[116.13485942412319,-8.6156503087147485],[116.13497804739904,-8.6156859299616713],[116.1349924779206,-8.6156902628952707],[116.13514745089424,-8.6157367983145718],[116.13530676309665,-8.6158480849211401],[116.13541166002017,-8.6159213598828046],[116.13579575866743,-8.616084924079928],[116.13594636183518,-8.6162279189832134],[116.1360335726913,-8.6163107240606109],[116.13610097597928,-8.6163310577320544],[116.13612662104674,-8.6163387937003222],[116.1362361647673,-8.6163718410875276],[116.13625268891053,-8.6163785940967728],[116.13645675677401,-8.6164619981226451],[116.13646466271405,-8.6164652293867903],[116.13657352924508,-8.6165097233450183],[116.13665890098753,-8.616571224382426],[116.13661051206554,-8.6160924145332842],[116.13661281792724,-8.615788536311868],[116.13649043008934,-8.6154439232983577],[116.1364802299787,-8.6153912661939103],[116.1364272805946,-8.6151179217546314],[116.13639512533484,-8.6149519167974518],[116.1362880853269,-8.6146329956162049],[116.13605205735666,-8.6141394323888676],[116.13603769428425,-8.614076042775082],[116.13595106888681,-8.6136937238862288],[116.13593825444696,-8.6136517992910626],[116.13586455140796,-8.6134106838559319],[116.13586702004704,-8.613068491817387],[116.1358673033335,-8.6130293416307495],[116.13580686259672,-8.6127442556428377],[116.13580859289232,-8.6125071233050221],[116.13591589820021,-8.6120838780684608],[116.13602786469426,-8.6119354755417135],[116.13603691367268,-8.6119234821829309],[116.13610359390577,-8.611955769643032],[116.13619015365271,-8.611997685244944],[116.13635357395833,-8.6120768165917525],[116.13655189785186,-8.6120759082764948],[116.13659323518971,-8.6120757194188968],[116.1368207753585,-8.6120746339371408],[116.13686937022533,-8.6120744019120821],[116.13697769266639,-8.6121365702464914],[116.13708225144478,-8.6121965784093391],[116.13721692671982,-8.6122738706425821],[116.13728037299086,-8.6122740451110644],[116.13729844396812,-8.6122740945737633],[116.13741412106492,-8.6122744120344237],[116.13754437257478,-8.6122737321470026],[116.13762109913444,-8.6122943805811474],[116.13778873726051,-8.6123394959709003],[116.13799094712454,-8.6124673741699098],[116.13817864822613,-8.612624038768331],[116.13825496739287,-8.6126877386481624],[116.13847291809077,-8.6127999902273018],[116.13863963531094,-8.6127990198588122],[116.13864263994594,-8.6127983759442373],[116.13893708068179,-8.6127353217776204],[116.13931210966621,-8.6129909270895837],[116.13950716272541,-8.6131238675723694],[116.13978292184447,-8.6130508057500492],[116.13978669270182,-8.6130498066032715],[116.14004200213674,-8.6130480790055799],[116.14024910341345,-8.6131264738076538],[116.14039003527193,-8.6131798215914728],[116.14048488676815,-8.6132151649478601],[116.14074327728054,-8.613311443668124],[116.14107596708232,-8.6134586141237151],[116.14117970208167,-8.6135392041708769],[116.14131933891645,-8.6136476857920456],[116.14138761904348,-8.6137318641341949],[116.14152939896269,-8.6139066545683818],[116.14179916859678,-8.6140438812200841],[116.14210653528846,-8.6140414161783951],[116.14241480759733,-8.6139304470324305],[116.14243295411757,-8.6139221660750422],[116.1427262707009,-8.6137883136796631],[116.14274927715746,-8.6137778149941369],[116.1430264104406,-8.6136565342216045],[116.14324107321704,-8.6135305652833267],[116.14347081582559,-8.613471532884887],[116.14355960858916,-8.6134563388389438],[116.14364295865573,-8.6134420755912515],[116.14385552511249,-8.6134057034104217],[116.14417032829806,-8.6131491511123954],[116.14423775586783,-8.6131306241788934],[116.14440536611482,-8.6130845689976354],[116.14477509899166,-8.6131226606822224],[116.1449938042208,-8.6131451940954094],[116.14510222378863,-8.6131439179574159],[116.14542116475502,-8.6131401632878806],[116.14576226321799,-8.6129762249727833],[116.14600473393136,-8.6128596899226864],[116.14615004908558,-8.6128166258865235],[116.14629736702989,-8.612772969197124],[116.14637034521536,-8.6127719898354371],[116.14668594160298,-8.6128136329427321],[116.14679723990071,-8.6128283188717774],[116.14710550771304,-8.6127461936818577],[116.14739994665024,-8.6125759547164762],[116.14743198409883,-8.6125574322796297],[116.14744611244816,-8.6125492628381721],[116.14765222716858,-8.6124578539467507],[116.14785556388324,-8.6124546928297718],[116.14809540318038,-8.6124508886974809],[116.14818151416557,-8.6124234269994986],[116.14825103445776,-8.6124012560131291],[116.14833593765343,-8.6123741792249575],[116.14836925393797,-8.6123660133807789],[116.14845004903054,-8.61234621120866],[116.14850250288828,-8.6123333553999828],[116.14856357944575,-8.6123183852852208],[116.14857725273805,-8.6123150344112673],[116.14858677565928,-8.6123126997712234],[116.14859832475292,-8.6123146369109236],[116.14871998593867,-8.6123350398301568],[116.14872175400581,-8.6123353366064634],[116.1488237308306,-8.6123524390138186],[116.14893996730575,-8.6123719318191547],[116.14898126417404,-8.6123788583975625],[116.14910349193269,-8.6123766973266811],[116.14930457044966,-8.6123731423066374],[116.14944454273154,-8.6123756100463424],[116.14946157229383,-8.6123759104198712],[116.14948182862361,-8.6123762665513937],[116.14949293884808,-8.6123764626036063],[116.1496369373948,-8.6123790022890603],[116.14996739238131,-8.61230704663285],[116.15024649517966,-8.6122566666118132],[116.15041965244507,-8.6121441803095991],[116.15047061792473,-8.6120589461634154],[116.15052666007739,-8.6119331831698105],[116.15066931683555,-8.6118351696572972],[116.150980282614,-8.6117871620478468],[116.15114351586067,-8.6117047310884232],[116.15133748883409,-8.6114296365684027],[116.15141408679074,-8.6112382365553231],[116.15150601818823,-8.6111285390508101],[116.15156937272843,-8.6110669543763834],[116.1516541859919,-8.6109845108264835],[116.15184332780734,-8.6107701682086599],[116.15207335280309,-8.6103387193563776],[116.15220649743196,-8.6100925065638876],[116.15231404825477,-8.6099676581808353],[116.15249845513961,-8.6098188788381549],[116.1526401307375,-8.6097128649566912],[116.1526573068893,-8.6097000118460301],[116.15286748834399,-8.6095464759890206],[116.15281142460765,-8.6092811166301999],[116.15296638589007,-8.609010416197691],[116.15279765958439,-8.6087075173380185],[116.1527978664285,-8.6085652400936965],[116.15295708959809,-8.6083647866055912],[116.15311628398933,-8.6082252450989358],[116.15320882242929,-8.6081048375681348],[116.1532090742395,-8.6079726696029866],[116.15323248988761,-8.6079367102109359],[116.15328110903602,-8.6078620439980682],[116.1534196271142,-8.6078643696449149],[116.15364524723043,-8.6079444147029562],[116.1538506946539,-8.6078816977820907],[116.15408733236461,-8.6076820635763056],[116.15422615801083,-8.6076064512766379],[116.15422648986066,-8.6076062696135978],[116.15424160386704,-8.6075980381189083],[116.15452280118643,-8.6076750119921712],[116.15469214892357,-8.6077438631887162],[116.15496983079311,-8.6076616606570724],[116.15526244590524,-8.6077731469131322],[116.15551943257583,-8.6077771048294949],[116.15576665710557,-8.6076280062274577],[116.15585460000989,-8.6074611622028101],[116.15585523133393,-8.60726753007242],[116.15592248983114,-8.6071462124277218],[116.15611822097912,-8.6070624064049071],[116.15633478222446,-8.606917677608692],[116.15654623082401,-8.6067779040769778],[116.15662900892164,-8.6066566862569971],[116.15662985428446,-8.6064338666295725],[116.1568145012883,-8.6063292907641085],[116.15699489539816,-8.6062654164157948],[116.15713927885474,-8.6062010330512067],[116.15719646314631,-8.6060640654042686],[116.15719701083344,-8.6059314459794223],[116.15739853721277,-8.6057555071109277],[116.15746627864587,-8.6055676009639797],[116.15737404507615,-8.6054643902693329],[116.15720460740681,-8.6053551091509348],[116.15720527470376,-8.6052020733170025],[116.15732433325149,-8.6050607106832331],[116.15758223723049,-8.604966950064636],[116.15786241921535,-8.6048892000764567],[116.15804344374999,-8.6047280487604212],[116.15825494001353,-8.6046642103849535],[116.15844011042282,-8.6047225691911535],[116.15859518861714,-8.6046120685920187],[116.15859603308047,-8.6044384616656089],[116.15859650882192,-8.6043414437025945],[116.15866898428624,-8.6042707893653869],[116.15884445370864,-8.6042115258412082],[116.15896849000387,-8.6041363317262949],[116.1591187343422,-8.6039745787637685],[116.15922727711722,-8.6039093896065992],[116.15944408837402,-8.6038351811486677],[116.15952214772904,-8.6036878739961367],[116.15958991164518,-8.6035404373412803],[116.1596935126455,-8.6034393679324239],[116.15978144475798,-8.6033790000407748],[116.15988489377287,-8.6033085705340682],[116.16007356704154,-8.6031491881844318],[116.16015290793041,-8.6030821644102957],[116.16023076583724,-8.6029807550577289],[116.16029363834082,-8.6027922688480771],[116.16035629500709,-8.6026446631206568],[116.160501313385,-8.6025183506413327],[116.16068225068534,-8.6024230701685269],[116.16084773223713,-8.6023276107305833],[116.16096172940036,-8.6022213801125531],[116.16113266174295,-8.6020747942163212],[116.16119492000962,-8.6020038152238385],[116.1613296357541,-8.6018824058483006],[116.16143101363048,-8.6017360510778644],[116.16143205234744,-8.601551892405837],[116.16152574191949,-8.6013942187681209],[116.16160350629684,-8.6013182377464545],[116.16160449465178,-8.6011442836817196],[116.16180642482675,-8.6009927434203064],[116.16191049797112,-8.6008248759671915],[116.16198897191362,-8.6006260403594297],[116.16193344237456,-8.6004207889881741],[116.16202724076459,-8.6002476614004308],[116.1621948806893,-8.5999378557473847],[116.1623241204619,-8.5998776407404875],[116.16244269607364,-8.5998787541011552],[116.16245252926092,-8.5998624071243626],[116.16254681328485,-8.5997056615869383],[116.16268669383589,-8.599589208375221],[116.16270885582912,-8.5995589767653087],[116.16285819095276,-8.5993552677313687],[116.16306586779558,-8.5991062652419146],[116.16332984669509,-8.5989294405412124],[116.16360431978364,-8.5987219525559908],[116.16383058921042,-8.5984941641742694],[116.16407433336383,-8.5982504802753965],[116.16440497990595,-8.5981407387041031],[116.16445608028391,-8.5981411955596627],[116.16486095776702,-8.5979822349921164],[116.1650320555849,-8.5978197985448332],[116.16523524840807,-8.5974526719032269],[116.16543247243067,-8.5972289367659869],[116.16572713889639,-8.5971034039988581],[116.16616266437552,-8.5969517926910157],[116.16651962238268,-8.5967543888039586],[116.16675137137872,-8.5965698748997852],[116.16697071782448,-8.5962904600366414],[116.16714633113838,-8.5960667365905579],[116.16733092328354,-8.5958315566809347],[116.16736028884634,-8.5957941430851861],[116.16753993561963,-8.5954709753052043],[116.16764946135368,-8.5953638381705559],[116.16823793273443,-8.5947881470552829],[116.16853732603681,-8.5944317331379239],[116.1686393181501,-8.5942320018053806],[116.16985992569505,-8.5945061322521497],[116.16991532842974,-8.5940750970880231],[116.16991559193104,-8.5940239859181702],[116.16992278201087,-8.5926306833592889],[116.16992435942166,-8.5923192121618399],[116.16992714192418,-8.5917648943343465],[116.16972522344042,-8.5917632449776988],[116.16951051210049,-8.5916981367595326],[116.1691166989765,-8.591821612777153],[116.16886733765762,-8.5917614957963337],[116.16867480989458,-8.5916653411824768],[116.16848043942082,-8.591568265662886],[116.16831043427919,-8.591566867217125],[116.16799982733028,-8.5915643068472605],[116.16777582239638,-8.5916506849310963],[116.16742924076686,-8.5915543090840742],[116.16719957909731,-8.5914904392323592],[116.16690098799029,-8.5914073985325672],[116.16677093073395,-8.5913139373882359],[116.16661115538056,-8.5911991182446741],[116.16635131695978,-8.5911124937465502],[116.16609078426234,-8.5911736620348051],[116.16606403302876,-8.5912098732370055],[116.1659357636247,-8.5913835053444245],[116.16572784396487,-8.5915506713263881],[116.1655897782457,-8.5916075705329149],[116.16535110986592,-8.591547491323638],[116.1653015554225,-8.5915470713402442],[116.16519712704587,-8.5915461864073563],[116.16514244736607,-8.5915860227767098],[116.16484038307726,-8.5918060868813768],[116.16458046641549,-8.5917151150604809],[116.16452363196015,-8.5916952202581456],[116.16439496415637,-8.591650178612781],[116.16415295209708,-8.5915712010500442],[116.16414622157095,-8.5915650200096252],[116.16380609257715,-8.5912526449935172],[116.16371791315123,-8.5910000730948468],[116.16371510276986,-8.5909920232631976],[116.16365224195749,-8.5908119969760151],[116.16353045396738,-8.5907475866317782],[116.16331479564133,-8.5907895283140192],[116.1632648248119,-8.5907992463880873],[116.16310676626426,-8.5907978506402287],[116.16301713892983,-8.5907465739951476],[116.16288907457124,-8.5906733071273607],[116.16274086359999,-8.590588505555047],[116.16261089627585,-8.5905873472282224],[116.16240099181243,-8.590642559306616],[116.16228418876437,-8.5906732792483922],[116.16216810427466,-8.5907038103325135],[116.16189651261402,-8.590634512172926],[116.16172590672522,-8.5905909813886296],[116.16171763745911,-8.5905888706797668],[116.16160100618151,-8.5906049622491878],[116.16134612032727,-8.5906401257411744],[116.16087461836901,-8.5905090720360135],[116.16086256565495,-8.5905003639006168],[116.1606910379611,-8.5903764301281171],[116.16057854626297,-8.5902951512002232],[116.16049417366719,-8.5901835021668376],[116.16047374196967,-8.5899985511921386],[116.16043673037086,-8.5896640618469178],[116.16040212715654,-8.5893513378939019],[116.16019824275475,-8.5885630695299824],[116.1601987148988,-8.5884290822363027],[116.16019919873406,-8.5882918223097136],[116.16019745225071,-8.5882729734189525],[116.16013262462104,-8.5875736578979627],[116.16001231601558,-8.5870136059930928],[116.15995289421073,-8.5864961783559011],[116.15995428006602,-8.585973285538671],[116.16003696733219,-8.5857561559217856],[116.16012466202358,-8.5855258791160054],[116.16013938572416,-8.5854872145632726],[116.16022931163354,-8.585251076875636],[116.16048497809936,-8.5849106304212341],[116.1606521701616,-8.5845700922359356],[116.16044358230556,-8.5844568558991341],[116.16003132228775,-8.584337277543284],[116.15992381643105,-8.5843576696706805],[116.15973916223265,-8.5843926973650468],[116.15931930474221,-8.5843324526804849],[116.15903791316919,-8.5843299597597706],[116.1588018447294,-8.5843278607421212],[116.15855996666915,-8.5844138440236293],[116.1582997100636,-8.584506350987283],[116.15827258920865,-8.5845228256678183],[116.15810313804946,-8.5846257593712494],[116.15785889926883,-8.5846913532233202],[116.15760449545121,-8.5846890230799318],[116.15727554592979,-8.5846069833255569],[116.15693602937426,-8.584451117325159],[116.1566624268296,-8.5842082491113842],[116.15643123541327,-8.5838566222852251],[116.15608623389267,-8.5833323975720646],[116.15573078764578,-8.5830702460949624],[116.15557563210984,-8.5830297226435164],[116.1554228121131,-8.5829898098318154],[116.15515188145423,-8.5829190790522034],[116.15497658470167,-8.5829175726877907],[116.15491066799302,-8.5829170079135224],[116.15461535941142,-8.5829144763220029],[116.15426911502766,-8.5828481108516144],[116.15396633128125,-8.5827398387725111],[116.15394889342679,-8.5827336082693364],[116.15366476161955,-8.5826320748103626],[116.1536373736659,-8.5826222883878245],[116.15327575357321,-8.5824931664264454],[116.15278135667438,-8.5825522096167219],[116.15228693639301,-8.5825482472038175],[116.151569220743,-8.5826003871980561],[116.15131100919575,-8.5826636041419988],[116.15114449702094,-8.5828281045333483],[116.15090942682866,-8.5830603571496908],[116.15056262396604,-8.5833064629229057],[116.15035050806955,-8.5834569923462709],[116.15015901003039,-8.5834555318472781],[116.14975463616759,-8.5834525218163549],[116.14945208984216,-8.5832937590996607],[116.14928419990599,-8.5830454212091922],[116.14921446017922,-8.582942299547426],[116.14921226403487,-8.5824860950572202],[116.14890583983265,-8.5820648130406312],[116.14880999458569,-8.5819330416765069],[116.14873977911759,-8.5817352915504443],[116.14873892476157,-8.5815465229536017],[116.14873776913282,-8.5812843310069979],[116.148800188378,-8.5809123471270823],[116.1487990642255,-8.5806358712484325],[116.14873292988091,-8.5800900574101888],[116.14883848600743,-8.5797758747567627],[116.14868256424904,-8.5794428522058297],[116.14857750544763,-8.5790674697878444],[116.14851944791428,-8.5785370874165778],[116.14846454700125,-8.5780345858274245],[116.14851794334845,-8.5777167213495886],[116.1486446029661,-8.5775490265662597],[116.14890583983265,-8.5772031976694052],[116.14896948575324,-8.5771189428848515],[116.14923040785709,-8.5767735879306883],[116.14937262394744,-8.5764506566724208],[116.1493932678851,-8.5764037804100894],[116.14942931900794,-8.5762771037053085],[116.14955428879944,-8.5758379890319247],[116.14960010476113,-8.5756770013924779],[116.1499204405759,-8.5753582348945656],[116.15022503465764,-8.5750551498751975],[116.15010949875443,-8.5748137043888732],[116.14991745212876,-8.5744123603421372],[116.14972157888781,-8.574002992544024],[116.1493325402646,-8.5731898003689366],[116.14930858502328,-8.5731539956603342],[116.14926899506816,-8.5730948229676756],[116.14922022213557,-8.5730219239226244],[116.1491288806933,-8.5728453186565048],[116.14906955691458,-8.5727733360205889],[116.14901611200401,-8.5726917306388373],[116.14897047230954,-8.572601872178609],[116.148894611797,-8.5724525019813314],[116.14880605465578,-8.5723303092962624],[116.1487682237746,-8.5722828943400486],[116.14872772100762,-8.5722274421427187],[116.14870202288012,-8.5721771097857413],[116.14863544696834,-8.5720467089884096],[116.14859418067692,-8.5719840802011049],[116.14857345939765,-8.5719393461238838],[116.14852406323496,-8.5718327090122557],[116.14847101762348,-8.5717616292957359],[116.1483952479424,-8.5716600976353448],[116.14834772686618,-8.571596422037203],[116.14831444025924,-8.5715340027919638],[116.14829714359837,-8.5715015669437093],[116.14822885178012,-8.5715014032671206],[116.14817552018417,-8.5715012755633779],[116.14808752691795,-8.5715010678199519],[116.14801106925552,-8.5715008897541907],[116.14792504100785,-8.5715006928026583],[116.14780975871349,-8.5715004337979508],[116.14770965607579,-8.5715002125647288],[116.14748402966427,-8.5715205066659905],[116.14746376344203,-8.5715269718921832],[116.147281433991,-8.571585135545547],[116.14720226577197,-8.5715849763655001],[116.14712293927232,-8.5715848207827889],[116.14704478099191,-8.571584667898037],[116.14691993890415,-8.5716194878490342],[116.14682439492992,-8.5716662076293346],[116.14681071714097,-8.5716728967867084],[116.14672500005872,-8.5717148123886204],[116.14654520579666,-8.5718027292125498],[116.14650927698165,-8.5718405807781437],[116.14633111408966,-8.5720282773830263],[116.14615012283002,-8.5712671802361342],[116.14610078692181,-8.5710597156333392],[116.14610098567198,-8.5705446019517808],[116.14623431106463,-8.5700496645603153],[116.1462889556708,-8.5699101275503153],[116.14641251262742,-8.5695947218189303],[116.14625900464944,-8.5695945392565136],[116.14604462426007,-8.5696837106347061],[116.14581961568274,-8.5696834813075498],[116.14568031339581,-8.5696833509058479],[116.14553276612435,-8.569683223202162],[116.14518980516539,-8.569682963298078],[116.14515453645276,-8.5696829417143476],[116.14480390607548,-8.5696827375682574],[116.14453194839075,-8.5695854839828485],[116.14452550025169,-8.5695831781211496],[116.14427871279247,-8.569411011009322],[116.14393065177819,-8.5691682669019542],[116.14359399506691,-8.5689335762235146],[116.14346011479256,-8.5688402445815655],[116.14316783602692,-8.5685698130463948],[116.14307051409298,-8.5684797729231263],[116.14285294200977,-8.5682784812668729],[116.14250433600637,-8.5679559816831556],[116.14234443834516,-8.5678080593943946],[116.14207309130018,-8.5674093818374786],[116.1416984571182,-8.5669835141777639],[116.14151162026508,-8.5666520366621057],[116.14133760324785,-8.5664370213514189],[116.14087741566027,-8.5660058431950574],[116.14071635337712,-8.5658940367803211],[116.14061387293191,-8.5658228968092089],[116.14051973100084,-8.5657874167558248],[116.14045566419759,-8.5657632708582128],[116.14030811692612,-8.5657076639774914],[116.14010385211111,-8.5657082251544239],[116.13991875904355,-8.5656296396960556],[116.13966747767199,-8.5653824223608694],[116.13936229363503,-8.5651722588925736],[116.13920096245454,-8.5651727930898574],[116.13901271636382,-8.5651734406017681],[116.13864690722903,-8.5651747850882316],[116.13847472482871,-8.5651754559824553],[116.13838773430655,-8.5651758067180594],[116.13832943035902,-8.5651760423404539],[116.13820511977053,-8.5651765576519665],[116.13794674994267,-8.5651776719120107],[116.13722471215078,-8.5652392439958476],[116.13697399465423,-8.5651771242248742],[116.13675308158952,-8.5651783230211436],[116.13654239471578,-8.5652376845714571],[116.13642175066332,-8.5654815924015111],[116.13625112229147,-8.5655989242509349],[116.13598139222756,-8.5656007040092277],[116.13569631613211,-8.5654969249430906],[116.13519051313176,-8.5650471865783402],[116.13515166691593,-8.5650064077194656],[116.13491918137515,-8.5647623488032991],[116.13444571979414,-8.5643940350566368],[116.134066985603,-8.5642196951827145],[116.13364964711354,-8.5641460820759789],[116.13347247257661,-8.564073296345498],[116.13325765062018,-8.563985043175137],[116.13319473764705,-8.563959196659539],[116.132996669161,-8.5638413216196341],[116.1326887457891,-8.5636580703636014],[116.13239109267488,-8.5636142481989737],[116.13237962991604,-8.5636125601714639],[116.13229663058507,-8.5636003410828039],[116.13223699833884,-8.5635915619010348],[116.13222019000978,-8.5635967087210929],[116.13207460595834,-8.5636412854169635],[116.13205984088904,-8.5636458063088412],[116.13205958817946,-8.5636458836505653],[116.13203093667846,-8.5636546556377766],[116.13191455541244,-8.5637390633070822],[116.13191146624126,-8.5637413026189506],[116.13168761868872,-8.563903605067253],[116.13152388721767,-8.5640953225410499],[116.1315212836804,-8.5642079131646369],[116.13146811036506,-8.5643501247583913],[116.13146179442629,-8.5643670176237379],[116.13145331202077,-8.5643897021229805],[116.13133534075348,-8.5645373788968868],[116.1313001242014,-8.5645814636635578],[116.13125415625439,-8.5647096647192029],[116.13118313589302,-8.5649077332053025],[116.131130823229,-8.5649524933628527],[116.13100071201336,-8.5650638168416435],[116.13098264463338,-8.5650792752882694],[116.13098145572962,-8.5650802924214986],[116.13095843398457,-8.5650999902723015],[116.13079137322336,-8.5652429294175931],[116.13073994009619,-8.5652283460113381],[116.13070859062907,-8.5652194571122209],[116.13061236946533,-8.5651921752786393],[116.13060147687668,-8.5651890870067291],[116.13053782106363,-8.5651710367139344],[116.13049604575599,-8.5651386152548525],[116.1304301029669,-8.5650874366358494],[116.13029795568616,-8.564984877949712],[116.13028129394661,-8.564971946598007],[116.13018785798329,-8.5648994306641271],[116.13016668524438,-8.5648829991510524],[116.13015816236941,-8.5648791473547021],[116.12997613329196,-8.5647968809712438],[116.12988731894472,-8.5647567415303456],[116.12968273307172,-8.5646642813314884],[116.12934328486472,-8.5645805409591276],[116.12923387334467,-8.5645535496065577],[116.12920533695683,-8.5645358311636528],[116.1286732890411,-8.5642054580154081],[116.12866103487897,-8.564202287905232],[116.12856648195759,-8.5641778263455421],[116.12846146812228,-8.564150656927211],[116.12839701371126,-8.5641339816978643],[116.12829328230919,-8.5641071450286859],[116.12816863717296,-8.5640748980380863],[116.12812677463103,-8.5640839488151528],[116.12807564817274,-8.56409500328175],[116.12788724290203,-8.5641357380737873],[116.12787219364691,-8.5641389981162206],[116.12763980523289,-8.5641893430636742],[116.12755810542228,-8.564207041721545],[116.12754864095712,-8.5642090921758154],[116.12736124742366,-8.5641397292650367],[116.12728764510882,-8.5641124861023172],[116.12722976923851,-8.5640910642511585],[116.12721078005347,-8.5640840351500742],[116.12715753209454,-8.5640837275819308],[116.12714497845809,-8.5640836556361251],[116.12714495057912,-8.5640836556361251],[116.1270905712729,-8.5640833426720633],[116.12707640065548,-8.5640832608337973],[116.12699568290452,-8.5640827958843033],[116.12698248805145,-8.5640887422016476],[116.12697881971678,-8.5640903951555742],[116.12697291926486,-8.5640930535515167],[116.12697171687125,-8.5640935958427349],[116.12696607812211,-8.5640961373268283],[116.12690049596119,-8.5641256917472219],[116.12689350373228,-8.5641288429716838],[116.12687916763957,-8.5641353037012777],[116.12687833486734,-8.5641356787185714],[116.12679493533801,-8.5641732640848431],[116.12678561386508,-8.5641774639187815],[116.12664000283394,-8.5642430838511814],[116.12656781515261,-8.5642756159268743],[116.12634372208515,-8.5643766052960473],[116.12628280560705,-8.5643617439992568],[116.12602291862288,-8.5642983426943147],[116.12591918092551,-8.5642730357719188],[116.1257890957902,-8.5642413013948726],[116.12543313333254,-8.5643673188965863],[116.12530837937823,-8.5644114837029406],[116.12525911181865,-8.5644289710201633],[116.1250520986755,-8.5645024465306392],[116.12497064797708,-8.5645313570364578],[116.12462551425619,-8.5644647739301263],[116.12457961195958,-8.5644559192052725],[116.12419504476554,-8.5643817296330553],[116.12384258696591,-8.5642219803600597],[116.1236879638285,-8.5641007076814617],[116.12364139333567,-8.5640641817165601],[116.12336147575161,-8.5638452687441031],[116.12329788019304,-8.5637649565874199],[116.12316772221266,-8.5636005901950512],[116.12311166926816,-8.563378598843201],[116.1231161568852,-8.5632490209255252],[116.12310909630776,-8.5632056016571596],[116.12306262923698,-8.5629198843451491],[116.12297609916766,-8.5627041792544105],[116.12296232335257,-8.5626698377427601],[116.12270882515224,-8.5623780536042204],[116.12242603783147,-8.5621722140763836],[116.122294293447,-8.5621069592687036],[116.12205184791446,-8.5621571126606],[116.12196682870626,-8.5621746998024832],[116.1214588097763,-8.5623862482267441],[116.12113919341914,-8.5623844118111379],[116.12065566212914,-8.5621344623355071],[116.12062341513854,-8.5621177916027591],[116.12019376493038,-8.5621152986820448],[116.12011495464151,-8.5620797997428895],[116.11978240603332,-8.5619300077635785],[116.11959701079343,-8.5618123476616574],[116.11951661410058,-8.5617220071648603],[116.11926532283644,-8.5614396353308848],[116.1191726881691,-8.5612860212328314],[116.11910628222915,-8.5611759010469655],[116.11909628896262,-8.5611593301389348],[116.11894756627726,-8.5606357286558818],[116.11901807582365,-8.5602437879204558],[116.11907802642986,-8.5600691665587192],[116.11915828642589,-8.5598349417291502],[116.11917424669423,-8.5597883622430686],[116.11911663972126,-8.5594514896944247],[116.11887814580984,-8.5592381057539342],[116.11870836819674,-8.5591727807991447],[116.11799407536637,-8.5591674208397421],[116.11752333333527,-8.5590627073780183],[116.11711128375885,-8.5588514566293838],[116.11687858597804,-8.5586700597754088],[116.11670094019632,-8.5584637759824318],[116.1166560334492,-8.5584116800549168],[116.11663977010937,-8.5583928131777611],[116.11653743535442,-8.5582740936744131],[116.11637049959893,-8.558080431866415],[116.11629835508506,-8.5579967373594741],[116.11605319360001,-8.5576200365354111],[116.11604345933824,-8.5575998683391958],[116.11597434913699,-8.5574566827796161],[116.11586733880665,-8.5572349747142766],[116.11582535575565,-8.5572311831725187],[116.11556639057653,-8.5572077936047322],[116.11541697361451,-8.5571476433490261],[116.1152425330165,-8.5570774188877294],[116.11514061105038,-8.5570363882187053],[116.11498977675683,-8.5569678490869023],[116.11487518334309,-8.556915776541814],[116.11471302568566,-8.5568420932879121],[116.11430285299434,-8.5566865285604194],[116.11420180067262,-8.5566482039513971],[116.11417931582287,-8.5566536916145424],[116.1140600603236,-8.556682797273254],[116.11391175582298,-8.5567189922876423],[116.11386394606427,-8.5567306609911498],[116.11385026917469,-8.556733999274627],[116.11382785357262,-8.5567261391998954],[116.11363247046222,-8.5566576225511994],[116.11353467458559,-8.5566233287036084],[116.11336629182097,-8.556564281916053],[116.11291832691927,-8.5564724458466799],[116.11277688784321,-8.5564434499052595],[116.11249492430136,-8.5562490596463476],[116.1123320238039,-8.556076171278221],[116.11226485883628,-8.5560048883148738],[116.112017725138,-8.555939486018417],[116.11184989095977,-8.5558213088062871],[116.11164239398136,-8.5557295186023339],[116.11152424284955,-8.5557070679267895],[116.11141564881325,-8.555686432083121],[116.11136880132915,-8.5556775296942078],[116.11118073330431,-8.5556778273697773],[116.11114381613424,-8.5556778849264106],[116.1110100230942,-8.5556780962670587],[116.11080025802551,-8.5557576583891546],[116.11070246214899,-8.5557947509269638],[116.11055321425954,-8.5558513587531593],[116.1103984364388,-8.5559100646976844],[116.11023956490408,-8.5559103156085143],[116.11020318822659,-8.5559103731651476],[116.11004144065998,-8.5559106276732564],[116.10999005070039,-8.5558964849348058],[116.1098720101852,-8.5558639987245328],[116.10980609257717,-8.5558282713575977],[116.10958316323251,-8.555707440246124],[116.10957133894624,-8.5557010307779251],[116.10933132158334,-8.5555292341867357],[116.10926493362979,-8.5554817158084688],[116.10913201742869,-8.5553801679603225],[116.10899255326376,-8.5552736180829356],[116.10892223617236,-8.5552425537008503],[116.10864803467916,-8.5551214186185121],[116.1086467468499,-8.5551208502470217],[116.10862389867407,-8.5551107562563402],[116.10828942461728,-8.5550586963017281],[116.10823271696643,-8.5550498685565231],[116.10816833629974,-8.5550499701799367],[116.10780997535016,-8.5550505331555087],[116.1077849661034,-8.5550505718263707],[116.10770415572222,-8.5550506986307937],[116.10757585034526,-8.5550509009782445],[116.1074624269495,-8.5550510790440057],[116.10729568185025,-8.5550513407467292],[116.10723293165449,-8.5550361916668862],[116.1070928307696,-8.5550023699633471],[116.10704475391231,-8.5549730565612663],[116.10691690179362,-8.5548951033263165],[116.10688280759553,-8.5548859797041814],[116.10670047274868,-8.5548371878858802],[116.10659519091541,-8.5548373533611084],[116.10658781197799,-8.5548373650523217],[116.10650509233619,-8.5548740717809437],[116.10646622183867,-8.5548913198784362],[116.10633165178433,-8.5549331851183297],[116.10626352004545,-8.5549543812396678],[116.10612794544841,-8.5550072676712148],[116.10612085429409,-8.555006415113894],[116.10610616206975,-8.5550046470467578],[116.10605401757891,-8.5549983715775397],[116.10596082083532,-8.5549871552329932],[116.10594100067669,-8.5549847702309307],[116.10585911110911,-8.5549957590470171],[116.10585334015957,-8.554996533363294],[116.10584922935845,-8.5549970846477095],[116.10584085756955,-8.554998207900951],[116.10578234767729,-8.5550060598816913],[116.10577919015759,-8.5550064178119101],[116.10562543126866,-8.5550238403778849],[116.10556503909538,-8.5550132805384465],[116.10551605392277,-8.5550047171939241],[116.10542248575916,-8.5550221964172124],[116.10534924497176,-8.5550358778034479],[116.10523810135737,-8.5550692300608944],[116.10517017196594,-8.5550896140943564],[116.1051088364037,-8.5550821910902073],[116.10480408673925,-8.5550453089937832],[116.10474634846526,-8.5550383212614634],[116.10458620978579,-8.5549905600662441],[116.10449070897914,-8.5549521536189559],[116.10442351793108,-8.5549251325887781],[116.10436423372244,-8.5549078961824421],[116.10430652422679,-8.5548911166316657],[116.10425065474396,-8.5548748730768693],[116.1041312553532,-8.554875059236565],[116.10402205067714,-8.5549131239414464],[116.10400030507003,-8.5549252638897428],[116.10387228567754,-8.5549967339121054],[116.10384403797207,-8.5550123308543107],[116.10375298880945,-8.5550626020573759],[116.1035878840737,-8.5550881302129937],[116.10346695493604,-8.5550626263390654],[116.10341638515808,-8.5550507103219502],[116.10328910770625,-8.5550207188310878],[116.1032058376793,-8.5549874007479048],[116.10318459389396,-8.5549789012552537],[116.10314209283342,-8.5549648889184482],[116.10309908545446,-8.5549507093077182],[116.10309848920394,-8.5549505132555623],[116.10302631681111,-8.5549267171941779],[116.10297420559516,-8.55487505294127],[116.10296967391139,-8.5548705599283608],[116.10290093333151,-8.5548365178909194],[116.10283919037636,-8.5548366141184147],[116.1028048641532,-8.5548366680777121],[116.10278981669671,-8.5548366905607622],[116.10265900041259,-8.5548675382062811],[116.10262852328776,-8.5548747237893963],[116.10259737526872,-8.554874773252152],[116.10249480938796,-8.5548749333314618],[116.10241177678211,-8.5548750619345242],[116.10240328538339,-8.5548750754243201],[116.10239002757783,-8.5548723432839893],[116.10228281040349,-8.5548502442433119],[116.10226643015164,-8.5548468681883492],[116.10220662343693,-8.5548469608185655],[116.10213166764242,-8.5548470768310949],[116.1021267177739,-8.5548455578761491],[116.1020662059907,-8.5548269931711616],[116.10201316487576,-8.5548107199387005],[116.10198157259151,-8.5548107694014561],[116.10196872127949,-8.554810789186547],[116.1019330289862,-8.554810844944484],[116.1019110909242,-8.5548108791187474],[116.10182218394664,-8.5548110167150071],[116.10180286740842,-8.5548110472919348],[116.10175218971187,-8.5548111255329786],[116.10171083168962,-8.5548111902841697],[116.10168852130823,-8.554811225357696],[116.10157896589658,-8.5548343873970225],[116.10156427816901,-8.5548374918567447],[116.10154305326932,-8.5548419785744159],[116.1015341751621,-8.5548419929635315],[116.10146046762657,-8.5548421071774783],[116.10140332200581,-8.5548421962103589],[116.10138655144829,-8.5548392428367492],[116.10135956908891,-8.5548344917183954],[116.10133468394861,-8.55483011022136],[116.10129676223585,-8.5548234327551427],[116.10123900237807,-8.5548132632214902],[116.10115970465665,-8.5548133855292576],[116.10096846921954,-8.554813683204884],[116.10077860614786,-8.5548139772831746],[116.10074081663549,-8.5548140357391276],[116.10037384827456,-8.5547568820244351],[116.1003452939002,-8.5547524348769457],[116.10032669771897,-8.5547495390599124],[116.10014087440186,-8.554781649353572],[116.10009338210398,-8.5547898547679324],[116.09996549401239,-8.5548119529092332],[116.09974449910942,-8.5548501399219958],[116.09966952712705,-8.5548502559345252],[116.09953004497561,-8.5548504717718288],[116.09946493495886,-8.5548505733951856],[116.09934163790638,-8.5548507649507997],[116.09933503238585,-8.5548507748433167],[116.09933072463332,-8.5548507820379314],[116.09927233345149,-8.5548508719701317],[116.09924022405721,-8.5548509223321503],[116.09909512563956,-8.5548511462633314],[116.09905720032964,-8.5548512047192844],[116.09903897017239,-8.5548512325982529],[116.09898830416694,-8.5548513108392967],[116.09894840844231,-8.5548513728924718],[116.09883020514997,-8.5548515563542082],[116.09879386174737,-8.5548516121121452],[116.09873207472549,-8.5548517083396405],[116.09866587293175,-8.5548518099629973],[116.09866073060834,-8.5548518180569317],[116.09864769493527,-8.5548518378420226],[116.09863429503673,-8.554851859425753],[116.09862304092064,-8.5548518756135081],[116.09861638863549,-8.5548518864054017],[116.09859717641859,-8.5548519160830097],[116.09859422034708,-8.5548519205796083],[116.09858905464125,-8.5548519286735427],[116.09858703926056,-8.5548519322708216],[116.09857830234682,-8.5548519457606176],[116.09857685533768,-8.5548519475593139],[116.09856690433924,-8.5548519628477493],[116.09856643309445,-8.554851963747069],[116.09856548071241,-8.5548519646463888],[116.09855841114177,-8.5548519763376021],[116.09855478327665,-8.5548519817335205],[116.09855470233765,-8.5548519817335205],[116.09855006543319,-8.5548519889280783],[116.09854758780102,-8.5548519934247338],[116.0985467307471,-8.5548519943240535],[116.09854507059856,-8.5548519970220127],[116.09854468658807,-8.5548519979213324],[116.09854375758846,-8.5548519988206522],[116.09854125387585,-8.5548520033172508],[116.09854109559512,-8.5548520033172508],[116.09854001281144,-8.5548520051158903],[116.0985387123917,-8.5548520069145297],[116.09853611425035,-8.5548520114111284],[116.09853356826966,-8.5548520150084642],[116.09852714261365,-8.5548520249009812],[116.09851489204868,-8.5548520437867523],[116.09848898258053,-8.5548520842562539],[116.0984597024534,-8.5548521292223541],[116.09842868033934,-8.5548521768864134],[116.09842845011292,-8.5548521768864134],[116.09837762492748,-8.5548522560267202],[116.09829172618231,-8.5548523891264381],[116.09822771064034,-8.5548524880518357],[116.09812866020957,-8.5548526409365877],[116.09812403679496,-8.5548526481311455],[116.09801696171348,-8.5548528136064306],[116.09776473875172,-8.5548532039121596],[116.09762148934033,-8.5548534251453816],[116.09761424080466,-8.5548534359372752],[116.0972242048332,-8.5548540393823487],[116.09709384630401,-8.55485423993116],[116.09678667026867,-8.5549123927926303],[116.09647432133295,-8.5551080888671436],[116.09635272669709,-8.5551842722363176],[116.09606591401075,-8.5553639693716264],[116.09585251118449,-8.5554304688409957],[116.0957000527153,-8.5554779773267455],[116.09553858573724,-8.5555680381344246],[116.09547530134409,-8.5556026449460774],[116.09526667661589,-8.5557167275449046],[116.0952415270749,-8.5557304808769459],[116.09519185302167,-8.5557576440000389],[116.09515823816218,-8.5557874862034851],[116.09508876283621,-8.555849161709375],[116.09494495494573,-8.5559768276684167],[116.09493774957753,-8.5559801677504765],[116.09493693569107,-8.5559805445664097],[116.09477514405773,-8.556055546226446],[116.09477401900585,-8.5560560678331967],[116.09476159487178,-8.5560618270915825],[116.09464101017454,-8.5561177262520118],[116.09452699592418,-8.556169893225956],[116.0944259364079,-8.5562810764105279],[116.09417721270825,-8.5564138703037997],[116.09411302179853,-8.5564341320295512],[116.09401569087152,-8.5564648546692865],[116.09393663506773,-8.556489809057382],[116.09375607638185,-8.5565468026927647],[116.09358516202565,-8.5566841453569964],[116.09336674278097,-8.5568451950496751],[116.09336646578981,-8.5568453209547783],[116.09316567235794,-8.5569366102363347],[116.0931387430586,-8.5569488527073645],[116.09312633601166,-8.5569488715930788],[116.09312289340687,-8.556948876989054],[116.09308794125559,-8.5569489309483515],[116.09304776224451,-8.5569489921022637],[116.0930083215768,-8.5569490523568561],[116.0929319412561,-8.5569491692687052],[116.09287338280046,-8.5569492592009055],[116.09272749118088,-8.5569926649794752],[116.09266347923619,-8.557011709922449],[116.09253800942167,-8.5570490407805551],[116.09249557491091,-8.5570616663627561],[116.09224987473203,-8.5572388849665231],[116.0922467630777,-8.5572417367167191],[116.09198692645555,-8.5574798906843625],[116.09185887198942,-8.5575972594059522],[116.091740562577,-8.5577056942623244],[116.09148232135215,-8.5579423832343764],[116.09136236168365,-8.5580523298510798],[116.09129128016855,-8.558117480337387],[116.09124134621118,-8.5581307372436868],[116.0911886513353,-8.5581447270974422],[116.09113427023044,-8.5581591639142403],[116.09107464068222,-8.5581749937808809],[116.09102638306115,-8.5581878064220973],[116.09101063143555,-8.5581919882695843],[116.09098998030345,-8.5581974696374914],[116.0909530568382,-8.5582072731471044],[116.09093001710664,-8.5582133903356521],[116.09091535995594,-8.5582172808028076],[116.09091508746133,-8.5582173527485566],[116.09090657807621,-8.5582163931719606],[116.09087305314893,-8.5582126106234568],[116.09084859968323,-8.5582098524027401],[116.09084771834762,-8.5582097516786462],[116.0907671193072,-8.5582006586334387],[116.09063196559282,-8.5581854106281412],[116.0903821222372,-8.5581572231772611],[116.09030485608434,-8.5581485060486671],[116.09021819921054,-8.5581387286193831],[116.08837109694866,-8.5580618932417565],[116.08818765863361,-8.5580542615948616],[116.08653569846376,-8.557985542598658],[116.08576334899942,-8.5579534053253496],[116.08555061167147,-8.557944553298455],[116.08192166735114,-8.5577935508316614],[116.08104665577855,-8.5577571408792892],[116.08089279526632,-8.5577507386056482],[116.08029044824571,-8.5576193656411874],[116.07991122122598,-8.5575366558919086],[116.07945076024441,-8.5574362276997249],[116.07944419879084,-8.55743479687834],[116.07942987708725,-8.5574271814192571],[116.07942506931158,-8.5574246237473517],[116.07942371583192,-8.5574239051890117],[116.07939880011463,-8.5574106545780069],[116.07931968315688,-8.5573685833933837],[116.07930433172953,-8.5573604202471643],[116.07928006532279,-8.557347515875108],[116.07916850622166,-8.5572881929956566],[116.07912980209881,-8.5572676111113424],[116.07904152644539,-8.5572206691985002],[116.07900702215636,-8.5572023212300792],[116.07900661116628,-8.5572021026948164],[116.07893185502121,-8.5571623499624252],[116.07891250880527,-8.5571520617182273],[116.07890728194559,-8.5571492828130999],[116.07882239943422,-8.5571041449402969],[116.07861246619245,-8.5569925102960838],[116.07845227445296,-8.5569073247132224],[116.07827884019639,-8.556815099237383],[116.07799422815117,-8.5566637523302802],[116.07723450426897,-8.5562597561827829],[116.07679498040409,-8.5560260322754971],[116.07616421480668,-8.555690613031345],[116.07576705260749,-8.5554794126447291],[116.07573233877645,-8.5554609531604342],[116.075590527381,-8.5553034575884226],[116.07541519915219,-8.5551090808193635],[116.07518497810429,-8.5548538478267915],[116.07512754200252,-8.5547762471260853],[116.07496857873696,-8.5545618928170484],[116.07485728043923,-8.5543382188336636],[116.07474796514657,-8.5541203499741414],[116.074680018668,-8.553973798252116],[116.07465915979242,-8.5539288060695071],[116.07464552517092,-8.5538993973392508],[116.07441458466542,-8.5534909990103642],[116.07438893060475,-8.5534456300117654],[116.07428793044369,-8.5533381673225222],[116.07423328224024,-8.5532800225549295],[116.07416149026062,-8.5532036368383046],[116.07416046143624,-8.5532025432627279],[116.07411438736915,-8.5531535212180074],[116.07397245366587,-8.5530025079593202],[116.07392701541949,-8.5529787883403401],[116.07390832301076,-8.5529690297968273],[116.07378723109593,-8.55290581734954],[116.07363636712466,-8.5528869882438698],[116.07355387321275,-8.5528950056998951],[116.07355227241953,-8.552895162181926],[116.07350749607417,-8.5528995140012967],[116.07337013902077,-8.552912863537756],[116.0730353978654,-8.5528220050314872]]]]},"properties":{"OBJECTID":408,"nama_kawasan":"Kawasan Perkotaan Sedang Kota Mataram","delineasi_asal":"Kota Mataram","Shape_Length":0.34694876268268932,"Shape_Area":0.0049631172596926332}}]}