{"type":"FeatureCollection","features":[{"type":"Feature","id":429,"geometry":{"type":"Polygon","coordinates":[[[125.01340851429154,-9.3019859397992377],[125.01334999990263,-9.3016611109714518],[125.01271404611634,-9.3015109457734866],[125.01265567022301,-9.3014706309647863],[125.01241944440187,-9.3009888893257084],[125.01174833971413,-9.3008932194464933],[125.01136111142625,-9.3006194433326073],[125.01094471362774,-9.3005547443059413],[125.01078775944757,-9.300530355591377],[125.01078721265981,-9.3005429910661519],[125.01078721265981,-9.3006377076640092],[125.01077660335761,-9.3008548642605433],[125.01076601024329,-9.3010296618893449],[125.01076373226044,-9.3010395877067822],[125.01069185304664,-9.3013527550255617],[125.01068655603979,-9.3015381457687454],[125.01068125993231,-9.3016652550474532],[125.01067596292546,-9.3017764903926832],[125.01063888477677,-9.3019247867994181],[125.01055943237202,-9.3020201302247756],[125.01043964267546,-9.302098263324126],[125.01043762010011,-9.3020995826295803],[125.01029460271377,-9.3021101784419216],[125.01000858772625,-9.3020942874213688],[125.00992913442212,-9.3020889904145179],[125.00983380718446,-9.302078396400816],[125.00977128811451,-9.3020617229701088],[125.00959546256058,-9.3020148341172444],[125.00939966036606,-9.3019989565865444],[125.00939956863522,-9.3019989502912495],[125.00939947780375,-9.3019989430966916],[125.00928296343807,-9.30193538081312],[125.00912405682982,-9.3019141927857163],[125.00901283767234,-9.3019141927857163],[125.00885922897032,-9.3019141918863966],[125.0086579633944,-9.3019406769206512],[125.00852024391418,-9.301972458062437],[125.00834546337251,-9.3019883328951778],[125.0083211268186,-9.302014776560668],[125.00831823100157,-9.3020150553504664],[125.00816951011484,-9.3020898798440612],[125.00812349630235,-9.3021130310914373],[125.00796826072667,-9.3022882792806172],[125.00790551143029,-9.3024145683775714],[125.00784276123454,-9.3025408565752059],[125.00781525816774,-9.3027104875988584],[125.00778973720662,-9.3028678941379326],[125.00776729822235,-9.3030062899082964],[125.00777179303384,-9.3031677380006386],[125.00781915403081,-9.3032876428104032],[125.00781027772223,-9.3032997890539946],[125.00777873220284,-9.3034169617233715],[125.0077793509364,-9.3034392127494243],[125.00780518126419,-9.3036091135696779],[125.00780518216345,-9.30373094202929],[125.00780518216345,-9.3037350816086928],[125.00780518216345,-9.303828409653363],[125.00780518216345,-9.3038474590929354],[125.00781049355953,-9.3039798806669296],[125.00782108757323,-9.3040910989250278],[125.00787900661089,-9.3042292114089378],[125.00788994776292,-9.3042553016408078],[125.00790349874751,-9.3042959572925383],[125.00792172800539,-9.3043506450661653],[125.00792339085183,-9.3043905515826282],[125.00792628217221,-9.3044599180906857],[125.00792702501224,-9.304477755244136],[125.00787936903771,-9.3046525528729944],[125.0078740558431,-9.304827334313984],[125.0078740558431,-9.3048403466046921],[125.0078740558431,-9.3049862391235934],[125.00783336781569,-9.3051082951116655],[125.00781579056638,-9.3051610205645829],[125.00769085944569,-9.3053900733931414],[125.00768868128762,-9.3053940672823501],[125.00760922888287,-9.3054841137008566],[125.00756112774388,-9.3055108451493425],[125.00751388455819,-9.3055370990578012],[125.00736433089924,-9.3056445734382578],[125.007344400124,-9.3056588960411659],[125.00725408480821,-9.305739175822282],[125.00720138543568,-9.3057860206083092],[125.00715417642414,-9.3058155291632829],[125.00703190100148,-9.3058919580473685],[125.0069809840852,-9.3059567542007926],[125.0069446829508,-9.3059863553859259],[125.00689022360496,-9.3060821637607773],[125.00685976626528,-9.3061357471669339],[125.00683436401471,-9.3061804371773746],[125.00682640231662,-9.306220241171161],[125.00679883809596,-9.3063580523821656],[125.00678824408226,-9.3064428017938212],[125.00685172902411,-9.3065585580309858],[125.00692664794656,-9.3067702098772429],[125.0069426468857,-9.3068154071053186],[125.00695774380495,-9.306951271284106],[125.00703190100148,-9.307099583878653],[125.00710665624729,-9.3072407981242691],[125.0071272291384,-9.3072796614271738],[125.00716960429384,-9.3073750057518509],[125.00717942938718,-9.3074114993411854],[125.00717955439302,-9.3074121396584815],[125.00720668244253,-9.3075513322281722],[125.00720668244253,-9.3076186455840002],[125.00720138543568,-9.3077351770367613],[125.0071926287369,-9.3077935421381994],[125.00718549441513,-9.3078410991873284],[125.00718166060517,-9.3078717678677663],[125.00717938621972,-9.3078899701459363],[125.00717490130069,-9.307925848598984],[125.00716040063207,-9.3079609572323534],[125.00707427525765,-9.3081694893303961],[125.00701600998093,-9.3083548809729564],[125.00701487503648,-9.3083856108072496],[125.00701274364326,-9.3084432987192258],[125.00701072826257,-9.3084978803728404],[125.00702130698778,-9.3086408959605365],[125.00701072916183,-9.3088103803946751],[125.00700011896038,-9.3089163178337344],[125.0069758867279,-9.3089599088726231],[125.00697361863763,-9.308963989996073],[125.0069153686494,-9.3090434424008777],[125.00687681471334,-9.3090819891424417],[125.00682532223095,-9.3091334744302685],[125.00670998327917,-9.3091676522652733],[125.00668232283101,-9.3091758486864364],[125.00659757162066,-9.309244707976859],[125.00659227641245,-9.309350646315238],[125.00659333401518,-9.3093678296615394],[125.00661015313608,-9.3096411372286525],[125.00661928844943,-9.3097104578712901],[125.00666113390423,-9.3098220358582466],[125.00666113390423,-9.3100180206151322],[125.00666113480361,-9.3101239427656992],[125.00666113480361,-9.3102404742184603],[125.00667702492478,-9.3103252236301159],[125.00667171262944,-9.3104152556594499],[125.00665054078991,-9.3105370832197423],[125.00664524378305,-9.3105688652609047],[125.00664502524774,-9.310571420234794],[125.0066427562582,-9.3105978836853183],[125.0066293527625,-9.3107542398162764],[125.00662723665766,-9.3107711713524282],[125.00661875964806,-9.310838989227932],[125.00661875964806,-9.3109401422736937],[125.00661875964806,-9.3109555206806931],[125.0066187587488,-9.3110411478306787],[125.0066187587488,-9.311093223973046],[125.00662101424848,-9.3111541107735434],[125.00662405665491,-9.311236239560742],[125.0065869794056,-9.3113951299812356],[125.00652341622276,-9.3114904743059128],[125.00651146603138,-9.3115109599627885],[125.00648633807407,-9.3115540356901647],[125.00643873605884,-9.3116241900042951],[125.00638571293041,-9.3117023338955391],[125.00630625962629,-9.3117764892934929],[125.00628806993859,-9.3117870203546431],[125.0062783239855,-9.3117958813747919],[125.00628487284871,-9.3117888711594219],[125.00620561919402,-9.3118347545702136],[125.00597786858384,-9.3120042390043523],[125.00580308804217,-9.3120572090729183],[125.00574395312105,-9.3121138798516085],[125.00567596257565,-9.3121790366332107],[125.00544634497294,-9.3122453607347779],[125.00543761885115,-9.312247880635141],[125.00529444678136,-9.3122985907073712],[125.00526349841175,-9.3123095516444323],[125.00518338500524,-9.3123379270536475],[125.00499269725526,-9.3124385683851756],[125.00495319993024,-9.3124592132220414],[125.00475964963823,-9.3125603797576559],[125.00463792010396,-9.3126486320286972],[125.00454779094787,-9.3127139740706184],[125.00441069919452,-9.3128553501941838],[125.00437829122518,-9.3128887708001002],[125.00425116575877,-9.3130529897036922],[125.00425110730282,-9.313053094924328],[125.00425104794761,-9.3130532010443403],[125.00421789444033,-9.3131125284203904],[125.004150540615,-9.3132330519637208],[125.00415288334898,-9.3132986224334218],[125.00415583762185,-9.3133813645582677],[125.0041293525876,-9.3136303022965876],[125.0041293525876,-9.3137035880500889],[125.0041293525876,-9.3137574268637309],[125.0041611346287,-9.3139269112978695],[125.0041758367455,-9.3141033375989082],[125.00417702474999,-9.3141175990479042],[125.00419291577055,-9.3143241616307364],[125.00418971238537,-9.3144843326857654],[125.00418761876369,-9.3145889903895522],[125.00417919931067,-9.3146153702031143],[125.00410816635883,-9.3148379272284956],[125.0040763852171,-9.315044505999083],[125.00398633789928,-9.3151663182709399],[125.00389100976236,-9.3152404736688936],[125.00384609582068,-9.3153541380829665],[125.00381285687786,-9.3154132307359419],[125.00376043629512,-9.3155064238823115],[125.00366242817859,-9.3157805381412686],[125.00355652131645,-9.3159394447495174],[125.00355573890624,-9.3159414277546375],[125.00348764583828,-9.3161142261905638],[125.00345586469643,-9.3162678510803971],[125.00314177557254,-9.316800849579522],[125.00302235279935,-9.3169883492328722],[125.00302235369873,-9.3171366609280994],[125.00302235279935,-9.3172531932801803],[125.00307002496174,-9.3174544579568419],[125.00308938017088,-9.3176431627017564],[125.00311240101655,-9.3178675993102047],[125.00311240011729,-9.3181218331560558],[125.00309121298915,-9.3183336918463624],[125.00309034784129,-9.3183377990501413],[125.00304883783372,-9.3185349592209263],[125.00295350969679,-9.3187839113483619],[125.00287405729193,-9.3189798808168121],[125.00278930698096,-9.319133474230398],[125.00265689979619,-9.3192870829324761],[125.00256685427701,-9.3194883494077772],[125.00243443090437,-9.3196525521235571],[125.00237616562765,-9.3198485206926307],[125.00222786922086,-9.3200127243077304],[125.00218778104136,-9.3201100732212581],[125.00215371292359,-9.3201928018562512],[125.00210604166057,-9.3202510680322916],[125.00200011861068,-9.3203781925994349],[125.0018787191276,-9.3204874413423227],[125.0018412129017,-9.3205211928986955],[125.00170350960934,-9.3206642075870718],[125.00165794275995,-9.320711751146348],[125.00160750608165,-9.3207643749758518],[125.00158168204905,-9.3207913177650425],[125.00150222874493,-9.3208442869342321],[125.00145406735135,-9.3208554879903431],[125.00127447813475,-9.3208972552041018],[125.00116324368878,-9.3209449273664404],[125.00102511861439,-9.3209449273664404],[125.00096197901223,-9.3209449273664404],[125.00083732578207,-9.3209180115569552],[125.00065848300267,-9.3208793973662409],[125.00050156839268,-9.3208455172068057],[125.00049586938894,-9.3208442860349123],[125.00048119784901,-9.3208405070836875],[125.00016404293626,-9.3207588081723998],[125.00014630740623,-9.3207542387170861],[125.00007893019858,-9.3207566785778226],[124.99999999490387,-9.3207595366232567],[124.99999883657711,-9.3207610034175445],[124.99995499912393,-9.320816522164705],[124.99987615016425,-9.3209163810860787],[124.99979829225742,-9.3209653185945172],[124.99973182156634,-9.3210070992981287],[124.99964110335429,-9.321077191559084],[124.99957484220522,-9.3211066425574813],[124.99949268194177,-9.3211431613277682],[124.99945431956121,-9.3211653745823355],[124.99941595808002,-9.3211875896354854],[124.99915822227422,-9.3214245906722795],[124.99906028970065,-9.321499328830896],[124.99884572135306,-9.3216630800870348],[124.99830900685527,-9.3221876303547901],[124.99822248577914,-9.3222721891102083],[124.99796261858,-9.3225261666491974],[124.99743517699187,-9.3230726621735585],[124.99724242529771,-9.3232723773182897],[124.9971620780675,-9.3233782706905686],[124.99706047715938,-9.323512177045302],[124.99690177109994,-9.3237213440647224],[124.9967531824135,-9.3239613956018843],[124.99647122786496,-9.3242433492511054],[124.9963706530832,-9.3243338687130404],[124.99633026003357,-9.3243702238067385],[124.99616368040961,-9.3245010931509],[124.99613288402543,-9.3245252867125714],[124.99610771829657,-9.3245435897148354],[124.99582274382465,-9.3247508492722204],[124.99554011658313,-9.3249287963268443],[124.99553819742994,-9.3249300050156876],[124.99544211925843,-9.324990505107678],[124.9952870410641,-9.3250891769239388],[124.99492050887443,-9.3252583492933354],[124.99470905667772,-9.3253429422229601],[124.99439144760731,-9.3254958647423223],[124.99439113913979,-9.3254960140297953],[124.99432843121224,-9.3255262078681653],[124.99418744719299,-9.3255825989577374],[124.99405179615349,-9.3256730320846941],[124.9940145651201,-9.3256978533731854],[124.9939759940969,-9.3257235667891223],[124.99391396605677,-9.3257649158181835],[124.99376452481306,-9.3258645373185232],[124.99375724929769,-9.3258697920572331],[124.99351079099029,-9.3260478020643518],[124.99334607656021,-9.3261713320412696],[124.99305966587099,-9.3263861297160702],[124.99304228017718,-9.3263963577056757],[124.99298630817168,-9.3264292845837531],[124.99282001003553,-9.326527113735267],[124.99267904130477,-9.3267244735555437],[124.99262973327563,-9.3267872309459108],[124.99257606083665,-9.3268555407505573],[124.99253175933325,-9.3270537504301956],[124.99252867555799,-9.3270680091812324],[124.99247465238341,-9.3273178696239256],[124.99237165123077,-9.3275367466235366],[124.99230333063429,-9.3276819268793929],[124.99202684576244,-9.3279891316930161],[124.99198210359123,-9.3280388462157475],[124.99183709510589,-9.3281140358340622],[124.99178936718556,-9.3281387842774279],[124.99166801536671,-9.3281744756714602],[124.99160633716281,-9.3281744756714602],[124.99153952383006,-9.3281744756714602],[124.99145366555433,-9.3281422556605094],[124.99122440138513,-9.328289645550683],[124.99086415006059,-9.3285352701865349],[124.99058577481367,-9.3286990214426169],[124.99029100942266,-9.3289446460785257],[124.99025836493161,-9.3289849725783824],[124.99008223001101,-9.3292025626481063],[124.98955505282345,-9.3294236933487014],[124.98902681263735,-9.3295735986426394],[124.98860564933136,-9.3297520583108167],[124.98846636503083,-9.3298515467114385],[124.98831221493685,-9.3300269091145083],[124.98828442138904,-9.3300661474347066],[124.98822731443909,-9.3302802993962359],[124.98821303680222,-9.3305586962268308],[124.98822731443909,-9.3309869992505696],[124.98824164963253,-9.3311685867608389],[124.98824872909563,-9.3312582572627321],[124.98828366505916,-9.3315631472214022],[124.98828367405235,-9.3315632272610856],[124.98829698042141,-9.3316793504216662],[124.98832725160139,-9.3319435415611451],[124.98837828632895,-9.3322688821031647],[124.98838435855134,-9.3323075988166124],[124.98842005084475,-9.3325931353648457],[124.98840110482718,-9.3328124251532358],[124.98839147938338,-9.3329238340676284],[124.98837592560858,-9.3330171594143394],[124.98835205040689,-9.3331604214162667],[124.98834235391655,-9.3332185985594265],[124.98833479961138,-9.3332639450749753],[124.98831347128976,-9.3333919770580565],[124.98830961859403,-9.3334150986278246],[124.98824713819488,-9.333689965619385],[124.98822772902656,-9.3337753490530417],[124.98818069718152,-9.3340492240923822],[124.98822408497358,-9.3341359996766187],[124.988240232301,-9.3341682934319579],[124.98824047871517,-9.3341687871597401],[124.9882672821094,-9.3342223984448651],[124.98831190107342,-9.3343116462654052],[124.98831358280563,-9.3343150106292114],[124.98844256357347,-9.3345729721648922],[124.98845899868388,-9.3346058405870167],[124.98849154155141,-9.3346709272214525],[124.98875797919743,-9.3351371933267728],[124.98883273983915,-9.335299174717079],[124.9888347893941,-9.3353036137706908],[124.98899407641557,-9.3356487375991151],[124.98907638506716,-9.3356995214157337],[124.98922510235661,-9.3357768541184782],[124.98943925341882,-9.335913673377263],[124.98956417464706,-9.3360207475594166],[124.98976047956251,-9.3362170542735612],[124.98993894013006,-9.3364371543511311],[124.9900460161108,-9.3366632034440613],[124.990023556442,-9.337046645586156],[124.99024557207554,-9.3374018957808289],[124.99050120166919,-9.3377800930767876],[124.99050181860412,-9.3377810058886439],[124.99054857255862,-9.3378501772438653],[124.99058244102685,-9.3378878093748767],[124.99074068033815,-9.3380636340294245],[124.99074122892466,-9.3380642437697929],[124.99074748101145,-9.3380711910326113],[124.99082119664092,-9.3381530985865879],[124.99095546542242,-9.3384460581390272],[124.99110226985397,-9.3387663696721575],[124.99173146703367,-9.3391073062571195],[124.99264755963725,-9.339916322879958],[124.99331839722629,-9.3404323520713319],[124.99342088396668,-9.3405111884405301],[124.99381349559644,-9.3409156963023179],[124.9940514418206,-9.3415700484189301],[124.99443215541964,-9.3428311623282525],[124.99469709299649,-9.3434539968044419],[124.99475270617256,-9.3435847384448607],[124.99475387529117,-9.3435874858737407],[124.99486501800629,-9.3438487677063904],[124.99486601355579,-9.3438511104403688],[124.99511030179906,-9.3444254013111845],[124.9952813978183,-9.3446688837619263],[124.995282033639,-9.3446697893792248],[124.99541963171066,-9.3448656023655872],[124.99539583744797,-9.3451511371152378],[124.99532040501276,-9.3452796520342645],[124.99532036724122,-9.3452797158861358],[124.99510295163998,-9.3456501268518082],[124.99507461040503,-9.3456984132511138],[124.9948485613121,-9.3465431221673043],[124.994801345106,-9.3469562617220276],[124.99480097188746,-9.3469595271603794],[124.99480097188746,-9.3471263397087796],[124.99480097188746,-9.3471629583038407],[124.99480097188746,-9.347280754203382],[124.99483666418075,-9.3475068032963122],[124.99495563729283,-9.3478637217333471],[124.99500322581832,-9.3481849496756126],[124.9950622600154,-9.3493313487626892],[124.9951228527375,-9.3501795668335035],[124.99533490028546,-9.3506339735789652],[124.99533490028546,-9.3511792550185646],[124.99548347818006,-9.3518551297104295],[124.99542839380535,-9.351980735322627],[124.9952802286997,-9.3523185881322775],[124.99498386521327,-9.3529943710933026],[124.9949400007805,-9.353330666277202],[124.9949222400694,-9.3534668317288379],[124.99491962034426,-9.3534869198853698],[124.99491962034426,-9.353576079572349],[124.99491962034426,-9.3544720642343577],[124.99491962034426,-9.3545862313694101],[124.99486738142457,-9.3549071256632601],[124.99481968228258,-9.355200131980439],[124.99471974512016,-9.3556712652166425],[124.99453712788625,-9.3559725830681941],[124.99414867382234,-9.3566135307897866],[124.99377539581792,-9.3569522469485946],[124.99376320191027,-9.3569633122070286],[124.99367754058608,-9.3571417718752059],[124.99360615689864,-9.3575129679490487],[124.99334203680564,-9.3580340702161493],[124.99319213061244,-9.3585623104022488],[124.99317071595578,-9.3588264295959789],[124.99314527143724,-9.3589258964129272],[124.9930921943494,-9.359133380800813],[124.99299153772938,-9.3595537652939811],[124.9929708407318,-9.3596402063304254],[124.99279007340317,-9.3596508740885156],[124.99262698944403,-9.3596604977337279],[124.99214688097379,-9.3596888308748021],[124.99177080787649,-9.3597110243442785],[124.99127112116537,-9.3599727648311841],[124.990569179624,-9.3604843486737082],[124.9901908995904,-9.3609314079580486],[124.98991482930603,-9.3612576739024576],[124.98969479397965,-9.3612706169453759],[124.98953627228116,-9.3612799411163223],[124.98951031964555,-9.3612814681652026],[124.98902253096514,-9.3615432086521082],[124.98860828164698,-9.3618982798816432],[124.98856448466324,-9.3619358202818148],[124.98804814160849,-9.3623716578256904],[124.98770549900962,-9.3627047820000371],[124.98766939122947,-9.3627673694185205],[124.98765157206242,-9.3627982548355249],[124.98760708170153,-9.362875370801703],[124.98756273073548,-9.3629522457495113],[124.98722008903599,-9.3639135490710146],[124.98707391412995,-9.3649530169681157],[124.98706015899916,-9.3650508281331781],[124.98704876818613,-9.3651318327678155],[124.9873608068558,-9.3655543648420121],[124.9873950962068,-9.3656148514442066],[124.98766742441217,-9.3660952369056076],[124.98779033115886,-9.3663089895681537],[124.98788633378729,-9.3664759514039702],[124.98800887630864,-9.3668935462001741],[124.98799103016199,-9.3673575406179452],[124.98785421090315,-9.3676133329888671],[124.98771144442765,-9.3678512792131414],[124.98725351144049,-9.3682482498567765],[124.98694975912417,-9.3685115659559415],[124.98694460421018,-9.3686069588440546],[124.98697324491934,-9.368979395082988],[124.98697324402008,-9.3693040998043102],[124.98697324402008,-9.3695905986271555],[124.9867131052257,-9.3700512052988643],[124.98669096211825,-9.3700976013232093],[124.98641329193993,-9.3706793826473245],[124.98627052456516,-9.3712647297834337],[124.98625018729638,-9.371452853566268],[124.98625013333708,-9.3714533526900254],[124.98615631066525,-9.3723212110550094],[124.98635618498997,-9.3733348612148006],[124.98650023929463,-9.3739074739507373],[124.98658871010093,-9.3742591457429398],[124.98629474060988,-9.3742733514339989],[124.98633782533045,-9.3744111680409219],[124.98637351582511,-9.3746824269524041],[124.98645203923024,-9.3749251323889098],[124.98660194542356,-9.3751535601886076],[124.9867732662733,-9.3753534354126487],[124.9868517878798,-9.3755818632123464],[124.98693031038556,-9.3758816746994853],[124.98694458712305,-9.3760815499235264],[124.98695149481568,-9.3763985843271485],[124.98713948190164,-9.3765359602663239],[124.98765242012314,-9.3769250852244568],[124.9876915172498,-9.376954744865543],[124.98807222994947,-9.3772973865650897],[124.98833872964872,-9.3776114756889797],[124.98845294444789,-9.3778779762875502],[124.98851956892304,-9.3780873681374715],[124.98858619429745,-9.3782967608867693],[124.98866233719718,-9.378734581435765],[124.98867640709057,-9.3787857456655956],[124.98876703267251,-9.3791152950348078],[124.98891931937112,-9.3795055270583703],[124.98913822874636,-9.3800099729818385],[124.98934762239492,-9.3804192400558577],[124.9895094248202,-9.3806952572802516],[124.98951955838095,-9.3807169723103812],[124.98964267466977,-9.3809807929292219],[124.98971405925647,-9.3811521137789669],[124.98978544204454,-9.3813234346287686],[124.98998531726863,-9.3817422201273075],[124.99024229944268,-9.3819706479270053],[124.99056590609177,-9.3821324521509268],[124.99082288736645,-9.3822752186263756],[124.99128926228968,-9.3825797902250656],[124.99163190398929,-9.3827606303987068],[124.99188888616322,-9.3829319512485085],[124.99204117106331,-9.3831413430984867],[124.99215538586247,-9.3834078427976806],[124.99224104628729,-9.3837219319215706],[124.99227911728747,-9.3838694594080039],[124.99231718918702,-9.3840169850957409],[124.99234098344971,-9.3841978243700623],[124.9923647777124,-9.384378662745064],[124.9923647777124,-9.3848355201430991],[124.99245043903659,-9.3852923757424946],[124.99252664758683,-9.3855679010377457],[124.99257417136096,-9.38573971471601],[124.99271693783646,-9.3861489817900292],[124.99293966573305,-9.386650119107685],[124.99298343843498,-9.3867486056635698],[124.99306909885991,-9.3872244981120616],[124.9931737952345,-9.3876242476608809],[124.9932975266596,-9.3880335147348433],[124.99346884840872,-9.3884427818088625],[124.99378293663324,-9.3889757821066269],[124.99407798980747,-9.3892898712305168],[124.99420862982447,-9.3894616381440414],[124.99459195415545,-9.3899656371044102],[124.99493459585494,-9.3901464763787317],[124.99543904177847,-9.3904034576534059],[124.99563289694072,-9.390546743037703],[124.99565795205285,-9.3905652618772706],[124.99595300522708,-9.3907936896769684],[124.99605294328876,-9.3909126627891055],[124.99621577004177,-9.3909312400846261],[124.99713186264546,-9.3909312400846261],[124.99766724075062,-9.3909907266406663],[124.99798686700035,-9.3910633693789691],[124.9981907226238,-9.3911096997528034],[124.99879748531578,-9.3913952354017738],[124.99955707429956,-9.391837382589074],[124.99959460480727,-9.3918592298195449],[125.00026323276199,-9.3922111534219539],[125.00024538661535,-9.3926037641523408],[125.00025609484294,-9.3929356976242957],[125.00024895692388,-9.3934068317598189],[125.00024895692388,-9.3938565503394784],[125.00024679225567,-9.3939951115850704],[125.00024181810545,-9.394313405938874],[125.00015037503988,-9.394657935315422],[125.00043590978942,-9.3952004522390098],[125.00055012368932,-9.3955906833633094],[125.00062626658894,-9.3960665749124814],[125.00067385601369,-9.3965519857854929],[125.00068337443827,-9.3970278782339278],[125.00067385601369,-9.3974181093582274],[125.00064530163945,-9.3977702703816135],[125.00066433758911,-9.398179536556313],[125.00075951733788,-9.3984936256802598],[125.00101649771329,-9.3988933752290222],[125.00132106931198,-9.3991408389784965],[125.00155901463688,-9.399274088828065],[125.00168949187662,-9.3994408087463057],[125.00173033728527,-9.3994929991025629],[125.00189213971055,-9.3999213021263586],[125.00200635361034,-9.4002353912502485],[125.00212056840962,-9.4006827302237639],[125.00234899620932,-9.4010634438228067],[125.00246915912442,-9.4013465989663132],[125.00265356690863,-9.4017630048587648],[125.00278443805144,-9.4019771568202941],[125.00293315444162,-9.402232949191216],[125.00303982392882,-9.4023996358344561],[125.00332916640798,-9.4024553955999863],[125.00355726595512,-9.4025275832813122],[125.00361871483187,-9.4025470302212284],[125.00402436393335,-9.4027241076313999],[125.00450276189304,-9.4029868742447889],[125.00482161562513,-9.403262740383127],[125.00524403978068,-9.4033450688198172],[125.00570779587815,-9.4034814671958884],[125.00574967640648,-9.4034937852099461],[125.00582538043705,-9.4035193349492943],[125.00622556795565,-9.4036543987314758],[125.00684422777897,-9.4039756257744784],[125.0070048413005,-9.4041392142532914],[125.00716545482192,-9.4043028018327846],[125.00742124719284,-9.4046597211691392],[125.00758780883041,-9.4052129463203755],[125.00773652611986,-9.4055936599194183],[125.00801611185409,-9.4059862706498052],[125.00819457242164,-9.4062182678587192],[125.00855149085862,-9.4065394949017218],[125.00871210527953,-9.4066673910871828],[125.00887271790168,-9.4067952872726437],[125.0090571256859,-9.4069469777207928],[125.00924153526876,-9.4070986690682616],[125.00946306886556,-9.4073755874133553],[125.00950327485634,-9.4074258451266246],[125.00972932394916,-9.4077292260229228],[125.01004460287618,-9.4080504530659255],[125.01068110884614,-9.4085203973983766],[125.01092084292259,-9.408765126309504],[125.01096664359579,-9.4088118811633308],[125.01127002539147,-9.4091985428784142],[125.01152581686301,-9.4094662323806801],[125.01181730062797,-9.4097874603230025],[125.01229914209182,-9.4104953490810317],[125.01260252298812,-9.4110247790702601],[125.01273934224696,-9.4114054926693029],[125.01275124027757,-9.4117326687276091],[125.01282857208105,-9.4121431256047003],[125.0127869316716,-9.4125238401031197],[125.01273339413092,-9.4128450671460655],[125.01257277971013,-9.4132198317298048],[125.01243183436168,-9.4133560961068952],[125.01231368682727,-9.4134703181006785],[125.0123834301512,-9.4136600615625525],[125.01269908319614,-9.414514736765625],[125.01328393660447,-9.415688125406632],[125.0136732504202,-9.4165015981701572],[125.01386517383878,-9.4169026220583305],[125.01386542474961,-9.416903147262417],[125.0141096977045,-9.4170261646257245],[125.01442378682839,-9.4171475173440058],[125.01475929060882,-9.4172831467997185],[125.01504482625774,-9.417383083962136],[125.01535891538174,-9.4175615427309936],[125.01581577098113,-9.417825663723363],[125.01599212083977,-9.417954701148517],[125.01610844544848,-9.4180398147855726],[125.01650819409792,-9.4183467659904068],[125.0167580383528,-9.4186537162959212],[125.01692796525344,-9.4188819039766258],[125.01700788080916,-9.418989220076412],[125.01721833026181,-9.4193228577636319],[125.01730055527651,-9.4194532153935029],[125.01770030392595,-9.4202384368543335],[125.01781451872512,-9.4207024321714812],[125.01799297839329,-9.4212735025700454],[125.01807863881822,-9.4219802033236988],[125.0180838899596,-9.4223425078004652],[125.01843103726264,-9.4224902799024335],[125.0190259019239,-9.4228590963701322],[125.01916783023125,-9.423017401331947],[125.0193352318355,-9.423204117675823],[125.01958507519112,-9.4236324206996187],[125.01978733002136,-9.4241083131481105],[125.01979348408213,-9.4241318088358526],[125.01991820026478,-9.4246079998592336],[125.01993826413968,-9.4249490893289476],[125.01994199542685,-9.4250125077210214],[125.01997768682088,-9.4255121953315211],[125.02007286477101,-9.4259167040925718],[125.02025132533845,-9.4264044927730879],[125.02047737263274,-9.4267376178467543],[125.02086998426239,-9.4270112563643238],[125.02128639015484,-9.4274038670947675],[125.02165520662254,-9.4276894018443613],[125.02176449313686,-9.4281133233711216],[125.02201195688633,-9.4285892149202937],[125.02210951534187,-9.4288461970942876],[125.02213092999853,-9.4291674241372903],[125.02217376111025,-9.4295457581301889],[125.02226655855486,-9.4298455696172709],[125.02237363543497,-9.4302524579845226],[125.02250212607237,-9.4305665471084126],[125.0227234159529,-9.4309163276263916],[125.02293042909605,-9.4314445678124912],[125.02325879495743,-9.4319442554229909],[125.0236157142939,-9.4322369289910171],[125.02411540100502,-9.4326224009030284],[125.02471281434498,-9.432900421816953],[125.02504593762001,-9.4333763142654448],[125.02509716570171,-9.4337928343717863],[125.02515070414177,-9.4341319075614365],[125.02537080421928,-9.4344947750138317],[125.02565633986831,-9.4348576433654898],[125.02580505625838,-9.435149127130444],[125.02584091132906,-9.4352379864438944],[125.02594187461784,-9.435488200320151],[125.02610248903875,-9.435755889822417],[125.0263285372323,-9.4358986571972423],[125.02662597001256,-9.4359165033438899],[125.02679253165013,-9.4359343485912746],[125.02706022205166,-9.4360235793246829],[125.02727437311387,-9.4361366043207795],[125.02745283278205,-9.4362615246495807],[125.02755395974748,-9.4364280880857336],[125.02762162563761,-9.4365403684432181],[125.02759783137492,-9.4366890848333469],[125.02753239580352,-9.4368140060614678],[125.02747457479188,-9.436909541941759],[125.02741746784193,-9.437071345266304],[125.02741175714698,-9.437223631065649],[125.02743840675714,-9.4373816266606809],[125.02746886409682,-9.437514877409626],[125.02753358560653,-9.4376976187500645],[125.02760314456953,-9.4381116387410771],[125.02776732839959,-9.4381830233278379],[125.02790295695593,-9.4382793910809824],[125.02799218679002,-9.4383971752893672],[125.02807784811421,-9.4385577879115203],[125.02812781624584,-9.438732679069858],[125.02814923180165,-9.4388968620005471],[125.02817421586747,-9.4391181509818125],[125.02818849260495,-9.4392966106499898],[125.02822239974398,-9.4393876247390267],[125.02825630688312,-9.4394786397273833],[125.02836338286386,-9.4397106369362973],[125.02850258082947,-9.4399711876201877],[125.02862036503791,-9.440185339581717],[125.02875643606069,-9.4404407641299031],[125.02897094505317,-9.4408282703083728],[125.02925647980271,-9.4412565733321685],[125.02953249702716,-9.4416277694060113],[125.02983706772659,-9.4419989645804776],[125.03017019280026,-9.442379679078897],[125.03070319219864,-9.4427318392029633],[125.03124570912223,-9.4430268923771337],[125.0317882269452,-9.443226766701855],[125.03244495776869,-9.4434456769763528],[125.03289154940558,-9.4436689732444847],[125.03297795716708,-9.4437121766755467],[125.03389167016451,-9.4440262657994936],[125.03472924026232,-9.4443403549233835],[125.03517919896092,-9.444465342701335],[125.03535379424227,-9.444513842239985],[125.03541452456068,-9.4445307108235852],[125.03609980975853,-9.4446829966229302],[125.03674702305671,-9.4449304612717242],[125.03785109285377,-9.4452921389210474],[125.03855541400117,-9.4454824957205687],[125.03908841339967,-9.4457394778945627],[125.03982128712278,-9.4461201905942858],[125.04022103577222,-9.4464342797181757],[125.04041790006613,-9.4466803612096442],[125.04043042942089,-9.4466960211044579],[125.04063982127082,-9.4469577615913636],[125.04076583157791,-9.447145075085075],[125.04099198229426,-9.4474812425652317],[125.0412775170438,-9.4479856893880196],[125.04177244544212,-9.4484710993617114],[125.04225419517502,-9.4489528481953471],[125.04234351584068,-9.4490421688609558],[125.04301928171458,-9.4494133649347987],[125.04377119228673,-9.4495942042091201],[125.04428745889913,-9.4496716439311967],[125.04453262038419,-9.4497084190082887],[125.04528452915781,-9.4498416679585375],[125.04631245605503,-9.4504032208319018],[125.04685943541472,-9.4507639937632462],[125.04698346361602,-9.4508458005931857],[125.04765447207626,-9.4512883812537325],[125.0479101682198,-9.4514639334137769],[125.04829216784935,-9.4517262018027282],[125.04868429474448,-9.4520623099276122],[125.04889179172289,-9.4522401652513963],[125.04939300997944,-9.4527140441177835],[125.04941527359608,-9.452735092750288],[125.04987213009474,-9.4532205027239797],[125.05038609444273,-9.4536488057477186],[125.05082391499172,-9.4539724132961851],[125.05113341037861,-9.4542621532756925],[125.05127125306592,-9.4543911978954043],[125.05158534218981,-9.454809983394],[125.05193750231399,-9.4551716610432663],[125.05227062738766,-9.4555904456424855],[125.0526703760371,-9.4561044099904734],[125.05316530443531,-9.4568658371886158],[125.05343180413456,-9.4573512471623076],[125.05366975035872,-9.4580365323600404],[125.05386962468344,-9.4585219423337321],[125.05405046395776,-9.4590359057824003],[125.05427889175746,-9.4596260121306841],[125.05445021260732,-9.4601019036798562],[125.05464653910656,-9.4604863746464503],[125.05467864130628,-9.4605492426533715],[125.05490707000536,-9.4609680281519104],[125.05513549780505,-9.4612725988513375],[125.0555257289293,-9.4615486169750511],[125.05600162227711,-9.4618055982497253],[125.05637281835095,-9.4618531876744214],[125.05691533527454,-9.4618151157749253],[125.05733411987376,-9.4617294562493726],[125.05777194132213,-9.4616342773999236],[125.0581118248009,-9.461520982607226],[125.05828590387148,-9.4614629556508589],[125.05853864843994,-9.4613751152693339],[125.05859713494988,-9.4613547878931286],[125.05896119220529,-9.4612905421248001],[125.05939663404752,-9.4613190955997197],[125.05973927574701,-9.4613476490746962],[125.06006764160838,-9.4614618629745451],[125.06038172983301,-9.4616260459052342],[125.06086713980676,-9.461940135029181],[125.06126689025484,-9.4621685628288787],[125.06170947001613,-9.4624469596594167],[125.06234478618296,-9.46291809379494],[125.06261604419512,-9.463196490625478],[125.06277308920676,-9.4634534719001522],[125.06297296263222,-9.463767561024099],[125.06313000764385,-9.464045957854637],[125.06324422244302,-9.4643457702410387],[125.0634226821112,-9.4645385066467043],[125.06379387818504,-9.4647098283958258],[125.06402230598474,-9.4648169025779225],[125.06432925629019,-9.4648597336897069],[125.06458623756487,-9.4648740113265148],[125.06478611278897,-9.4648740113265148],[125.06499312593212,-9.4649239785587156],[125.06509033904797,-9.4649688466349176],[125.06517872441862,-9.4650096398829078],[125.06535004526847,-9.4651595460761655],[125.06545712124921,-9.4654022506133515],[125.06544284361246,-9.4655735723624161],[125.0654214289558,-9.4658448312738983],[125.06537859874345,-9.4661160892860607],[125.06533576763161,-9.46633024124759],[125.06532149089412,-9.4665872216229445],[125.06540715221831,-9.4668227891403376],[125.06557847306817,-9.4670155246466834],[125.06589593015315,-9.4671009953146381],[125.06594966914201,-9.4671154627083638],[125.0662280659725,-9.4671440161833402],[125.06655643183387,-9.4671440161833402],[125.06693476582689,-9.4671797075773725],[125.06710042184704,-9.4672059713784051],[125.06721288206893,-9.4672238004379778],[125.06723691375259,-9.4672276099661872],[125.06725950472241,-9.4672311910665599],[125.06733131828582,-9.4672425755843506],[125.06752011296294,-9.4672725068206773],[125.06790558577427,-9.4673296137706302],[125.06838385782885,-9.4673938604382784],[125.06880502203421,-9.4674652441256626],[125.06915480255213,-9.4675294889946713],[125.0695474141819,-9.4678293013811299],[125.06968304363761,-9.4679506540993543],[125.06989719469982,-9.4683860950422059],[125.06983294983081,-9.4686644918727438],[125.06975485720091,-9.4687345058927121],[125.06962593578839,-9.4688500903593535],[125.06932612430126,-9.4689500266223945],[125.06905486628909,-9.4689643042592024],[125.0687693297408,-9.4689000593901937],[125.06846238033461,-9.4688429506416014],[125.06818398260475,-9.4688643670968418],[125.06795555480505,-9.4689500266223945],[125.06771998818692,-9.4690999328155954],[125.06760577428713,-9.4692926701205806],[125.06760577428713,-9.4696138971635833],[125.06769857263112,-9.4699636776815055],[125.06779850979342,-9.4702277977746121],[125.06795555480505,-9.4705383165899661],[125.06799838501752,-9.4707738841074161],[125.06795912421433,-9.4710130201347056],[125.06788060170845,-9.471227171196972],[125.06770928085871,-9.4714734460426371],[125.06753795910959,-9.471648336301655],[125.06735593093151,-9.4718553494447519],[125.06720245532915,-9.472062361688586],[125.06696688871102,-9.4723371900092843],[125.0667705828962,-9.4725299264149498],[125.06665993840545,-9.4726976778554786],[125.06652074043984,-9.4729296759637123],[125.06633514195335,-9.4732401947791232],[125.06624948062904,-9.4734400700031642],[125.066149544366,-9.4736899142581024],[125.06609957533522,-9.4738790812545517],[125.06607815977929,-9.4740147098109446],[125.06608529769835,-9.4742966760506988],[125.06611028266343,-9.4744251666880359],[125.06615668228517,-9.4746143336844852],[125.06622857768673,-9.4747166477550309],[125.06624948062904,-9.4747463937310386],[125.06642794119659,-9.4748641779394234],[125.06662424611216,-9.4748713158584792],[125.06687052095788,-9.4747892248428229],[125.06705254913595,-9.4746857182712461],[125.06720959414747,-9.474567934962181],[125.06739162322492,-9.4744180287689801],[125.06757008199372,-9.4742609837573468],[125.06770571144943,-9.4741396319384421],[125.06780921802101,-9.4740468326951373],[125.06801266175501,-9.4737969893395189],[125.06825536719145,-9.4736042529338533],[125.068590870972,-9.4734043777098123],[125.06890496009589,-9.4732687491534193],[125.06923332505801,-9.4731688119910586],[125.06951172188849,-9.4731688119910586],[125.06976870406254,-9.4732758870724751],[125.06993288699323,-9.4734472088215966],[125.07001140859973,-9.4737612970461669],[125.06992574907417,-9.4740396938767049],[125.06969018155667,-9.4743038139698115],[125.06944747701948,-9.4744465822439565],[125.06929792336052,-9.4745747698097489],[125.0692476017955,-9.4746179030937014],[125.06896206704585,-9.4749534068741923],[125.06878360737767,-9.4753317417664107],[125.06868367021525,-9.4755601695661085],[125.0686265632653,-9.4758100129217269],[125.06861228562855,-9.4760455804391199],[125.06831425929568,-9.4761839060623743],[125.0679954109595,-9.4764361290240799],[125.06781457168518,-9.4766502800862895],[125.0676004197237,-9.4768977438357638],[125.06741482213636,-9.477159485222046],[125.06727205476159,-9.4773641187589988],[125.06715784086168,-9.4775830290334966],[125.0670579028,-9.4778114568331944],[125.06688658195026,-9.4781160284319412],[125.06684375173779,-9.4783349387063822],[125.06685802757602,-9.4785728849306565],[125.0669151363245,-9.4787822767805778],[125.06706742122458,-9.4790059471666837],[125.06728157228679,-9.4791915447539168],[125.06752427772335,-9.4793533480785186],[125.06775746473522,-9.4794580435538478],[125.06802872274739,-9.4794818387158557],[125.06839991882123,-9.479448526028591],[125.06867117773277,-9.4793771432405265],[125.06916610613098,-9.4791201610665325],[125.06929742873342,-9.4790132703461154],[125.06937073876861,-9.4789535994290191],[125.0695474141819,-9.4788366875630459],[125.06989719469982,-9.4789580402812703],[125.07020414500539,-9.4790793929995516],[125.07058961781672,-9.4790865309186074],[125.07090370694061,-9.4791507766869358],[125.07175317506903,-9.4791293611310721],[125.07197139106688,-9.4791626090670889],[125.07245108225175,-9.4792356960704751],[125.07247724802664,-9.4792069132683991],[125.07289603262586,-9.4787881277698602],[125.07310072102155,-9.4786088937853492],[125.07328695263084,-9.478368960059413],[125.07354160376201,-9.4780408801824478],[125.07372804221541,-9.4778337402348711],[125.07389093012239,-9.4776328847497666],[125.07400879077318,-9.4774875534077978],[125.07402663781909,-9.4774692036407941],[125.0740548846253,-9.4774401618339539],[125.07439926741233,-9.4770804617938325],[125.07472619795578,-9.4767389901122669],[125.07517668185847,-9.4761999886385411],[125.07593869721313,-9.4751887873326268],[125.07599509999397,-9.4751152218899506],[125.07608016596691,-9.4750042707304374],[125.07650464956998,-9.4743941148964268],[125.07689960213497,-9.47390884791497],[125.07691037511381,-9.4738956116930808],[125.07698847943482,-9.4737996459368787],[125.07728495173922,-9.4734587821969853],[125.07750064963534,-9.4732107869481865],[125.07766339185207,-9.4729937472635584],[125.07782930687711,-9.4727724753693678],[125.07784621323219,-9.4727462241588682],[125.07836650970671,-9.4720688646863209],[125.07857722715733,-9.4718498222114818],[125.07869039964226,-9.4717321773979961],[125.07874618818607,-9.4716654881717091],[125.07885840019503,-9.4715313488925972],[125.0790361044327,-9.4713189281259815],[125.07942068241857,-9.4707661616290011],[125.0798602143775,-9.4701647058364529],[125.07986026204151,-9.4701646410852618],[125.07986030880625,-9.4701645763340707],[125.07989939963761,-9.4701110828601145],[125.0799579688852,-9.4700463757396278],[125.08071510271986,-9.4692098956201676],[125.0812609318466,-9.4686478795958919],[125.08143229586381,-9.468457566863151],[125.08143234082991,-9.4684575156018127],[125.08143238579601,-9.4684574661391139],[125.08203113462923,-9.4677925047202507],[125.08238648374925,-9.4673582041177724],[125.08271968166798,-9.4669509740081708],[125.08274743204845,-9.4669143644063638],[125.08281119667947,-9.4668429843162016],[125.08338266817566,-9.4662032578739854],[125.08412253772497,-9.4653750200411082],[125.08420125988027,-9.4652868963731294],[125.08446129075605,-9.4649962076088627],[125.08449115184521,-9.4649532721757055],[125.08452116581918,-9.4649101146100634],[125.08477743573019,-9.4646220212891876],[125.08510826033796,-9.4642501138516195],[125.08552508801245,-9.4636865842684301],[125.08570612333904,-9.4634649544440208],[125.08571051023193,-9.4634595827934618],[125.08597886972916,-9.4631624899569147],[125.08603241716241,-9.4631104956528134],[125.08615705690272,-9.4629894738850453],[125.08677961888441,-9.4627250048550309],[125.08718011487042,-9.4625360060318258],[125.08718016613182,-9.4625359808508165],[125.08718020929928,-9.4625359610657256],[125.08718023717825,-9.4625359475758728],[125.08743943168452,-9.4624136307843969],[125.08760351029377,-9.4623090207446694],[125.08780358786532,-9.4620648647016878],[125.08782991282033,-9.4620283063612192],[125.08783014124811,-9.4620279889005019],[125.08769289031466,-9.4607883517010123],[125.08765691383553,-9.4606676995546195],[125.08753510965767,-9.460259204098918],[125.08750574319561,-9.460050133306936],[125.08750579265825,-9.4600499777242248],[125.08750871455561,-9.4600408603973278],[125.0875623986858,-9.4598733167001683],[125.08760195536604,-9.4598017378598911],[125.0876372708434,-9.4597583536650518],[125.08767230483306,-9.4597153166085377],[125.08774661581378,-9.4596327813277412],[125.08781314586008,-9.4595659293241283],[125.08784046996175,-9.4595266739167982],[125.08784690820835,-9.4594970718323452],[125.08784813218563,-9.4594914456736205],[125.08784760788092,-9.4594045522782153],[125.08784758989441,-9.4594015368513737],[125.08784354924046,-9.4593848706152244],[125.08783151001626,-9.4593352190451014],[125.08781835113609,-9.4592626932186477],[125.08781599041572,-9.459249679129357],[125.087802182225,-9.4592186642099136],[125.08777796528091,-9.4591642714139539],[125.08771702002457,-9.4590622046569592],[125.08774949184567,-9.4589517031585046],[125.08779083817672,-9.4588437350502659],[125.08783241563356,-9.4587739899276357],[125.08787759667382,-9.458721597223871],[125.08791917502992,-9.4586518521012408],[125.0879503374382,-9.4585960680540779],[125.08797454089245,-9.4585472762357767],[125.08801268203968,-9.4584879758393754],[125.08803694934579,-9.4584496071635726],[125.08809258770282,-9.458390203345175],[125.08818682226411,-9.4583366658044383],[125.08819611136153,-9.4583313885826783],[125.08839318070079,-9.4583273542239681],[125.08844300404144,-9.4583171523146916],[125.08845676007149,-9.4583143347387022],[125.08856562210588,-9.4582504136256489],[125.08866066515759,-9.4581594570932452],[125.08871042464648,-9.458107183099969],[125.08876017783996,-9.4580549154019877],[125.08896277441261,-9.4576831041918581],[125.08900546612938,-9.4575947583913376],[125.08904819471843,-9.4575063325511337],[125.08913356466235,-9.4573273800544939],[125.08921900924997,-9.4571482710758232],[125.08924533780214,-9.456985409249171],[125.08924515074318,-9.456984232036632],[125.08923343707352,-9.4569104588505297],[125.08922167843775,-9.4568364041766699],[125.08913938957119,-9.4567534336240442],[125.08905680302905,-9.4566701617984563],[125.08886036591321,-9.4565538219013092],[125.08869600941341,-9.4564734467920744],[125.0885274278985,-9.4564473331778345],[125.08817699177484,-9.4564584568922214],[125.08790854414406,-9.4564781313606545],[125.08778563559872,-9.4564811234050694],[125.08766277291875,-9.456484112751582],[125.08734824492558,-9.456452020444317],[125.08734750028702,-9.4564519440019694],[125.08724365107366,-9.4564278502650154],[125.08708411943667,-9.4563926418069286],[125.08695189841148,-9.456357270571516],[125.08682884057862,-9.4563466954435853],[125.08670596261015,-9.4563361347048271],[125.0866881974024,-9.4563303718491625],[125.08662386709784,-9.4563095057790179],[125.08659520570427,-9.4562884283682251],[125.08658728897228,-9.4562826061572878],[125.0865688618635,-9.4562398685750395],[125.0865503574131,-9.4561969529269732],[125.08652705328097,-9.4561177694194498],[125.08650388494641,-9.4560390445661824],[125.08647142301777,-9.4559398070763905],[125.08644830144806,-9.4558700700476379],[125.08642506026843,-9.4557999750887234],[125.08633770372217,-9.4556558677240901],[125.08622764289146,-9.4555209352429301],[125.08619333555407,-9.455497768707005],[125.08612480541547,-9.4554514922924682],[125.08596967685912,-9.4553846393895356],[125.08581446466587,-9.4553177487150606],[125.08560004110905,-9.4552557170776481],[125.08538583159088,-9.455193746594091],[125.08521701805103,-9.4551134416319655],[125.08504801655283,-9.4550330476370164],[125.08494275810187,-9.4549477604307413],[125.08483760037507,-9.4548625541634692],[125.08474584884186,-9.4546386976177814],[125.0847452031287,-9.4546371229048418],[125.08477179158501,-9.4545148762604754],[125.08479835486025,-9.4543927501252938],[125.08491315961464,-9.4541819076688398],[125.08507800804375,-9.4539662493428978],[125.08543844912515,-9.4535798079617166],[125.08561847631165,-9.4533867936655724],[125.08586296510384,-9.4531684022998661],[125.08592156672694,-9.4530731434107906],[125.08596667582151,-9.453005080919695],[125.08596773072622,-9.4530031078071488],[125.085998185368,-9.4529461393527754],[125.08600224580709,-9.4528647632981233],[125.08600209741894,-9.4528630608814979],[125.08597292071374,-9.4525304879915666],[125.085972907224,-9.4525282270959678],[125.08597251242156,-9.4524626970957684],[125.08598475129531,-9.452416299272727],[125.08602645285862,-9.4523493870145785],[125.08604897907719,-9.4523209018880721],[125.08606146436512,-9.4523051133901959],[125.08613740941394,-9.4522144761171489],[125.08621987095034,-9.4521160606076364],[125.08640111132229,-9.4520058334024384],[125.08650393261041,-9.4519994266321987],[125.08657938483077,-9.4519947267751832],[125.08660976123156,-9.4519987809189843],[125.08672929102397,-9.4520147330933924],[125.0870113031292,-9.452034922873338],[125.08708917182787,-9.4520361819241998],[125.08712044575202,-9.4520366873431954],[125.08719036983973,-9.4520261023226908],[125.08721367577061,-9.4520225742823527],[125.08725451938062,-9.4520019932973014],[125.08729988658058,-9.4519768662393631],[125.08730288132301,-9.4519740252810038],[125.08734062137262,-9.4519382070825486],[125.08736916675366,-9.4518872218177989],[125.08739348622044,-9.4514576894208062],[125.08738748864175,-9.451406878624482],[125.08732289303714,-9.4512626372608679],[125.08730689679589,-9.4512391199893386],[125.08725859600747,-9.4511681077219691],[125.08718458809835,-9.4510860652696351],[125.08712819431082,-9.4509671596067051],[125.08697354059643,-9.4506975059850902],[125.08694707175005,-9.4506602749517015],[125.08692074679504,-9.4506232462657636],[125.08671039896581,-9.4504179975924671],[125.0864994953555,-9.4502122066280094],[125.08642990761416,-9.4501613238859363],[125.08636298816145,-9.450136480114395],[125.08634423190085,-9.4501295166638215],[125.08604496989949,-9.4500827591119787],[125.08574509186258,-9.4500359044333777],[125.08546477857669,-9.4499742936786788],[125.0852676831571,-9.4499788577380741],[125.08507109405582,-9.4499834101062561],[125.0849572317909,-9.4499727873142092],[125.08490026333652,-9.4499584413289313],[125.08484326160726,-9.449944086350456],[125.08478391714414,-9.4499184439809483],[125.08472460325788,-9.4498928151012933],[125.08468781738895,-9.449884670840845],[125.08463950580858,-9.4498739761030492],[125.0842827312631,-9.4498366830164855],[125.08401528098045,-9.4498326198794302],[125.08387518639086,-9.449811983136442],[125.08374978222673,-9.4497743096366094],[125.08369085235097,-9.449722923274237],[125.08368800689607,-9.449720442044736],[125.08368611921912,-9.4497187261382578],[125.08363097908648,-9.4496686240077565],[125.08361187658693,-9.449607444927608],[125.0836099070716,-9.4496011361834462],[125.08359580839988,-9.4495168706070558],[125.08359102040936,-9.4494882577768067],[125.08359101681208,-9.449487131825606],[125.08358952483673,-9.4488633305782059],[125.0835895167429,-9.4488600453547633],[125.08356462440793,-9.4486832979957853],[125.08353958998021,-9.4485055532886122],[125.08348115742956,-9.4482505433278448],[125.08336889775649,-9.4477569468255638],[125.0833144276188,-9.447618215608145],[125.08329960409355,-9.4475804611693093],[125.08328694433703,-9.4475474659427618],[125.08323601932693,-9.4474147439951821],[125.08317255596876,-9.4472693631905145],[125.08311050994212,-9.447170300169148],[125.08302270733213,-9.4470873440056948],[125.08289130828734,-9.4470518297780472],[125.08283588666689,-9.4470401718663766],[125.08261443221033,-9.4469935869844335],[125.08250440285599,-9.4469626170310903],[125.08242178933415,-9.4469393632609808],[125.08216617323035,-9.4468211087071268],[125.08167306775795,-9.4465709326024125],[125.08133273012152,-9.4463673081047546],[125.08128196069401,-9.446319249233909],[125.08128191662718,-9.4463190972484767],[125.08127297916474,-9.4462883539243307],[125.08124287166129,-9.4461847960914156],[125.08124292112393,-9.4461838562998537],[125.08125204834346,-9.4460073481605491],[125.08135979611779,-9.444621455116021],[125.08136532155243,-9.4443743807730129],[125.08135797678926,-9.4443186533831067],[125.08128856171777,-9.4441292408717459],[125.08115763121975,-9.4439288953022356],[125.08099887929495,-9.4437133359016912],[125.08087185814975,-9.4435408621210399],[125.0806182916009,-9.4431795747775027],[125.08060887030319,-9.4431736401513149],[125.0805520403444,-9.4431378444359098],[125.08048138870515,-9.4431216296594584],[125.08011959414398,-9.443095918042161],[125.07939531434238,-9.4430444444454906],[125.07927821541739,-9.4430104671592971],[125.07921976308171,-9.4429935068448003],[125.07903946969589,-9.4429109598728473],[125.07899665567118,-9.4428945049774029],[125.07896419194401,-9.4428820277832983],[125.07876149914398,-9.4427303292412716],[125.07872615039162,-9.4426574562765495],[125.07871447539276,-9.4426144479983236],[125.07870315562616,-9.4425727518309941],[125.07870287593698,-9.4425717212079121],[125.07870696695306,-9.4424948633472354],[125.0787340491371,-9.442429655304295],[125.07873613286631,-9.4424246370872993],[125.07898782792597,-9.4418898363468315],[125.07909746877328,-9.441709976434197],[125.07915234990105,-9.4416199471028222],[125.07935331690214,-9.4413498006527448],[125.07955422095063,-9.4410797387388925],[125.07975684720077,-9.4407790144398973],[125.07996685508635,-9.4404673328011199],[125.08009057931679,-9.4401952447147437],[125.08016930596875,-9.440043406777761],[125.08024806859351,-9.4398914995929886],[125.08045543696892,-9.4395558240419746],[125.0806670312586,-9.4391658869960224],[125.08072100317179,-9.4390593766888173],[125.08077499487013,-9.4389528268114873],[125.08085583942557,-9.4387715648558128],[125.08087184196199,-9.438653985692838],[125.08087196876636,-9.4386530557938499],[125.08079785743519,-9.4382114778773598],[125.08068769318254,-9.4372991723188875],[125.08065507207402,-9.437172815772783],[125.08062197342542,-9.4371183699167887],[125.0804578363601,-9.4369208850907285],[125.08024726999554,-9.4367232680643269],[125.08017186184202,-9.4366627472879259],[125.08009633587722,-9.4366021311833492],[125.07997730520856,-9.436496576855518],[125.07985837976048,-9.436391116956429],[125.07979666288577,-9.4363350487234925],[125.07973481021338,-9.4362788581827317],[125.0794891550006,-9.4359376787808174],[125.0791903498548,-9.4355512266077994],[125.07877362919965,-9.4350122709994366],[125.07873446642259,-9.4349334103485489],[125.07871375233788,-9.4348861950418268],[125.07869293393185,-9.4348387432133904],[125.07866513678664,-9.4347575551170166],[125.07867614988447,-9.4346964749623226],[125.07867644486214,-9.4346947140897441],[125.07867769042309,-9.4346872802937014],[125.0786871360026,-9.4346308757142765],[125.07871624885581,-9.4345721913534817],[125.07871861767012,-9.4345674150541186],[125.07875706638561,-9.4345287810783134],[125.07883399169543,-9.4344514843484717],[125.07928897760428,-9.4341250358417028],[125.08063781408396,-9.4331572574014331],[125.08076686859613,-9.4330457639508154],[125.08084761512544,-9.4329554720173974],[125.0809669848386,-9.4328219901426564],[125.08108282021601,-9.4327490461315051],[125.08116079233673,-9.4326999449464779],[125.08130780900819,-9.4325476690396499],[125.08138685132224,-9.4324455105518155],[125.08141385976194,-9.4323933525711254],[125.08144084571848,-9.432341241355175],[125.08144606718236,-9.4323102192411739],[125.08146111104145,-9.4322208329250543],[125.08147413862071,-9.4319958738104788],[125.0814750892041,-9.4319794710756923],[125.0814779436522,-9.4317007675763307],[125.08147795984007,-9.431699238728811],[125.08147264934337,-9.4315727221033967],[125.08146267855977,-9.431428154285868],[125.08143910822832,-9.4312927046944992],[125.08142516424004,-9.4312364916706883],[125.08141112132625,-9.4311798811465337],[125.08140556801266,-9.4311629666975136],[125.08137805595254,-9.431079166969937],[125.08125428315873,-9.4308328003933752],[125.08121513027413,-9.4307405920046676],[125.08117579572649,-9.4306479600352873],[125.08112039209243,-9.4305373128466385],[125.08106523217475,-9.4304271539899105],[125.08098281830246,-9.4303462878508526],[125.08092616281226,-9.430318993426738],[125.08091822539586,-9.4303151686100932],[125.0808596102828,-9.4303224863936066],[125.08074834795798,-9.4303363746239484],[125.08038777917272,-9.4303061151350676],[125.08024101790875,-9.4303176273565441],[125.07971624730703,-9.4303587902259665],[125.07966647073113,-9.4303645953497721],[125.07960696888654,-9.4303715336193363],[125.07949745124643,-9.4303429558626704],[125.07942362589972,-9.4303236923844338],[125.079324726555,-9.4302683615955516],[125.07928210678381,-9.4302057103251968],[125.07926764928266,-9.4301428917809744],[125.07925310814448,-9.4300660959735296],[125.07926681201377,-9.4300031110547025],[125.0792672850572,-9.430001184706839],[125.07928055815125,-9.4299471147674581],[125.07927301463803,-9.4298632880602327],[125.0793145039612,-9.4297372363843124],[125.07943268207271,-9.4294849243897261],[125.07948394073139,-9.4293563141425238],[125.07957396106951,-9.4291999876892305],[125.07966413159443,-9.4290433977345742],[125.07972953299156,-9.4289230180827985],[125.07976032667784,-9.4288663374114776],[125.07979468977317,-9.4288030880919678],[125.07999322230944,-9.4285126601311049],[125.08011726939651,-9.4283425821444098],[125.08024152242842,-9.4281722226699003],[125.08037923201596,-9.4279655836447205],[125.08051669698807,-9.427759314240916],[125.08063812435,-9.4275145376657292],[125.0806738858912,-9.4274058572944455],[125.08068228465982,-9.4272882979165615],[125.08068213627166,-9.4272879525768758],[125.08066378290732,-9.427245382268552],[125.08064535759729,-9.4272026428876075],[125.08058527838796,-9.4271091673541605],[125.0803985359637,-9.4270304928629116],[125.08037116060063,-9.4270189599569676],[125.08017978307055,-9.4269839340612407],[125.07989049904734,-9.4269743355970377],[125.07960161162509,-9.4269647506226875],[125.07925357399336,-9.4269916637342703],[125.07909432744134,-9.4269926044250951],[125.07893497207135,-9.4269935451159768],[125.07883021004625,-9.4269851220656733],[125.07872549658441,-9.4269767026127056],[125.07858417531952,-9.4269278460432133],[125.07844271106228,-9.426878940910342],[125.07839803723971,-9.426817359833251],[125.07826916708848,-9.4266397221454099],[125.07822148323487,-9.4264192470505463],[125.07821980420067,-9.4261390416833706],[125.07824998005265,-9.4260582340002657],[125.07831083267888,-9.4258952777448144],[125.07937691061602,-9.4247853704484328],[125.07944121034359,-9.4247014079435871],[125.0795739107075,-9.4245281256723956],[125.07960447596588,-9.4244766412839454],[125.07960765596863,-9.424471284022502],[125.07966451560492,-9.4243755026272993],[125.07967716367023,-9.4243541976880465],[125.07969352773421,-9.4243266325680111],[125.08003524762864,-9.4237510142978067],[125.08022028763628,-9.4234893007905498],[125.08031281888157,-9.4233584287484291],[125.08032436078065,-9.4233399467810841],[125.08039666717252,-9.4232241671615498],[125.08058432780456,-9.4228000630724296],[125.08061402701583,-9.4227329457687574],[125.08071248029682,-9.4224521486477215],[125.08073914069882,-9.422345825399475],[125.08076582358399,-9.4222394131183478],[125.08082808185054,-9.4219949872787652],[125.08099789363791,-9.4214697112581121],[125.08099795299324,-9.4214695277964324],[125.08103499966558,-9.4213541672609722],[125.08100130836374,-9.421279867072144],[125.08097138342271,-9.4212101732108522],[125.08094130110021,-9.4211401142248405],[125.08093007306445,-9.4211242609758301],[125.08082654221118,-9.4209780860697947],[125.08078583260021,-9.4209341667783519],[125.08075347679153,-9.4209378423075236],[125.08068837756662,-9.4209418191096006],[125.08067157913013,-9.4209428452360839],[125.08027149143629,-9.4210175213414686],[125.08014634088102,-9.4210205187818588],[125.07991653711861,-9.4210286549484294],[125.07983910279245,-9.4210223309157755],[125.07976170893573,-9.421016011379777],[125.07969733996038,-9.4210057483165883],[125.07959769687625,-9.4209898608933145],[125.07953618594627,-9.4209789251372626],[125.07928779679446,-9.4209238956212289],[125.07916008766801,-9.4208794529243391],[125.07904611118909,-9.4208441671245851],[125.07896933786469,-9.4207858415932719],[125.07894549683726,-9.4207677301465651],[125.07872584102483,-9.4205701625828624],[125.07867319201421,-9.4205050435728594],[125.07862037483051,-9.4204397168194305],[125.07860400986726,-9.420409426753622],[125.07854638940444,-9.4203027779507806],[125.07844111386635,-9.4201470000839436],[125.07842478577527,-9.4201198774303521],[125.0783353787748,-9.4199713588910754],[125.07831004217473,-9.4199136044292686],[125.07830077016445,-9.4198924703611624],[125.07823386959751,-9.419741457102532],[125.0781597501724,-9.419524953413827],[125.07815108520447,-9.4194643004370846],[125.07813362306831,-9.4193420627859155],[125.07813315092426,-9.4193340417326112],[125.07811940029012,-9.4191001577460156],[125.07811844341154,-9.4188757310301412],[125.07809749999967,-9.4186902782337256],[125.07797006786438,-9.4184319299895378],[125.07792039471053,-9.4182266786182822],[125.07794545881598,-9.4179991222616195],[125.07797012092442,-9.4178786751606935],[125.07799517243927,-9.4177596471899392],[125.07800773956558,-9.4176999286087835],[125.07807027032675,-9.4175006972993174],[125.07810663081648,-9.417435131326215],[125.07812388880643,-9.4174040102868162],[125.07816708324435,-9.4173261218030575],[125.07825340557031,-9.4172030486816993],[125.07847083286276,-9.4168930559696946],[125.07884153970531,-9.4164037807098566],[125.07898877581147,-9.4162094534034964],[125.08000194393458,-9.4152205561836695],[125.08054620374435,-9.4147033821553237],[125.08079891503792,-9.4144632469811995],[125.08084867003015,-9.4144087021998075],[125.0808983944454,-9.4143541897939826],[125.08094696323178,-9.4142776386020728],[125.0809838516235,-9.4142194983311356],[125.08099711572436,-9.4141185881023262],[125.08101476312083,-9.4140188442941621],[125.08103233587372,-9.4139195177714896],[125.08108484189199,-9.4135666786592651],[125.08109720037555,-9.4133645146606],[125.08110957504687,-9.413162061080186],[125.0811097153412,-9.4131597678089634],[125.08107894323871,-9.4127560333641895],[125.08106014471002,-9.4124821205533635],[125.08103195276249,-9.4123200968949163],[125.08100358184993,-9.4121570426133871],[125.0809661358785,-9.4119942869067472],[125.08092881491291,-9.4118320725920057],[125.08086396210228,-9.4116426331009961],[125.08078339094084,-9.4115176812958907],[125.08072382524438,-9.4114253029353563],[125.08043144035878,-9.4108587741130805],[125.08032589142681,-9.4107282204309968],[125.08022051516468,-9.4105978807875204],[125.08009693392637,-9.4104676328748837],[125.07997318001833,-9.4103372023999441],[125.07978836933785,-9.4101657340613087],[125.0794463679556,-9.4099352962768421],[125.07903151789026,-9.4096557743944231],[125.07900825962349,-9.4096159452196275],[125.07898893589072,-9.4095828519670022],[125.0789663332298,-9.4095257432184098],[125.07893930500495,-9.4094574549974936],[125.0788291470476,-9.4087009785672535],[125.07878834120902,-9.408055062091421],[125.07875480009398,-9.4075241500194693],[125.07867753933704,-9.407306759599237],[125.07843194977477,-9.4068119544081128],[125.0781900573254,-9.4065011289239351],[125.07799856558142,-9.406255069016197],[125.07777652027028,-9.4059603027257594],[125.07749616561557,-9.4055881308875087],[125.07733942907146,-9.4052546020182035],[125.07727923025232,-9.4050965353767424],[125.07721921039831,-9.4049389372821111],[125.07720021042144,-9.4047992356961458],[125.0771811286063,-9.4046589450542228],[125.07715480275203,-9.4040083494057285],[125.07715085922484,-9.4039108772851137],[125.0771277412523,-9.4033395316939732],[125.07710781137644,-9.4030503942602195],[125.07701322787818,-9.4024543622789452],[125.0770132575559,-9.402450191223295],[125.07701328273686,-9.4024466658808592],[125.07701611110474,-9.4020472221015439],[125.07702552161061,-9.4018201450836045],[125.07711166497143,-9.3997416616483065],[125.07711396004129,-9.3996862876919636],[125.07710405490832,-9.3989732871874025],[125.07710399915027,-9.398973071350099],[125.07702868002957,-9.3986837738370355],[125.07698022275918,-9.398344093604976],[125.0769766416588,-9.3983189872314483],[125.07697653374009,-9.398318230901566],[125.07702385067023,-9.398064042021872],[125.0774517705828,-9.3975011599505365],[125.07846187111852,-9.3961724817745562],[125.07896878837892,-9.3956528588922765],[125.07957580737764,-9.3951893923764942],[125.07997570801263,-9.3948346233191842],[125.08023023503733,-9.3943512251289008],[125.08023028000343,-9.3943500290305906],[125.0802504706827,-9.3938073727120468],[125.08025060917828,-9.3938036684045301],[125.0801723870461,-9.3931581827039281],[125.08010383082717,-9.3925924632715123],[125.08008461771101,-9.392491188817246],[125.08006960892533,-9.3924120745575692],[125.08000057966308,-9.3920687970373251],[125.07977402335257,-9.3913892144406645],[125.07954643821756,-9.3907065480686924],[125.07952981874621,-9.3906613373507639],[125.07945111098002,-9.3904472222614572],[125.07934654590645,-9.3902067039761619],[125.0793247022732,-9.3901564597527454],[125.0792040204492,-9.3899370431599891],[125.07892666683222,-9.3894327780002413],[125.07849699593964,-9.3888645764390048],[125.07829595969088,-9.3885987242516649],[125.07818151736319,-9.3884954011418245],[125.07806717306164,-9.3883921670648078],[125.07797916720483,-9.3883252781889723],[125.07721377669452,-9.3878862732328798],[125.07704641196244,-9.3877902768996933],[125.07700751628386,-9.3877611001945525],[125.07696869614847,-9.3877319792474054],[125.07693210992898,-9.3876938300061852],[125.07689542298544,-9.3876555764436489],[125.07684719324345,-9.3875947409045466],[125.07679912627873,-9.3875341122094369],[125.07664527835698,-9.3871325001646824],[125.07625506342049,-9.3863531665653568],[125.07613106309816,-9.3861260832520657],[125.07600659512832,-9.3858981437842885],[125.07596852143013,-9.3858426637079333],[125.07577777792221,-9.3855647219343155],[125.07558899133892,-9.3853175648536649],[125.07545896376018,-9.3852393229363429],[125.07532864659981,-9.3851609056512189],[125.07523714417891,-9.3850800898741795],[125.07522537025466,-9.3850233741293891],[125.07521388231487,-9.3849680316492936],[125.07521371683958,-9.3849672366486061],[125.0752266167151,-9.38484061210454],[125.07530305639102,-9.3846969436090149],[125.07537443108515,-9.3844420172852097],[125.07538078479547,-9.3843531255962489],[125.07538703508362,-9.3842656782184122],[125.07538697842642,-9.3842640603380687],[125.07538694784944,-9.3842632068814282],[125.0753833325748,-9.3841599997841172],[125.07528565091218,-9.384053851004353],[125.07517562335636,-9.3839189077313563],[125.07512297614448,-9.383858261049852],[125.07507022640993,-9.3837974956578591],[125.07498778106128,-9.3837233285686921],[125.07490550568457,-9.3836493152636535],[125.07473642414675,-9.3835327973006883],[125.07464294861325,-9.3834949484330537],[125.07454938044964,-9.383457059995294],[125.07435336781373,-9.3834039739141986],[125.07426227188637,-9.383398425097198],[125.07394611072448,-9.3833791670148798],[125.07385247601098,-9.383372208060905],[125.07383435017516,-9.3833708608764823],[125.07332301274687,-9.3831770740626439],[125.0728126106136,-9.3829836415817454],[125.07267138917337,-9.3829438888493542],[125.07254449213463,-9.3829309521017308],[125.07250279956463,-9.382926701905717],[125.07243727406103,-9.3829301723894787],[125.07197361059377,-9.3829547220827294],[125.07177039978421,-9.3829807088925463],[125.07159296804116,-9.3829907866954159],[125.07141542927866,-9.3829827881251049],[125.07124228010719,-9.3829476453175289],[125.0711693208076,-9.382909699323136],[125.07109619423409,-9.3828716660944451],[125.07102989441421,-9.3828335887990306],[125.07096376186814,-9.3827956077310546],[125.07090668909245,-9.3827530572077649],[125.07084947961982,-9.3827104041617986],[125.07084312680888,-9.3827023723166008],[125.07071777840281,-9.3825438892890247],[125.07012450104492,-9.3817503194216556],[125.06965310340809,-9.3810859389648726],[125.06964270814456,-9.3810712881094105],[125.06960475315691,-9.3810032975640638],[125.06917833331352,-9.3802394439950945],[125.06915462178847,-9.3802108833255602],[125.06908646666716,-9.3801128886988181],[125.06902254015813,-9.3800771046745695],[125.06879906492497,-9.3799970587172652],[125.06870711374233,-9.3799724038033219],[125.06845263618027,-9.3799041713403994],[125.06837511012327,-9.3798775073410638],[125.06835222957181,-9.3798600326143742],[125.06807722228609,-9.3796500004471],[125.06782104140802,-9.3793625420476587],[125.06780764061023,-9.3793475062823291],[125.06769346538124,-9.3791425049226405],[125.06758684265867,-9.3789510671380185],[125.06758440010003,-9.3789411674009102],[125.06749111072622,-9.378563056439873],[125.06741266286417,-9.3783262316702007],[125.06739223206591,-9.3782323613343692],[125.06733060332476,-9.3779492025935838],[125.0673307400217,-9.377947627880701],[125.06739833306665,-9.3771722216206967],[125.06735639678038,-9.3765411826294098],[125.06726472168964,-9.3759930557349094],[125.06702695892704,-9.375363318961945],[125.06701935695787,-9.3753431849399931],[125.06698443358482,-9.375170567267844],[125.06698419526447,-9.3751693837600101],[125.06699244114827,-9.3750247071245099],[125.06700973421198,-9.3748709383430651],[125.06704228787135,-9.3747042022370692],[125.06705472009935,-9.3746405239409683],[125.06710690865702,-9.3743732103553157],[125.06712861109656,-9.3742250002835021],[125.06704521066797,-9.3740145211531853],[125.06704332029301,-9.3740097502497406],[125.06699478927817,-9.3738990922692551],[125.06694644172501,-9.3737888533728437],[125.06688681307605,-9.3736922023332454],[125.06682697128781,-9.3735952050546416],[125.06673983057874,-9.3734984299085795],[125.06665289131797,-9.3734018768950591],[125.06617291774603,-9.373043105854606],[125.06568944401272,-9.3728011108825058],[125.06511895817346,-9.3725882503474054],[125.06498912215034,-9.3725461090156728],[125.06485905500142,-9.3725038921408554],[125.06475860432624,-9.3724660198908509],[125.06465836589098,-9.3724282276805297],[125.06441343373308,-9.3723742899414901],[125.06430631638341,-9.3723728816031553],[125.06423479599914,-9.3723719418115934],[125.06422172435316,-9.3723709156851669],[125.06415694438749,-9.3723658327169801],[125.06374213928837,-9.3723691638058426],[125.06349767297934,-9.372369458783453],[125.06325291618919,-9.372369754660383],[125.06308672327373,-9.3723718536780325],[125.06292072101451,-9.3723739499977228],[125.06245995965946,-9.3723777640225308],[125.06229405632575,-9.3723945390766517],[125.06212793895327,-9.3724113348151832],[125.06200514372244,-9.3724323960382208],[125.06188243572592,-9.3724534419727092],[125.06143233313571,-9.3725283770829151],[125.06130955139474,-9.3725403893274688],[125.0611867237883,-9.3725524051693014],[125.06115479066113,-9.3725503304333415],[125.06101722226708,-9.3725413893735663],[125.06089035130879,-9.3725005025960968],[125.06086438788122,-9.37249213620305],[125.06076759115149,-9.3724133142230244],[125.06070319159903,-9.3723608738552002],[125.06063229264623,-9.3722852993270749],[125.06059671276819,-9.3722473722183963],[125.06053683860432,-9.372155930052088],[125.06047731157878,-9.372065020284424],[125.06043485458497,-9.3719852522175415],[125.06039217635794,-9.3719050668652812],[125.06036398800768,-9.3718633239332121],[125.06027969455238,-9.371738494435931],[125.06023155923913,-9.3716699256265201],[125.06018331510802,-9.371601204831677],[125.06017498468782,-9.371591349161406],[125.06008462800321,-9.3714844368572017],[125.05994535539389,-9.3713788663415585],[125.05977169181017,-9.3712555845775114],[125.05955478342662,-9.3711302964259744],[125.05939848575156,-9.3710577598077407],[125.05922523585605,-9.3710045316337869],[125.05915657261778,-9.3709869076196242],[125.05907027007697,-9.3709647564183456],[125.05901100295546,-9.3709470217875719],[125.05898273276694,-9.3709326542185636],[125.05892765288888,-9.370904660121937],[125.05886810607831,-9.3708557540897459],[125.05883737984129,-9.3708305191130989],[125.05875043608387,-9.3707496709604925],[125.05872511297366,-9.3707053199944994],[125.05867456208148,-9.3706167817390451],[125.05859381825019,-9.3704296849819571],[125.05858055774661,-9.3703541491246369],[125.05855379212392,-9.3702016735683173],[125.05855159957673,-9.3700925111604079],[125.05855061302043,-9.3700433569153461],[125.05855057075235,-9.3700412444078438],[125.05856782964167,-9.3699485692710027],[125.05858806708568,-9.3698399005908755],[125.05870015408891,-9.3695453429431836],[125.05881214396538,-9.3692510416022401],[125.0588942421756,-9.3688957698238937],[125.05904138924882,-9.3680116670047937],[125.05894650357834,-9.3677248723049615],[125.05893978564268,-9.3676998126961735],[125.05891960575525,-9.3676245430381755],[125.05890099428552,-9.367555120772181],[125.05882552228013,-9.3672736077907075],[125.05874249057354,-9.3670842654264561],[125.05865977902567,-9.3669491548795349],[125.05865202866823,-9.366942157254698],[125.05848820816436,-9.3667942232747237],[125.05831661032335,-9.3666347716772975],[125.05816145119013,-9.3665385873858327],[125.05800601596491,-9.366442230424525],[125.05783456921006,-9.3663414173225306],[125.05766351366026,-9.3662408344468986],[125.05704280518137,-9.3659371001170371],[125.05624694384142,-9.3653466673147818],[125.05538347057075,-9.364689092027902],[125.05529664012795,-9.3646229657771869],[125.05519606084954,-9.3645579627797133],[125.05509563805333,-9.3644930614055966],[125.05500892632097,-9.3644416210839267],[125.05497873428124,-9.364423711085351],[125.05492210037471,-9.3643901151116893],[125.05478973276001,-9.3643433836401755],[125.05465760076777,-9.3642967349063611],[125.05457154643977,-9.3642692947920523],[125.05440001784666,-9.364214601622507],[125.05424256903939,-9.3641931941605208],[125.0541602900654,-9.3641820065942625],[125.0538569568331,-9.3641400703079398],[125.05360265014224,-9.364122124336518],[125.05343130231279,-9.3640794218277961],[125.05332804755142,-9.3639780646359441],[125.05329085428957,-9.3639316119542855],[125.05327387778732,-9.3639104086383895],[125.05317536964765,-9.3637847490668946],[125.0531426532109,-9.3637259972569495],[125.05305679493517,-9.3635718156867256],[125.05299564912991,-9.363389985359504],[125.05296796979599,-9.3633076758085281],[125.05291663919161,-9.3630910282283253],[125.05289726779472,-9.3628922735595097],[125.05282614221278,-9.3624045604220782],[125.0527650719506,-9.3621256788569553],[125.0527045601674,-9.3618493423732048],[125.0526467409544,-9.3616538108745999],[125.05258848467088,-9.3614568008906076],[125.05255154861516,-9.36136662137244],[125.05247810098365,-9.3612585741238377],[125.05236593304141,-9.3611439708175794],[125.05218992312655,-9.3610071398675814],[125.05187235182768,-9.360855158039044],[125.05183085890712,-9.3608344475516674],[125.05182027838316,-9.3608291667326284],[125.05167567819001,-9.3607631466018688],[125.05129094821871,-9.3605874910198281],[125.05116078304377,-9.3605316871875743],[125.05103089665863,-9.3604760029651288],[125.05093729072348,-9.3604065600146669],[125.05084349683,-9.3603369767700428],[125.05074287888078,-9.3602516850671691],[125.05071528318388,-9.3602021279257883],[125.0505625513207,-9.3598320928767293],[125.0505375519665,-9.3597715253355886],[125.05016804122215,-9.3588426039029855],[125.05016514000931,-9.3588276589692327],[125.05014319205475,-9.3587145908056755],[125.05008205704132,-9.3583996509231042],[125.05007212672729,-9.3580177466216696],[125.05017611083895,-9.3577261108712833],[125.05046512416618,-9.3570246558631425],[125.05047203095955,-9.3570078916008583],[125.05059939744433,-9.3567361920215717],[125.05060513062233,-9.3567259316563991],[125.05076640874279,-9.3564373571982173],[125.05098544492239,-9.356243663913915],[125.051126667262,-9.3561700004451041],[125.05123682162207,-9.3560138754399418],[125.05136296772685,-9.3557962008339359],[125.05145704670542,-9.35554255424546],[125.05153080190507,-9.3553789612699916],[125.0515605559749,-9.3552644442985979],[125.05154280695501,-9.3551733438746965],[125.05150892499694,-9.3550767252106652],[125.05134189930925,-9.3546250272231646],[125.05131965457849,-9.3544824298202229],[125.0513085623403,-9.3544113177280792],[125.05128901827368,-9.3543355669328321],[125.05126166359491,-9.3542295467561303],[125.05121540426751,-9.3541569957487241],[125.05115555708335,-9.3541118317955352],[125.0507800010962,-9.3541595129511279],[125.05058798684615,-9.3542425437583461],[125.05047394022017,-9.354334224245008],[125.05000045975351,-9.3548785398127166],[125.04986952026218,-9.3550265358459228],[125.04985475699152,-9.3550432209678434],[125.04978185165123,-9.355116459956605],[125.04971913023371,-9.3551380733633209],[125.04965060009522,-9.3551616868622887],[125.04958191527328,-9.3551451780074899],[125.04950691271392,-9.3551271510971219],[125.04944550970254,-9.3550725388665228],[125.04921204210211,-9.3548648908020482],[125.04911858095784,-9.3546754117408],[125.04897539359956,-9.3543701890329771],[125.04888111856883,-9.3539247260452498],[125.0488375437177,-9.3535032012117085],[125.04883739173226,-9.3535017272228629],[125.04885728563534,-9.3532694656133231],[125.04886742279336,-9.3531511211272687],[125.04892083083178,-9.3530381716742568],[125.04933240196885,-9.3521677601339661],[125.04939004311609,-9.3520408738871765],[125.0494282777928,-9.351956706336864],[125.04948708176346,-9.3517295951446613],[125.04960391718714,-9.351144088828562],[125.04966223282588,-9.3508334351149074],[125.04969202196935,-9.3507342830606603],[125.04968711886545,-9.3506796987090866],[125.04968709458376,-9.3506796789239957],[125.0494430131846,-9.3504763098337662],[125.04932291681916,-9.3503937871435028],[125.04931196757332,-9.3503359355549378],[125.04929834194502,-9.350263935831947],[125.04929809732937,-9.3502626408081824],[125.04931412594624,-9.350214285161087],[125.04933568269564,-9.3501492506873092],[125.04941764690693,-9.3500577563603429],[125.04946195470552,-9.3499968470767953],[125.04951260901976,-9.3499272143694157],[125.04954754318464,-9.3498091612637495],[125.04954798834899,-9.3498076566979762],[125.04950247725753,-9.3495986947239089],[125.04947848064739,-9.3494885187800492],[125.04945845274551,-9.3493838745661151],[125.04941184358177,-9.349140350746552],[125.04941178872309,-9.349140064762139],[125.04943451638985,-9.3489131622126251],[125.04951259912718,-9.3487028071887721],[125.04957659128672,-9.3485304116491079],[125.04961475042046,-9.348394893709326],[125.04964728069751,-9.3482793614033426],[125.04966807662049,-9.3481478166683587],[125.04967214695205,-9.348122076272773],[125.04967213256293,-9.3481216239137552],[125.04966652439066,-9.3479446157513735],[125.0496978136033,-9.3478678990842354],[125.04972978360274,-9.3477895141746785],[125.04984073386288,-9.347620718621215],[125.04990695184438,-9.347519976565593],[125.04995846680981,-9.3474710993117469],[125.04998899609541,-9.3474421339472542],[125.05040019581247,-9.3472213072175236],[125.05040031722092,-9.3472211255544266],[125.05058950490184,-9.3469371646183959],[125.05064507221232,-9.3467738873050052],[125.05065312743989,-9.3466130390604576],[125.05065327942532,-9.3466100002512462],[125.05062037772836,-9.3464262552674313],[125.05058671790277,-9.3462382681814802],[125.05058723501293,-9.3462372177733073],[125.05069266163707,-9.3460228616656877],[125.05074993226367,-9.3459064219437664],[125.05074999071951,-9.3459063014346384],[125.050753988206,-9.3458061529315728],[125.05072956621655,-9.3455771045996698],[125.05070549316406,-9.3453513244040778],[125.05070579173901,-9.3453498639050281],[125.0507273547837,-9.3452445101260082],[125.05074559483342,-9.3451553963044489],[125.05079089278559,-9.3450641133181307],[125.05099986555138,-9.3449110621957061],[125.05100606457825,-9.3449083192634816],[125.05118367798445,-9.344829738301712],[125.05120624826975,-9.3447704450999254],[125.051205991963,-9.3447669350459819],[125.05119628198293,-9.3446339693821301],[125.05111815967541,-9.3445004173603365],[125.05096617155164,-9.3443738647620194],[125.05081381200785,-9.3441835987940181],[125.05076021691059,-9.3441159877625637],[125.05065220743347,-9.3439797341773669],[125.05056441021941,-9.3438573607285775],[125.05051330264689,-9.3437393274080023],[125.0504626977953,-9.343665008333403],[125.05043848264995,-9.3434848984093151],[125.05040787242547,-9.3433759437447748],[125.05039635570733,-9.3433349562432113],[125.05039636919719,-9.3433343483014824],[125.05039997367987,-9.3431714226230156],[125.05039998087443,-9.343171096169101],[125.05056383825058,-9.3429767301918787],[125.05071608178184,-9.3428814056522924],[125.05078759497155,-9.3428366293069303],[125.05097891224705,-9.3426352755974449],[125.05106690101672,-9.3425560210434924],[125.05111112697693,-9.3425161846741389],[125.05112878786338,-9.3424757538529093],[125.05116992105502,-9.3423815894387303],[125.05120996966446,-9.3421765602000733],[125.05120877086813,-9.341971766583697],[125.05117583679555,-9.3418263228264777],[125.05115446620573,-9.3417653254093693],[125.05112454576124,-9.3416799230899414],[125.05104575435814,-9.3415267019956332],[125.05100204460871,-9.3414381160761764],[125.0509808179105,-9.3413950961067371],[125.05093450912034,-9.3413134430609261],[125.05087911268095,-9.3412454965823599],[125.05081025878644,-9.3412203092698292],[125.05080562457999,-9.3412186140477615],[125.05072297058871,-9.3411917845731409],[125.0506814039237,-9.3411374115622721],[125.05068577372958,-9.34110097822753],[125.05068622159195,-9.3411006598674931],[125.05076336633635,-9.3410459172352489],[125.05080024933216,-9.3409891259473739],[125.05080775597321,-9.3409775678604205],[125.0508548103013,-9.3407982673261358],[125.05086553111948,-9.3405952651593225],[125.05087433278425,-9.3404286045963545],[125.0508753688033,-9.3402013827875408],[125.05077007078216,-9.339842116220666],[125.05075598290239,-9.3397524025513121],[125.0507557904474,-9.3397511767753372],[125.05080566415018,-9.3396607994063174],[125.05086916707842,-9.3395457239559505],[125.05091484094726,-9.3394753852807639],[125.05101451820553,-9.3393218809000587],[125.05101570531065,-9.3393165820945683],[125.05105025006901,-9.3391623870344915],[125.05104520127509,-9.3390827736510573],[125.05104488021709,-9.3390823761507136],[125.05088823360518,-9.3388879831938425],[125.0508392538286,-9.3388030898906322],[125.05082807435622,-9.3387837112991861],[125.05082804198059,-9.3387836564405688],[125.05081823757166,-9.338674485938725],[125.05083419424273,-9.3386177863816897],[125.05084517676357,-9.3385787576035568],[125.05103518642477,-9.3381544097981077],[125.05112540821108,-9.3379081295564674],[125.05112947224745,-9.3378955273566362],[125.05117381601883,-9.3377579958348065],[125.05120201336229,-9.3376846849002391],[125.05127343392189,-9.3374077512666531],[125.05127371720835,-9.3374066540937406],[125.05126377880038,-9.3372747298448644],[125.05126371764652,-9.3372746605970747],[125.05124377607945,-9.3372522351025395],[125.05119458496222,-9.3371969160048138],[125.05102804131116,-9.3370335370680095],[125.05098896307027,-9.3369952016671505],[125.05080293920435,-9.3368427620837338],[125.05075204656976,-9.3367611369168912],[125.05074693302458,-9.3366701453109044],[125.0507532597552,-9.3366501120129897],[125.05085492721321,-9.3363281897940738],[125.05090323699483,-9.3359683746407427],[125.05095205309487,-9.3356950284027675],[125.05095196496131,-9.3356945445675592],[125.05088593673668,-9.3353327293219763],[125.05080190138665,-9.3351990990591389],[125.05051988568425,-9.3347506548188335],[125.0504238057141,-9.3346662903169886],[125.05032540099648,-9.3345798843541274],[125.05024406990799,-9.3344401458959965],[125.05025016731145,-9.3343792402097279],[125.05025929902752,-9.3342880093840677],[125.05031453898482,-9.3340876269423916],[125.05058361074509,-9.3334922811438332],[125.05066259010653,-9.3333421177445075],[125.05069065255168,-9.3332887627661307],[125.05076830811095,-9.3331327070087582],[125.05092048419306,-9.3329717778252643],[125.05093640399195,-9.3329646417047911],[125.05113750319333,-9.3328744945622475],[125.05129782983101,-9.3327295238483998],[125.05140142093887,-9.3325288626168685],[125.05141580559507,-9.3322326861894567],[125.05146043804882,-9.3320825425752219],[125.05162418390898,-9.3320348937952531],[125.05178881110476,-9.3319869878092163],[125.05187385819204,-9.3319212752466001],[125.05194444328151,-9.3318667367604462],[125.05212148921544,-9.3316364257804025],[125.05213414357593,-9.3316145929390473],[125.05223318411424,-9.3314437199516647],[125.05225858276742,-9.3313223924144495],[125.05227745414129,-9.3312322443725293],[125.05227727157887,-9.3312306192975711],[125.05225207707178,-9.3310056197135509],[125.05217880660666,-9.3308150767543339],[125.05211642063637,-9.3307350775617124],[125.05192884723863,-9.3304945493839],[125.05163473385596,-9.3303169332797893],[125.05156195532004,-9.3302099346407203],[125.0515262792145,-9.3301568485596817],[125.05149139810965,-9.3301049477850597],[125.05149127220454,-9.3301032579589673],[125.05146516488549,-9.3297529882098047],[125.05143744418274,-9.3294825989427181],[125.05143757278586,-9.3294799243589637],[125.05144637984665,-9.3292969509934665],[125.0514145690272,-9.3292532637270824],[125.05136514138826,-9.3291853837984036],[125.05128046662026,-9.3291634844072178],[125.05124407825167,-9.3291540721027104],[125.05122871693186,-9.3291190417103849],[125.05119507329402,-9.3290423178486321],[125.05119552925032,-9.3290396954255357],[125.05121836933233,-9.3289082747970156],[125.05123368658542,-9.3288201421357826],[125.05123405530742,-9.3288180233330422],[125.05120344688169,-9.3287403452906688],[125.0511931550401,-9.3287142262804537],[125.05105840512135,-9.3286383136072573],[125.05086974264452,-9.3285320308285122],[125.05061168488146,-9.3285124076214743],[125.05056590399329,-9.3285089272451387],[125.05053394928234,-9.3284920874398267],[125.05040908740955,-9.3284262831464275],[125.05038645686955,-9.328402555433513],[125.05034491808351,-9.3283590012668469],[125.05032196558625,-9.3282700286388831],[125.05030369136227,-9.3281991872426602],[125.05021420702008,-9.3280556572427145],[125.05009026065704,-9.3279624227275804],[125.0499713792758,-9.3278729977405987],[125.04980978998992,-9.3278019063328657],[125.04970229672369,-9.3277634666106337],[125.0495675243219,-9.3277152728415444],[125.04940645934073,-9.3276562647247943],[125.0493964148128,-9.327649889430802],[125.04932511835955,-9.3276046337468301],[125.04929208985811,-9.3274687812591992],[125.0492923839364,-9.3274680087415618],[125.04930056686771,-9.327446508649416],[125.04933177514135,-9.3273645183577969],[125.04933808568421,-9.3273539009617252],[125.04939799132433,-9.327253130127815],[125.04946894333716,-9.3272403750432318],[125.0495739292935,-9.3272215027701009],[125.04964698392121,-9.3271111451631441],[125.04969253278421,-9.3270423380334364],[125.04969206693545,-9.3270408163805314],[125.04964915488461,-9.3269008063271031],[125.04962504765786,-9.3268221507216253],[125.04957152540567,-9.326769613227043],[125.04953589156821,-9.3267346367940149],[125.04938231614108,-9.3266554946553129],[125.04926078985363,-9.3265307856671598],[125.04920395719694,-9.3264724637331824],[125.04918195258506,-9.3263664120802332],[125.04917078930055,-9.3263126038435189],[125.04912886290674,-9.3260327564065619],[125.0490927848042,-9.3253622380767638],[125.04909270476458,-9.3253607487994827],[125.04907355639955,-9.3252714488182846],[125.04904300103374,-9.3251289602332577],[125.04879998982778,-9.3249142902622566],[125.04861355227365,-9.324887090266941],[125.04848422166958,-9.324862586439167],[125.04808202866275,-9.3247863832849021],[125.04793609207707,-9.3246351748733787],[125.04790903957053,-9.3245769716498899],[125.04785448129928,-9.3244595867404882],[125.04785453435932,-9.3244568537007808],[125.04785827643832,-9.3242649401748281],[125.04786088537162,-9.3241310958733266],[125.04784909256159,-9.3239969152253934],[125.04784334319584,-9.323931482352009],[125.04781105483642,-9.3239127854466233],[125.04766545279847,-9.3238284722061735],[125.04751681375001,-9.323850587434606],[125.0473961472145,-9.3238685397013228],[125.04695135691964,-9.3240000205844353],[125.04694924171417,-9.3240006456132392],[125.0469449051833,-9.3240037230933126],[125.04681281006322,-9.3240974621281225],[125.04678375476658,-9.32406894102877],[125.04675607633192,-9.3240417698117994],[125.04669294482358,-9.3239028848102521],[125.0466254632945,-9.3237544292234702],[125.04658599474794,-9.3236356377744301],[125.04653523611228,-9.3234828600458854],[125.04616997376536,-9.3232440657610027],[125.04587999366686,-9.3230544877743569],[125.04568650183069,-9.3230395950012621],[125.04549347584327,-9.3231047248031587],[125.04530822899164,-9.3231217948348899],[125.04504225809376,-9.3231153197161802],[125.04487266124443,-9.3230522754421372],[125.04474514996878,-9.3229898759819321],[125.04467870086137,-9.3229573582954117],[125.04463407560218,-9.3229372152802057],[125.04457366274437,-9.3229099460371572],[125.04454763906233,-9.3228567025747111],[125.04448394997439,-9.322726400702777],[125.04436200460293,-9.322543043326732],[125.04421644213517,-9.3224558495577412],[125.04418044677027,-9.3223468112562955],[125.04414261409045,-9.3222322016547423],[125.04413152185236,-9.3221446931230503],[125.04411727389311,-9.3220322832632405],[125.04400349706384,-9.3219653773002733],[125.04395554880955,-9.3219371808561391],[125.04390761944114,-9.322009479154076],[125.04385104219193,-9.3220223061844081],[125.04376275484731,-9.3220423205965517],[125.04360969383242,-9.3220512023011111],[125.04324674544102,-9.3219972681593504],[125.04314962585465,-9.3219258017343236],[125.04314945498345,-9.3219254545959984],[125.0431354228615,-9.3218969379932446],[125.04304361107381,-9.3217103412591769],[125.04294372787081,-9.3216146830711182],[125.04271135924193,-9.3213921440321883],[125.0425013315712,-9.3213053198845728],[125.0424948879288,-9.3213050177123478],[125.04220536918251,-9.3212914550366008],[125.04179215678266,-9.3213013862499565],[125.04151002326898,-9.3212869988958573],[125.04141397567446,-9.3212558167025463],[125.04138891606567,-9.3212476814352954],[125.04135504310079,-9.321241764795559],[125.04130018085868,-9.3212321843178074],[125.04119505191022,-9.3211687668251102],[125.04118371595575,-9.3211619292795831],[125.04108992206227,-9.3211053484330364],[125.0410498932381,-9.3210879546453498],[125.04101721097561,-9.3210737552495857],[125.04096727342096,-9.3210650336243361],[125.04092847666789,-9.3210582581320409],[125.04081199287918,-9.321041853598615],[125.04061452963685,-9.321116076445719],[125.04030279403878,-9.321181773719843],[125.04023029339339,-9.3211922040568993],[125.03995440027541,-9.3212318956354352],[125.03959676957527,-9.3213613953121239],[125.03954683921529,-9.3214023000760449],[125.03949376482547,-9.3214457795990029],[125.03929094342232,-9.3216676171667245],[125.0391408906396,-9.3218317380442386],[125.03913913336442,-9.3218336607947663],[125.03910456342487,-9.3218860885720574],[125.0390969191875,-9.3218955746210099],[125.03908622714778,-9.3219088450171625],[125.03908597713621,-9.3219091561825849],[125.03901931039297,-9.3220670663420151],[125.03901162658531,-9.3220852641235865],[125.03893570491891,-9.3222303391587502],[125.03879675156884,-9.3223238713495107],[125.03867890530728,-9.3222969483454676],[125.03858695412464,-9.3222479532803959],[125.0385263685971,-9.3222156712162132],[125.03851285898133,-9.3222084721432452],[125.03850216334422,-9.3222034620201271],[125.03839957587979,-9.3222027299719912],[125.0383525692157,-9.3222451177179551],[125.03832370007876,-9.3222711503932487],[125.03830863733378,-9.3224512477268604],[125.03832063878656,-9.3225921139348884],[125.03832053986105,-9.3225923081884048],[125.03804951297468,-9.3231257662410485],[125.03798146037616,-9.3231634937002354],[125.03795739991415,-9.323176833344121],[125.03778704043964,-9.3231694166352099],[125.0377382809969,-9.3231672951345104],[125.03765279234256,-9.323161784988315],[125.03753455307719,-9.323154163233994],[125.03749638495026,-9.3231509877278427],[125.03728915507054,-9.3232027311211141],[125.03719573079843,-9.3232280497346665],[125.03708940035563,-9.3232568667110058],[125.03702325342044,-9.3232815036384409],[125.0369629619712,-9.3233039597099037],[125.03683789685147,-9.32333018843741],[125.03670318830154,-9.3233584388408417],[125.03639649430283,-9.3234411395968664],[125.03637691786048,-9.3234464186172659],[125.03633418117761,-9.3234565818557371],[125.0361771235755,-9.3234939298009749],[125.03614357076924,-9.3235010263512663],[125.03598395999177,-9.3235347797062786],[125.03584342473437,-9.3235293217207982],[125.03562233270452,-9.3235207358932257],[125.03547230060622,-9.3235356232703452],[125.03532215699204,-9.3235962753477679],[125.03513589570514,-9.3236571315713377],[125.03489531986315,-9.3236943841884568],[125.03467273316016,-9.323719573299627],[125.03452220913266,-9.3237144543585373],[125.03433577427666,-9.3237454162179461],[125.03424596527918,-9.3238296386268757],[125.03413795760071,-9.3238900487866658],[125.0340179115974,-9.3238204790318377],[125.03384402498182,-9.3236794662343527],[125.03361725103537,-9.3235013842814283],[125.03339834795543,-9.323383048788628],[125.03324703612191,-9.3232419055894411],[125.03305797074881,-9.3230785563302447],[125.03288438900336,-9.3229898588948004],[125.03270328083181,-9.322901203727497],[125.03253709421165,-9.3227900421267123],[125.03235598693936,-9.3227013869594089],[125.03220528034944,-9.3226648771822624],[125.03203541730068,-9.3225686838976003],[125.0319746591033,-9.3224718682820367],[125.03186114307732,-9.3223604036097072],[125.03171791794762,-9.3223163772989324],[125.03153745998588,-9.3223398298192706],[125.03138679656342,-9.3223107934083487],[125.03117550714398,-9.3222073623797996],[125.03100936279191,-9.3221036732458629],[125.03083599688387,-9.3220523426414275],[125.0306851176241,-9.3219859367015943],[125.03054907178227,-9.3218820757971343],[125.03045445500914,-9.3217854517371848],[125.03028009535024,-9.3215622238175229],[125.03012117435276,-9.321406175254765],[125.02996951807881,-9.3212052388306574],[125.02983282472519,-9.3209892702385559],[125.02966607692792,-9.3207809458838824],[125.02959697482061,-9.3205421677867548],[125.0294767039868,-9.3201005601926568],[125.02947639372064,-9.3200940401077901],[125.02941111103405,-9.3187194443468115],[125.02886963822334,-9.3172765900425247],[125.02882952935931,-9.3171021809208696],[125.0287674437626,-9.3168322170331521],[125.02856111140625,-9.3166305557555233],[125.02846647215006,-9.3164713757533377],[125.02841700763884,-9.3164151042735739],[125.02836624180873,-9.3163573507111437],[125.02736876055997,-9.3152225717642523],[125.02708870897675,-9.3149039734395842],[125.02708601820518,-9.3148998068805327],[125.02656944402463,-9.3141000002148076],[125.02636626379206,-9.3140157391350158],[125.02636327714356,-9.3140144998692449],[125.02490000013495,-9.3135194437672908],[125.02453423686563,-9.3133812710287884],[125.02448158335847,-9.3133613798237889],[125.02401781107324,-9.313236357871574],[125.02399425423152,-9.3132050308874454],[125.02338888908605,-9.3124000000598812],[125.02244744459392,-9.3109693000930633],[125.02238725476809,-9.3108778309471063],[125.02238055571809,-9.3108388894031577],[125.02226807121463,-9.3107631089303027],[125.02211334465517,-9.3106546506915038],[125.02194971300889,-9.310528750101696],[125.02151793410542,-9.3100742057599177],[125.02081944416204,-9.3093388885787931],[125.02021564923291,-9.3084463015555343],[125.01971249383655,-9.3078161483965118],[125.01949263927395,-9.3075408002676454],[125.01911111088907,-9.3071805561377232],[125.01820120382251,-9.3066252508546086],[125.01817972621348,-9.3066121432357818],[125.01792644025306,-9.3063089916665831],[125.01760450184634,-9.3059236744379632],[125.01728888927084,-9.305369443844711],[125.01710053256363,-9.3053204829539027],[125.01667349128866,-9.3049090656008389],[125.01666646488547,-9.3049032101150146],[125.01591944392726,-9.3042805564024889],[125.0159152117177,-9.3041826598018815],[125.015915025558,-9.3041783457539964],[125.01495845356988,-9.3033187773396548],[125.01495640581356,-9.3033181693979259],[125.0146611107217,-9.3032305556455981],[125.01404891162804,-9.3025422649135407],[125.0138681119239,-9.3023389938494461],[125.01382449480468,-9.3023026351584122],[125.01379716081044,-9.3022818248463182],[125.01340851429154,-9.3019859397992377]]]},"properties":{"OBJECTID":429,"nama_kawasan":"Kawasan Perbatasan Kecamatan Perbatasan Prioritas Kec. Kobalima Timur -  Kab. Malaka","delineasi_asal":"Kobalima Timur","Shape_Length":0.52666254193906215,"Shape_Area":0.0092072600688862666}}]}