{"type":"FeatureCollection","features":[{"type":"Feature","id":435,"geometry":{"type":"MultiPolygon","coordinates":[[[[121.99464209285838,-10.4861739861405],[121.9946897371417,-10.486072682907945],[121.99486338004101,-10.485661326708794],[121.99568354735788,-10.483666769805552],[121.99601830380175,-10.482967203373676],[121.99620199842354,-10.48259454770016],[121.99655038139508,-10.481959861957989],[121.99698728013891,-10.481389682787608],[121.99796769585259,-10.480266834246947],[121.99860724962491,-10.479447277569761],[121.99972213017224,-10.478085149110314],[122.00000000000011,-10.477666359115119],[122.00000036872211,-10.477665803334105],[122.00000718378453,-10.47765552857976],[122.00015189369503,-10.477437370138489],[122.00041420705008,-10.477090952185677],[122.00074048018905,-10.476682949558437],[122.00116238273779,-10.476156924402517],[122.00257418704916,-10.474421303000668],[122.00284941736675,-10.474019028155567],[122.00311129185275,-10.47364688959226],[122.00336664895178,-10.473367499010806],[122.00381711576733,-10.473002858095356],[122.00438346022861,-10.472513365199575],[122.00590441705526,-10.470873315650977],[122.00619256973141,-10.470411951750123],[122.00659581224704,-10.469591341966805],[122.00692437505995,-10.468758024762963],[122.00726968055142,-10.467881496933501],[122.00743296505937,-10.467432317947043],[122.00783956024759,-10.46614008119974],[122.00806452475808,-10.465193328009661],[122.00822785693015,-10.464080265891539],[122.00821002067596,-10.463459971100747],[122.00814720393043,-10.462969065370032],[122.00801921871209,-10.462094219272728],[122.00796106135397,-10.461517996658188],[122.00790082836056,-10.4613034849678],[122.00781653490526,-10.460855303329538],[122.00723727528009,-10.458688234874103],[122.00693611121267,-10.457469642709782],[122.00661636175573,-10.45635932712122],[122.0064737850372,-10.455705955265557],[122.006191295392,-10.454215295699271],[122.00586796663345,-10.453040314358987],[122.00552419718406,-10.452748299994028],[122.00545363367826,-10.452617624903439],[122.00524647574434,-10.452150919029634],[122.00502320106,-10.452012915363696],[122.00478436360754,-10.451823263632662],[122.00472549758376,-10.451679818169055],[122.00457872282982,-10.451224422169275],[122.00372522483929,-10.449123202973396],[122.00353217996621,-10.448568199862507],[122.0032131526649,-10.447750106382273],[122.00251698117381,-10.449408840245724],[122.00213031855947,-10.450152421297162],[122.00138673660865,-10.45101497636],[122.00094332857179,-10.45139393088516],[122.00043495261104,-10.451699070855398],[121.99986983032852,-10.452055990191752],[121.99933445222325,-10.452442652806155],[121.99894778960891,-10.452978030911368],[121.9981744643801,-10.454375964978738],[121.99689550432413,-10.457201574592943],[121.9964094135637,-10.458441683037222],[121.99576526065835,-10.45943232044516],[121.99514065181972,-10.460384104442824],[121.99475398920526,-10.460859995991996],[121.99406989470992,-10.461395374996528],[121.99317759636904,-10.462019982935828],[121.99249350097432,-10.462763564886586],[121.99161999756495,-10.465021549404923],[121.9915601108105,-10.465278786986403],[121.99156491678752,-10.465696844933404],[121.99157086580283,-10.465869355586221],[121.99151732736289,-10.466089456563111],[121.99145189269075,-10.466190584427864],[121.99114851089507,-10.466309556640681],[121.99054769721852,-10.466690270239724],[121.99041087795968,-10.466725963432395],[121.99030082792092,-10.4667467827378],[121.99016160207634,-10.466795158169987],[121.99008370190143,-10.466868729907901],[121.98990524313251,-10.467055120697239],[121.98959591322091,-10.467174093809319],[121.98919140356054,-10.467281169790112],[121.98889397167954,-10.467364450608841],[121.98865602455589,-10.46740014290225],[121.98832290128098,-10.467483423720978],[121.98807305792536,-10.467614293964459],[121.98789459825718,-10.467852240188677],[121.98776015860449,-10.468150862772063],[121.98766973896738,-10.468293630146889],[121.98758407944183,-10.468426879996457],[121.98733661479298,-10.468721933170627],[121.98688927581952,-10.46929776278148],[121.98681789213208,-10.469392941630929],[121.98646155555639,-10.469591566797305],[121.98633068621223,-10.469695667820758],[121.98619684101152,-10.469838436094903],[121.98612545822334,-10.469924690971652],[121.98597079281785,-10.470260790103339],[121.98573182316522,-10.470803404153742],[121.9856435807867,-10.470991653841679],[121.98558647383675,-10.471220081641434],[121.98552936598753,-10.471419956865475],[121.98552936598753,-10.471619831190196],[121.98554364272502,-10.471805429676806],[121.9855721962,-10.472019580739016],[121.98558647383675,-10.472176624851329],[121.98558647383675,-10.472419330287835],[121.98558647383675,-10.472576374400091],[121.98555791856313,-10.472719142674237],[121.98522955539977,-10.473018954161375],[121.98504395601378,-10.473233106122905],[121.98488369412723,-10.473348850668856],[121.9847713346295,-10.473458513099843],[121.98462992972759,-10.473818453258957],[121.98435867171543,-10.474275309757672],[121.98420162670379,-10.474617952356596],[121.98408741280389,-10.474803549943829],[121.98394464542912,-10.475131915805207],[121.98385898500419,-10.475288959917521],[121.98367338741696,-10.475560218829003],[121.98350206566784,-10.475745816416236],[121.98335929829307,-10.476045628802694],[121.98327363696887,-10.476302610976688],[121.98314514633148,-10.476773744212892],[121.98308803938153,-10.477059278962486],[121.98291671943116,-10.477387644823921],[121.98273112004517,-10.477573242411154],[121.98241703092128,-10.477901608272532],[121.98224571007154,-10.478072929122334],[121.98208866595928,-10.478229974133967],[121.9819030665733,-10.478401294983712],[121.98173174662293,-10.478658277157706],[121.981646086198,-10.478943811907357],[121.9814462109739,-10.479657650580066],[121.98143193423641,-10.47991463275406],[121.98138910402395,-10.480100230341293],[121.98128916686164,-10.480300104666071],[121.9812177831742,-10.480442872940159],[121.98118922969923,-10.480542810102577],[121.98116067622425,-10.481071050288676],[121.98111980563453,-10.481335030986827],[121.98109289791898,-10.481471025567316],[121.98097094984951,-10.481658408308874],[121.98085197673743,-10.481756561216287],[121.98062798619264,-10.481890934319097],[121.98059860803937,-10.481914958808261],[121.98065588496115,-10.481973698926993],[121.98106945978782,-10.482350118263298],[121.98118938528194,-10.482496693367636],[121.98125791272253,-10.482599484978209],[121.98135791643472,-10.482807253551869],[121.98145434983849,-10.48301450321668],[121.98153361788218,-10.483120963161866],[121.98163771980501,-10.483150706439915],[121.98175669201783,-10.483201269922631],[121.98238130085645,-10.483561163317006],[121.98257165765597,-10.483712853765155],[121.98275876070829,-10.483942081961459],[121.98279254194233,-10.483988304416641],[121.98287123442003,-10.483997174429987],[121.98302059832201,-10.484057008124353],[121.98303002771365,-10.484064162231277],[121.98313164570891,-10.484171833563209],[121.98320422009874,-10.484240837644506],[121.98324348090193,-10.484297946393042],[121.98325537803328,-10.484339585903115],[121.98325775763942,-10.48439788265614],[121.98324824011422,-10.484477594964972],[121.98323277357372,-10.484540650930228],[121.98323277357372,-10.484562065586829],[121.98324467070506,-10.484584670945765],[121.98326251685171,-10.484619173436045],[121.98332676172072,-10.484675089683606],[121.9834171822572,-10.484720300401477],[121.98353972387918,-10.484754801992494],[121.98360634925371,-10.484747664073382],[121.9836515590722,-10.484740525255006],[121.98370271700685,-10.48471197178003],[121.9837534729445,-10.484670909634701],[121.98388569396968,-10.484582916368424],[121.9839933041477,-10.484578024056532],[121.98407378807497,-10.484582976623017],[121.9841817759683,-10.484609042573197],[121.98425791796865,-10.484651873684982],[121.98428092622385,-10.484707212567741],[121.98428330582999,-10.48474290486115],[121.98427735681457,-10.484766699123838],[121.98427735681457,-10.484791684088918],[121.98429163355206,-10.48482142736691],[121.98433406086826,-10.484846989696791],[121.98437451237396,-10.484858886828135],[121.98443202222006,-10.484849979942567],[121.98451252143582,-10.484827952847695],[121.98469461616367,-10.484792288433312],[121.9848531873248,-10.484789303583455],[121.9850648346744,-10.484706823161332],[121.98511452401613,-10.484694703897446],[121.98575213885022,-10.484662126855596],[121.98621613326804,-10.48455505087486],[121.98631411530425,-10.484548683674745],[121.98665038530714,-10.484662126855596],[121.98692997194075,-10.484769202836389],[121.98726309611504,-10.484941712589944],[121.98751293857129,-10.485203453976169],[121.98847662059961,-10.485494938640443],[121.98942840459722,-10.485661500277956],[121.98982101712625,-10.485715038718013],[121.99035044711547,-10.485822113799486],[121.99080254440196,-10.485822113799486],[121.99102264358021,-10.485804268552101],[121.99309872402694,-10.48567339830862],[121.99343779721664,-10.485762628142709],[121.99450927108603,-10.486132559769771],[121.99464209285838,-10.4861739861405]]],[[[121.98279254194233,-10.483988304416641],[121.98255791061911,-10.483918445979441],[121.98219206820943,-10.48379649880934],[121.98206782507009,-10.483803532407023],[121.98198981427856,-10.483861934380741],[121.98194519891183,-10.483918445979441],[121.98185596907774,-10.484067162369627],[121.98173383484868,-10.484439101283442],[121.98135344500554,-10.485376836072078],[121.98121351499174,-10.485673297584583],[121.98098746589892,-10.485952885117513],[121.98091608221148,-10.486036165936241],[121.98071129758841,-10.486191998661752],[121.98016655214474,-10.486488264122045],[121.97973230010564,-10.486767850755655],[121.9792920999505,-10.487243743204147],[121.97899704677639,-10.487657768591077],[121.97877575689574,-10.488021826745864],[121.97850449888358,-10.488614312700349],[121.97839473932584,-10.488784791784667],[121.9780471900259,-10.489419625914934],[121.97774069207935,-10.490134788389753],[121.97697688437574,-10.491819446110526],[121.9761440680943,-10.49390148636445],[121.97595109876431,-10.49424849337322],[121.97570625294134,-10.494624830871203],[121.9747030825813,-10.495870597849773],[121.97383793657161,-10.496549900757259],[121.97367895172226,-10.49666640882765],[121.97351183340447,-10.49681263769304],[121.97341371197331,-10.496922628376524],[121.97310074340464,-10.49740166215696],[121.97260819461258,-10.498286821679415],[121.97221558298281,-10.49921481141439],[121.9722061859668,-10.499247274242293],[121.97190702468947,-10.500287318604819],[121.97188620538418,-10.500498495609065],[121.97190405063145,-10.500599622574498],[121.97203652526548,-10.500980739969123],[121.97210850790134,-10.501263527289893],[121.97210079531555,-10.501306910585413],[121.97206811485171,-10.501755208236204],[121.97203712331464,-10.501863151163434],[121.97189434334928,-10.502005932028112],[121.97179157602045,-10.502064448215663],[121.97160146473584,-10.502142359182471],[121.97133042256098,-10.5022057937623],[121.97122699602915,-10.502230290395516],[121.97104485543582,-10.502282091345421],[121.97092353599248,-10.502384253430478],[121.9706522303162,-10.502631442886752],[121.97053433189399,-10.502703706111106],[121.97036674233141,-10.502769726241809],[121.97019690626223,-10.502805977913511],[121.9699627821567,-10.502800474062553],[121.96991864972597,-10.502803576723636],[121.96954257123275,-10.502811263229148],[121.96941715717617,-10.502838814859388],[121.96934595335313,-10.502876802222602],[121.96922960895938,-10.502967854083181],[121.96908212733842,-10.503194994952992],[121.96896841885746,-10.503472682218444],[121.96894431073144,-10.503621348246554],[121.96895340197796,-10.503822270281489],[121.96899801284803,-10.503963873034252],[121.9692041950176,-10.504309322417271],[121.96939693232264,-10.504613893116641],[121.96975094505012,-10.505149612964203],[121.97020969731977,-10.505710739558936],[121.97021893785382,-10.505719140126189],[121.97032730076432,-10.50587143761669],[121.97036317292213,-10.505957014404657],[121.97036656156763,-10.506118902265484],[121.97030036786771,-10.506492700078013],[121.97027476686708,-10.506660527061626],[121.97029010210656,-10.506762220599967],[121.97040815431296,-10.507134691912484],[121.97047550723892,-10.507355783042897],[121.97050305077528,-10.507484560563967],[121.97050876057085,-10.507541668413239],[121.97049543621551,-10.507625424973355],[121.97075315133691,-10.507647279398384],[121.97086165364249,-10.507554480155079],[121.97089734593578,-10.507517360637621],[121.97095730913259,-10.507487379039276],[121.97103297629087,-10.507455970216824],[121.97109008324082,-10.507430272089323],[121.97116575039911,-10.50739029722439],[121.97120429714062,-10.507376021386222],[121.97128710221807,-10.507336045621969],[121.97141559285535,-10.507254667768677],[121.9715226688362,-10.507160441301266],[121.97160249086232,-10.507071949810609],[121.97190814074816,-10.50676782967156],[121.97218225500717,-10.506535119300281],[121.97263054636267,-10.506181055311401],[121.97268051359492,-10.506146791141475],[121.97269336310831,-10.50612252023808],[121.97282890173244,-10.505551314041838],[121.97400682655382,-10.502256898636915],[121.97473891876621,-10.500976391747031],[121.97479602571605,-10.500847901109694],[121.97481030155427,-10.500683718179005],[121.97477875693414,-10.500451050075867],[121.97555784321992,-10.500273419582584],[121.97596235198102,-10.500083062783062],[121.97635496271141,-10.499975986802326],[121.97664644737574,-10.499898654998901],[121.9780318763701,-10.499639590894333],[121.97864289015729,-10.499497834357499],[121.97877970941613,-10.499491885342195],[121.97885694409274,-10.499189616907245],[121.97900565958355,-10.498933825435643],[121.97925550383854,-10.498785108146194],[121.97945180965337,-10.498648289786672],[121.97963621833685,-10.498440086840503],[121.97984442038376,-10.49811291078214],[121.98024773934173,-10.497191465413778],[121.98037622997913,-10.496891652127999],[121.98066176562804,-10.49654187161002],[121.98102582288345,-10.495820895018255],[121.98104723843937,-10.495649574168453],[121.98096157801444,-10.495556774925149],[121.98085450203371,-10.4954425610253],[121.98077598042721,-10.495321208307075],[121.98076170279046,-10.495214132326282],[121.98128994297656,-10.494607369634366],[121.98174931937569,-10.494289081575801],[121.98219513040101,-10.493006865074733],[121.9822784112198,-10.491710058872059],[121.98226651408845,-10.491198475029535],[121.98268291908153,-10.489485262934465],[121.98420577437707,-10.48760548830262],[121.98476494764429,-10.487058212166687],[121.98433406086826,-10.484846989696791],[121.98429163355206,-10.48482142736691],[121.98427735681457,-10.484791684088918],[121.98427735681457,-10.484766699123838],[121.98428330582999,-10.48474290486115],[121.98428092622385,-10.484707212567741],[121.98425791796865,-10.484651873684982],[121.9841817759683,-10.484609042573197],[121.98407378807497,-10.484582976623017],[121.9839933041477,-10.484578024056532],[121.98388569396968,-10.484582916368424],[121.9837534729445,-10.484670909634701],[121.98370271700685,-10.48471197178003],[121.9836515590722,-10.484740525255006],[121.98360634925371,-10.484747664073382],[121.98353972387918,-10.484754801992494],[121.9834171822572,-10.484720300401477],[121.98332676172072,-10.484675089683606],[121.98326251685171,-10.484619173436045],[121.98324467070506,-10.484584670945765],[121.98323277357372,-10.484562065586829],[121.98323277357372,-10.484540650930228],[121.98324824011422,-10.484477594964972],[121.98325775763942,-10.48439788265614],[121.98325537803328,-10.484339585903115],[121.98324348090193,-10.484297946393042],[121.98320422009874,-10.484240837644506],[121.98313164570891,-10.484171833563209],[121.98303002771365,-10.484064162231277],[121.98302059832201,-10.484057008124353],[121.98287123442003,-10.483997174429987],[121.98279254194233,-10.483988304416641]]],[[[121.96989535818432,-10.544297305776013],[121.96954836556472,-10.544326368267264],[121.96939112180291,-10.544349782116683],[121.96918551879673,-10.544373038584808],[121.96904805382474,-10.544372590722446],[121.96841638890533,-10.544340778104356],[121.96807676622984,-10.544312698572128],[121.96783506983263,-10.544283199010351],[121.96756925811485,-10.544234480037176],[121.96738088342113,-10.544166872603057],[121.96726016292621,-10.544113841380636],[121.96714136608125,-10.543986050415867],[121.96713241512896,-10.543977113852691],[121.96706431576558,-10.543828793164209],[121.96698865220458,-10.543601685569286],[121.96691220443472,-10.543323893982461],[121.96676834258506,-10.542959748593489],[121.96661449016665,-10.542691274882372],[121.96641227940324,-10.542422642890585],[121.96620052503431,-10.542115697981046],[121.96594992534881,-10.541856477394447],[121.96572830901437,-10.541606922721257],[121.96547758342376,-10.54138598357622],[121.96527518200412,-10.541174773297087],[121.96499537683519,-10.540972879994342],[121.96474445968909,-10.540809361662639],[121.96460050610858,-10.540731052296167],[121.96406729267153,-10.540580137962934],[121.95762847597348,-10.540305501197849],[121.95755924526304,-10.540293848682097],[121.95749170617739,-10.540245775422136],[121.95748709535326,-10.540178766037172],[121.95749220440177,-10.540097434948621],[121.95751668934383,-10.540006597126705],[121.95750481379616,-10.53997260185406],[121.95744940656493,-10.539881960084358],[121.95736734432751,-10.539838623553578],[121.9573094118,-10.539809721141694],[121.9571644680658,-10.539770962160105],[121.95690843017996,-10.539693555712972],[121.95651121671938,-10.539646513076093],[121.9530628769503,-10.539226615116149],[121.95302573764775,-10.539228152057547],[121.95298290833466,-10.539248138590665],[121.9524236073637,-10.539716008187156],[121.95226465578935,-10.539849269727995],[121.95189821892768,-10.540358474863694],[121.95168628019769,-10.540524340425918],[121.95149326680087,-10.540635221438265],[121.9512445197189,-10.540716658646829],[121.95116478222894,-10.540782649099924],[121.95112332707993,-10.5408519760378],[121.95107016635518,-10.541034241636908],[121.95107016635518,-10.541257911123637],[121.95122721136681,-10.541529169135799],[121.95131763100392,-10.541719525935321],[121.95136522042867,-10.542043132584467],[121.951436604116,-10.542357221708357],[121.95144136242902,-10.542528542558159],[121.95133666605432,-10.542909257056522],[121.95127004157916,-10.543451773980166],[121.95124624731648,-10.543756344679537],[121.95127480079145,-10.54421796039054],[121.95136046121638,-10.544860413577169],[121.95141756816633,-10.545502868562494],[121.95141756816633,-10.546169118709827],[121.95147943432846,-10.546702118108215],[121.95140448123186,-10.547056656939105],[121.95124029830117,-10.547317209421635],[121.95092977858644,-10.547802617596687],[121.95072276544329,-10.548134552867282],[121.95052645962846,-10.548480764875364],[121.9504086763194,-10.548848392439311],[121.95026947835379,-10.54919817205797],[121.95009458809477,-10.549658597965902],[121.94994111159303,-10.550026224630528],[121.94980191362743,-10.550268930067034],[121.94961631604019,-10.550504496685107],[121.94947354866542,-10.550686524863181],[121.94936290327541,-10.55082572372811],[121.94920228975388,-10.550904246233927],[121.94893816966089,-10.550975629921311],[121.94877041732093,-10.550993475168696],[121.94863478876459,-10.550982767840424],[121.94847417524306,-10.550982767840424],[121.94828857675645,-10.551014890724559],[121.94817317305353,-10.551057125585828],[121.94797686723871,-10.551179073655305],[121.94778651043919,-10.55130994389873],[121.94758128155092,-10.551440814142211],[121.94747420557019,-10.551512197829595],[121.9473938997088,-10.551616299752368],[121.94733738721072,-10.551702554629173],[121.94721544004062,-10.551785836347221],[121.94706969770846,-10.551898860443998],[121.94700426303632,-10.551976193146743],[121.94697154480104,-10.552071371096872],[121.94696262262698,-10.552175473019645],[121.94697451975833,-10.552321213553114],[121.946995339963,-10.552496700062591],[121.94698939094769,-10.552660287642141],[121.94694180242232,-10.552823876120954],[121.94687934090894,-10.553055873329868],[121.94686446971957,-10.553222435866701],[121.94684365041417,-10.553377100372813],[121.94678713701683,-10.553564483114371],[121.94673062541813,-10.553677507211148],[121.94660867734865,-10.553781609133921],[121.94632314169974,-10.553998735153471],[121.94617145125153,-10.554189091952992],[121.94609709440545,-10.554361602605809],[121.94596027424734,-10.554795854644908],[121.94590376174926,-10.554956468166438],[121.94583832707724,-10.555033799969863],[121.94533282085308,-10.555075881047003],[121.94520777012258,-10.555134729084443],[121.94495078794853,-10.555339362621453],[121.94467477072419,-10.555572549633439],[121.94452248492485,-10.555686764432608],[121.94434640486281,-10.555753388907704],[121.94414653143735,-10.555872362019841],[121.94381340456505,-10.556110308244058],[121.943508834765,-10.556353012781244],[121.94322805832826,-10.556695655380167],[121.94292824594186,-10.557014503716346],[121.94268078219238,-10.557366663840412],[121.94263319276774,-10.557490395265461],[121.94253801481761,-10.557628404327374],[121.94208591663175,-10.557942492551945],[121.94148629275821,-10.558323207050307],[121.94103895378475,-10.558642053587846],[121.94036794622377,-10.559146500410634],[121.93997295588724,-10.559417759322116],[121.93973976797599,-10.559698535758798],[121.93963031328838,-10.559803231234071],[121.9387832247661,-10.560345749057035],[121.93821215436753,-10.56069314996887],[121.93707552641445,-10.5612091458853],[121.93649629556762,-10.561440191611496],[121.93647020263779,-10.561452601356393],[121.936442909113,-10.56147274077432],[121.93643497799189,-10.561481276239874],[121.93643277195497,-10.561485585791104],[121.93645102189726,-10.561516480201362],[121.93648451804609,-10.5615731707652],[121.93650217083859,-10.561616598127443],[121.93656754795404,-10.561739804348463],[121.93668006932978,-10.561795598288199],[121.93670719468139,-10.561808447801582],[121.936788573434,-10.561821297314964],[121.93687423295955,-10.561819869191538],[121.93694561664699,-10.561809875025688],[121.93701271776274,-10.561807019678156],[121.93711265492516,-10.561807019678156],[121.93715262979015,-10.561831289682232],[121.93717832881691,-10.561881258713072],[121.93720831041526,-10.561962636566363],[121.93725780190607,-10.562129447316067],[121.9372925427167,-10.562216763392883],[121.93730253598335,-10.562259592705971],[121.93730539223009,-10.562306707288656],[121.93730539223009,-10.562360957991757],[121.93729968063576,-10.562399505632641],[121.93728826014512,-10.562432341679198],[121.93726256201774,-10.562480882586613],[121.93720180561888,-10.562553492049972],[121.93715548603689,-10.562610802246695],[121.9371297879095,-10.562679329687285],[121.93710979957768,-10.562777839625539],[121.93711122770105,-10.562843512617974],[121.93711551117201,-10.562890626301339],[121.937205466759,-10.563029264888598],[121.93732396772702,-10.563186135431749],[121.93746427095937,-10.56329520341086],[121.93770898098478,-10.563400365634322],[121.93791744923101,-10.56323738959378],[121.93842641784499,-10.5629437042885],[121.93878554321827,-10.5627769367062],[121.93923229943118,-10.56267600579298],[121.93987672662968,-10.562582487092072],[121.9403912026919,-10.562500013864508],[121.94082454461716,-10.562418906707137],[121.94085481040122,-10.562416212338292],[121.94196672588373,-10.56236813907833],[121.94229340281834,-10.562294237289166],[121.94250657901546,-10.562165841080628],[121.9441158510657,-10.56099670623297],[121.94482787670518,-10.560432631660603],[121.94566527773043,-10.559639655345791],[121.94623011133069,-10.558989608283753],[121.94676544357037,-10.55840579988768],[121.94719101625242,-10.558034601115878],[121.94738961264056,-10.557849631255408],[121.94741005513004,-10.557829373127049],[121.94775905503639,-10.557560027073521],[121.94811180781369,-10.557287804088844],[121.94925132978506,-10.556788765788838],[121.95048349271906,-10.556409066625065],[121.95052050072059,-10.556377141591781],[121.95087426523526,-10.556126003212455],[121.9521734933121,-10.555520068796113],[121.95288091712064,-10.555165955344535],[121.95369417494624,-10.554644798218817],[121.95393849196785,-10.554445315998464],[121.95423597960689,-10.554202385731458],[121.95458708212823,-10.55390648989254],[121.95509468197406,-10.553466491185588],[121.95584550526587,-10.552620257019214],[121.95609733522394,-10.552348218395537],[121.95653235528403,-10.551970027394816],[121.95678922504271,-10.551793297122913],[121.95695295201722,-10.551655699051196],[121.95722354812835,-10.551424111933159],[121.95758449283016,-10.551227298001379],[121.95794480530856,-10.551098365796918],[121.95830583005011,-10.551044421762583],[121.95883385080162,-10.550948803144706],[121.95947066164183,-10.550707845090926],[121.96014200375055,-10.550461323830973],[121.96046871126202,-10.550387994910011],[121.96098358392533,-10.550272372671827],[121.96141629722445,-10.55013842404901],[121.96214486499355,-10.549874288667468],[121.96279025626541,-10.549763870805918],[121.96298549638357,-10.549811115790305],[121.9636442983458,-10.549977250249867],[121.96399871936546,-10.549921797153161],[121.96411159867137,-10.549851309190501],[121.96423767193107,-10.54976755892568],[121.96438681100256,-10.549762436387255],[121.96452058785496,-10.549823573199319],[121.96468618272127,-10.549915361604633],[121.96502871110624,-10.549957300588915],[121.96539120713851,-10.549916058579186],[121.96552250006334,-10.549838278913398],[121.96574730179657,-10.549667575897843],[121.96605514243095,-10.549571158681999],[121.9661559150635,-10.549609278245555],[121.96647661600309,-10.549907625636365],[121.96658321264522,-10.549863313341177],[121.96665220413593,-10.549660644822836],[121.96673536084825,-10.54950064643765],[121.96686871771726,-10.549463383927957],[121.96736619659271,-10.549424488249485],[121.96821427976522,-10.549329359762112],[121.96872446875932,-10.549273056806101],[121.97051423384482,-10.549159111803533],[121.97092204401713,-10.549069265933838],[121.97121802439233,-10.549018529781279],[121.97124350218598,-10.549014141089685],[121.97125364743795,-10.549012408096132],[121.97120553460775,-10.548845394099601],[121.96989535818432,-10.544297305776013]]],[[[121.99297310042834,-10.517193971424604],[121.97285065543349,-10.515032492255671],[121.97281723932417,-10.515267967142904],[121.97203183889826,-10.520802450772464],[121.97166438670217,-10.523231642826033],[121.97148434872372,-10.524278177595761],[121.97148152755051,-10.524320875607884],[121.9718551032305,-10.524399398113701],[121.97205735716136,-10.524456505063597],[121.97235840071971,-10.524606097393416],[121.97265222272199,-10.524875290562136],[121.97273788314681,-10.524960950987065],[121.97286399507732,-10.524975227724553],[121.97304007513947,-10.524968089805441],[121.97326374372687,-10.524915741168456],[121.9733946139703,-10.524915741168456],[121.97361365464656,-10.52495934030128],[121.9738348150247,-10.524994263674273],[121.9746389213492,-10.524962457351478],[121.97472235415341,-10.524965710199297],[121.97477708059785,-10.524953813067953],[121.97495925086878,-10.52487502796015],[121.97512283485105,-10.524843379918025],[121.97521264834506,-10.524853153749973],[121.97542094032417,-10.52494836227703],[121.97559085733224,-10.525098960048922],[121.97568841488851,-10.525201276817427],[121.9758985486792,-10.525513936019308],[121.97591922858965,-10.525662336747416],[121.97591222826679,-10.525767580809145],[121.97578613522205,-10.525974995049921],[121.97552716464702,-10.52629861698756],[121.97548697574337,-10.526357714137134],[121.97546241975488,-10.526483945677512],[121.97544220839131,-10.526587846152154],[121.9751232980019,-10.527318610965096],[121.97492579788729,-10.527593825094925],[121.97488296677557,-10.527683054929014],[121.97484727538153,-10.527807976157135],[121.97484155389463,-10.527995109786445],[121.97485441419997,-10.528543230385708],[121.97476877266081,-10.528940256787394],[121.97476161495661,-10.528996516575944],[121.97473306058237,-10.529456943383195],[121.97467595363241,-10.52967823326378],[121.9745276608229,-10.529905747352302],[121.9744225417669,-10.530113674206632],[121.97441301165122,-10.53026276831207],[121.97443324909523,-10.530534839311315],[121.97439398829204,-10.530670467867765],[121.97432260370522,-10.530770405030125],[121.97414771434558,-10.530856066354318],[121.97392999297483,-10.530902465076679],[121.973686434981,-10.53084289308498],[121.97339818427884,-10.530777543848501],[121.97323400134815,-10.530716866590069],[121.97317332498903,-10.530713298080173],[121.97308766366484,-10.530748990373581],[121.97300914205834,-10.53084178871751],[121.97298829127669,-10.53098269269708],[121.97291634281498,-10.531202276563761],[121.9728663737842,-10.531355753065498],[121.97280212891519,-10.531405721197018],[121.97265936064105,-10.531434274671994],[121.97250945534711,-10.531419997934506],[121.9724095181848,-10.53136646039377],[121.97227745813825,-10.531259385312353],[121.97201126870516,-10.53108908339442],[121.9718757066986,-10.531768307161599],[121.97182973965084,-10.532042062591074],[121.9717892926418,-10.53228294330313],[121.97159816242527,-10.533421204424997],[121.97144793517418,-10.534315856291698],[121.97210588457892,-10.53461437994963],[121.97227699408802,-10.535266478365259],[121.97240166890197,-10.535741615383188],[121.97245862476575,-10.5366309639478],[121.97258851834556,-10.537418088374011],[121.97263479835738,-10.53769853206154],[121.97329000842717,-10.53882693301648],[121.97344903374596,-10.539021356550336],[121.97460259773175,-10.540431684174848],[121.97432806618735,-10.540742031219736],[121.97339999731207,-10.541791170426109],[121.97336402622886,-10.54182108817264],[121.97261907820791,-10.542440689586101],[121.97209779697585,-10.542542094442069],[121.97201963959481,-10.542557298380586],[121.97014037038184,-10.544096617564776],[121.96989535818432,-10.544297305776013],[121.97120553460775,-10.548845394099601],[121.97125364743795,-10.549012408096132],[121.97125568440242,-10.549012060058487],[121.97138428205903,-10.548990014077845],[121.97265073074664,-10.548976388449546],[121.97288705819119,-10.549231831883503],[121.97324274905372,-10.549357153309927],[121.97359419061945,-10.549533566121113],[121.97433960628791,-10.549802643277303],[121.97441820793404,-10.549886654345585],[121.9744808798888,-10.549906275753983],[121.97457954990637,-10.549949682431873],[121.97485282779587,-10.550088142953371],[121.97505709890606,-10.550139326968292],[121.97561082408038,-10.550396817259241],[121.97572060342316,-10.550470964563317],[121.97598583597767,-10.550487176641866],[121.97619056124552,-10.550536814722193],[121.97626074343862,-10.550561017277062],[121.97630274267749,-10.550580672859724],[121.97644996079714,-10.550613522396077],[121.97665426788024,-10.550557559383833],[121.97696442157087,-10.550511281170657],[121.97720648758934,-10.550503683698025],[121.97728182109927,-10.550523817719977],[121.9773763119673,-10.550549059891182],[121.97761419433971,-10.550553182383396],[121.97778574001995,-10.550578672767472],[121.97798933394063,-10.550548644404387],[121.97828202459584,-10.550527800817292],[121.97859103704684,-10.550563699954751],[121.97878933755794,-10.55063764311268],[121.97902448239404,-10.550708517783846],[121.97925427986115,-10.550720761154139],[121.9800406326691,-10.550675767172891],[121.98036891939023,-10.55057123537415],[121.98083142902726,-10.550492146295483],[121.98104544429191,-10.550449314284378],[121.98121403839718,-10.550359452226871],[121.98131816640034,-10.550337007846565],[121.98249199840711,-10.550436683306259],[121.982718924339,-10.550445923840243],[121.98304643134782,-10.55036130393097],[121.98333945295349,-10.550322576425742],[121.98478958367241,-10.55049210942326],[121.98495364699329,-10.550588096763192],[121.98524631876262,-10.550764327012018],[121.98548619493204,-10.550845798394846],[121.98562545315224,-10.550972208000928],[121.98621995898395,-10.550859808933012],[121.98635373493698,-10.550571104972448],[121.98634813755655,-10.550285592705904],[121.98645108205187,-10.549941360105663],[121.98651918321377,-10.549912446002509],[121.98661750879103,-10.549855553091277],[121.98667962136744,-10.549712444873364],[121.98672529973283,-10.549674736300005],[121.98696386289203,-10.549496496066411],[121.98703317723937,-10.549368494660257],[121.98704951342438,-10.549175144017624],[121.98691845702126,-10.548993155409732],[121.98684120435814,-10.548936097023216],[121.98668110075221,-10.548825334721357],[121.98658874307614,-10.548648590060338],[121.98643683229409,-10.548191077955835],[121.98651129615951,-10.547924768013559],[121.986776124019,-10.547581340306579],[121.98684435378391,-10.547492765178902],[121.98698779924757,-10.547426051670925],[121.987204966636,-10.54731072980627],[121.98727215138877,-10.547230253073678],[121.98727439789525,-10.547124141166137],[121.98729945120874,-10.546949198746461],[121.98734974039826,-10.546637641214147],[121.98741114700692,-10.546408876168641],[121.98754591491206,-10.546242414355902],[121.98797955091561,-10.54586185633957],[121.98816921703576,-10.545720026058291],[121.98747572822231,-10.545237889616885],[121.98731623525612,-10.545221775564471],[121.98678661820793,-10.545186004130755],[121.98625185523895,-10.545090060857603],[121.98589888122842,-10.545108709199496],[121.98507133227622,-10.544778705672684],[121.98488885263851,-10.544628952364235],[121.98485282130071,-10.544490150100273],[121.98484956035895,-10.54423722207008],[121.9849028442909,-10.543920443073944],[121.98505170816986,-10.543353210082557],[121.98533526531025,-10.542613396291188],[121.98575242843185,-10.541912641854879],[121.98610806083843,-10.541483275832491],[121.98656783923445,-10.540907602703669],[121.98678135717398,-10.540662498775248],[121.98814787612366,-10.539414264056973],[121.98846401210449,-10.539079841261639],[121.9900670032896,-10.53746624886827],[121.99062275643507,-10.536961017836632],[121.99196226244851,-10.535716529694071],[121.99252324335305,-10.535167114070987],[121.99272284967981,-10.535226254388078],[121.99296105400947,-10.535266219360494],[121.99340304201689,-10.535352611833503],[121.99354472031268,-10.535355313396963],[121.99361489980788,-10.535296104731401],[121.99368748409017,-10.535167613194744],[121.99379179465564,-10.535038155786197],[121.99404474426956,-10.534784818564503],[121.99398613994845,-10.534642333576812],[121.99387637409541,-10.534526551259262],[121.99358304492159,-10.534319083059188],[121.99347635474999,-10.53419548383448],[121.9934827597217,-10.534044371650396],[121.99351639436622,-10.533781273187174],[121.99341988901676,-10.533697283702622],[121.99322965722297,-10.533618765693461],[121.99294323394315,-10.533486417863855],[121.99279671819409,-10.533328394389855],[121.99261668381303,-10.533031685563799],[121.99257165925474,-10.532854501134295],[121.99258421558909,-10.532684861117389],[121.99269542305535,-10.532420091713789],[121.99299328930897,-10.531999319612851],[121.99367567329375,-10.531165459218528],[121.99387304030859,-10.530962189953073],[121.9943100928366,-10.530323739648793],[121.99447835419278,-10.530049316922373],[121.99468054067449,-10.530024520814948],[121.99492780207652,-10.529905045881094],[121.99505297331609,-10.529828863411296],[121.99509327643364,-10.529739465403964],[121.99506364197362,-10.529617592877571],[121.9948675843716,-10.5293826557849],[121.9949337124209,-10.529186950717133],[121.99504404844413,-10.529051030780408],[121.99605595391915,-10.52787714391502],[121.99624455164485,-10.52749376562474],[121.99641403967621,-10.526971844075319],[121.99684814242789,-10.525314834212168],[121.99694996187134,-10.524222891772979],[121.99694861918351,-10.523402264902529],[121.99692338870352,-10.523130645362926],[121.99692345795131,-10.523103577568008],[121.99696922175224,-10.52303220737042],[121.99717125894654,-10.522951015676767],[121.997122541772,-10.522870466099107],[121.99710970305046,-10.522795326842811],[121.99708103266357,-10.522702247011068],[121.99705912517857,-10.522624764121531],[121.99702453905127,-10.522532295828739],[121.99694408660037,-10.522488018607135],[121.99684674218349,-10.522516647625139],[121.99666392979657,-10.52256749079703],[121.99654985978827,-10.52245549102804],[121.99652470844865,-10.522304639647359],[121.99649047575497,-10.52217518763473],[121.99628302284327,-10.52185931965181],[121.99587019175601,-10.521480564776198],[121.99578389191311,-10.521514202118681],[121.99563071128841,-10.521560423674543],[121.99555832125964,-10.521508986950153],[121.9955376377518,-10.52141442323699],[121.99546101821147,-10.521021629944244],[121.99529557443122,-10.520392841956038],[121.99523994596677,-10.520149489007679],[121.99515760763757,-10.520057645743691],[121.99499843842727,-10.520026065150716],[121.99494655294109,-10.519933346846415],[121.99486867434996,-10.519733065128833],[121.99476635938004,-10.519684469362744],[121.99470975694976,-10.519565641041481],[121.99470174129237,-10.519373952345973],[121.99465351065101,-10.518568408904912],[121.99456244440137,-10.518513737319097],[121.9944404810434,-10.518519646764219],[121.99422659887853,-10.518551813715192],[121.99413122397686,-10.518267618056086],[121.99399155926312,-10.518073316830055],[121.99375120105719,-10.517878806961335],[121.99332445116261,-10.517625358223654],[121.99309212120454,-10.517494832420539],[121.99301203657626,-10.517360622994318],[121.99297310042834,-10.517193971424604]]],[[[121.96820493221196,-10.473612925795862],[121.96802065842667,-10.47339590139967],[121.96799388830732,-10.473351286032994],[121.96796414502933,-10.473262056198905],[121.96793737580936,-10.473202569642808],[121.96786896617994,-10.473131185955424],[121.96780650556582,-10.473107390793416],[121.96775891614118,-10.473101442677375],[121.96769942958508,-10.473065750384023],[121.96764886610231,-10.472967596577291],[121.96755466571528,-10.472799468320773],[121.9674356926032,-10.472585316359243],[121.96725723293503,-10.472454446115762],[121.96700738957941,-10.472299780710273],[121.96689447519998,-10.47224332397019],[121.96483595401617,-10.477766827776861],[121.9647429452308,-10.478101535657288],[121.96448095473238,-10.479281292397673],[121.96414361003963,-10.480837304797717],[121.96368805755787,-10.48269624213782],[121.96257836340078,-10.485588731634607],[121.96154633199774,-10.488070332579753],[121.96072113567197,-10.489087396566049],[121.95945131902317,-10.490816530258599],[121.95918304586098,-10.491350270698376],[121.95842973504432,-10.492664638861925],[121.95771417327057,-10.493997981821337],[121.95681725870963,-10.496538798626602],[121.95645105567178,-10.497858140041103],[121.95637564212223,-10.499071738270061],[121.95637863776403,-10.500000110216888],[121.95627242063574,-10.500750332761584],[121.95638982982689,-10.501179121419284],[121.956480009345,-10.501508522400343],[121.95649984389274,-10.501622556435791],[121.9566262543982,-10.502599597893095],[121.95672691371612,-10.503377613985663],[121.9568260154083,-10.504143642115366],[121.9569259022087,-10.504371468268573],[121.95716478912379,-10.504901855136438],[121.95720069365711,-10.504982213158542],[121.95747071600078,-10.505586541385753],[121.95762111232455,-10.505923137842501],[121.95821829723673,-10.507028018827953],[121.95825075466871,-10.507069972201407],[121.95834351434178,-10.507194460855658],[121.9585775368239,-10.507488129073863],[121.95886526591937,-10.507863896401659],[121.95919292311498,-10.508351199448271],[121.95948460383147,-10.508785000926991],[121.95957386064526,-10.508917741760342],[121.96368174431711,-10.50892076977766],[121.96935710224852,-10.509865924872486],[121.96999479802162,-10.508603858581182],[121.97049543621551,-10.507625424973355],[121.97050876057085,-10.507541668413239],[121.97050305077528,-10.507484560563967],[121.97047550723892,-10.507355783042897],[121.97040815431296,-10.507134691912484],[121.97029010210656,-10.506762220599967],[121.97027476686708,-10.506660527061626],[121.97030036786771,-10.506492700078013],[121.97036656156763,-10.506118902265484],[121.97036317292213,-10.505957014404657],[121.97032730076432,-10.50587143761669],[121.97021893785382,-10.505719140126189],[121.97020969731977,-10.505710739558936],[121.96975094505012,-10.505149612964203],[121.96939693232264,-10.504613893116641],[121.9692041950176,-10.504309322417271],[121.96899801284803,-10.503963873034252],[121.96895340197796,-10.503822270281489],[121.96894431073144,-10.503621348246554],[121.96896841885746,-10.503472682218444],[121.96908212733842,-10.503194994952992],[121.96922960895938,-10.502967854083181],[121.96934595335313,-10.502876802222602],[121.96941715717617,-10.502838814859388],[121.96954257123275,-10.502811263229148],[121.96991864972597,-10.502803576723636],[121.9699627821567,-10.502800474062553],[121.97019690626223,-10.502805977913511],[121.97036674233141,-10.502769726241809],[121.97053433189399,-10.502703706111106],[121.9706522303162,-10.502631442886752],[121.97092353599248,-10.502384253430478],[121.97104485543582,-10.502282091345421],[121.97122699602915,-10.502230290395516],[121.97133042256098,-10.5022057937623],[121.97160146473584,-10.502142359182471],[121.97179157602045,-10.502064448215663],[121.97189434334928,-10.502005932028112],[121.97203712331464,-10.501863151163434],[121.97206811485171,-10.501755208236204],[121.97210079531555,-10.501306910585413],[121.97210850790134,-10.501263527289893],[121.97203652526548,-10.500980739969123],[121.97190405063145,-10.500599622574498],[121.97188620538418,-10.500498495609065],[121.97190702468947,-10.500287318604819],[121.9722061859668,-10.499247274242293],[121.97221558298281,-10.49921481141439],[121.97260819461258,-10.498286821679415],[121.97310074340464,-10.49740166215696],[121.97341371197331,-10.496922628376524],[121.97351183340447,-10.49681263769304],[121.97367895172226,-10.49666640882765],[121.97383793657161,-10.496549900757259],[121.9747030825813,-10.495870597849773],[121.97570625294134,-10.494624830871203],[121.97595109876431,-10.49424849337322],[121.9761440680943,-10.49390148636445],[121.97697688437574,-10.491819446110526],[121.97774069207935,-10.490134788389753],[121.9780471900259,-10.489419625914934],[121.97839473932584,-10.488784791784667],[121.97850449888358,-10.488614312700349],[121.97877575689574,-10.488021826745864],[121.97899704677639,-10.487657768591077],[121.9792920999505,-10.487243743204147],[121.97973230010564,-10.486767850755655],[121.98016655214474,-10.486488264122045],[121.98071129758841,-10.486191998661752],[121.98091608221148,-10.486036165936241],[121.98098746589892,-10.485952885117513],[121.98121351499174,-10.485673297584583],[121.98135344500554,-10.485376836072078],[121.98173383484868,-10.484439101283442],[121.98185596907774,-10.484067162369627],[121.98194519891183,-10.483918445979441],[121.98198981427856,-10.483861934380741],[121.98206782507009,-10.483803532407023],[121.98219206820943,-10.48379649880934],[121.98255791061911,-10.483918445979441],[121.98279254194233,-10.483988304416641],[121.98275876070829,-10.483942081961459],[121.98257165765597,-10.483712853765155],[121.98238130085645,-10.483561163317006],[121.98175669201783,-10.483201269922631],[121.98163771980501,-10.483150706439915],[121.98153361788218,-10.483120963161866],[121.98145434983849,-10.48301450321668],[121.98135791643472,-10.482807253551869],[121.98125791272253,-10.482599484978209],[121.98118938528194,-10.482496693367636],[121.98106945978782,-10.482350118263298],[121.98065588496115,-10.481973698926993],[121.98059860803937,-10.481914958808261],[121.98036122209282,-10.481729565367118],[121.98011673240137,-10.481551105698941],[121.97984912743539,-10.4812835007329],[121.97969937862354,-10.481087140059401],[121.97963846034668,-10.480994312037808],[121.97938147907212,-10.480566009014069],[121.97923426634839,-10.480419289118856],[121.97916764097397,-10.480337436423497],[121.97907452786728,-10.48021622759677],[121.97892462257335,-10.480059182585137],[121.97882468541093,-10.479930692847176],[121.97873902408674,-10.479873585897224],[121.97868191713678,-10.479816478947271],[121.97857484115605,-10.479787924573031],[121.97845951299621,-10.479575055944053],[121.9783797233456,-10.479473833650445],[121.97829788683805,-10.479414624984884],[121.9781050658961,-10.479362592009977],[121.97797968511441,-10.479303394136309],[121.97739918982086,-10.47893726844012],[121.97733732365862,-10.478780223428544],[121.97731828770884,-10.47863269684143],[121.97727545659711,-10.478518482941581],[121.97725166323369,-10.478456616779397],[121.97723262728402,-10.478366197142236],[121.97710889495954,-10.47812349170573],[121.9770803405853,-10.477923617381009],[121.97717076112178,-10.477833197743848],[121.97715172517201,-10.477752297430527],[121.97704226958513,-10.477695188681992],[121.97690426142253,-10.477557181418717],[121.97682336021001,-10.47751435030699],[121.97666155688546,-10.477504831882413],[121.97652830703578,-10.477595252418894],[121.9764188514489,-10.477652357570207],[121.97638078044872,-10.477690430369023],[121.97625228891206,-10.477676153631535],[121.97608096806232,-10.47753338535739],[121.97582398588827,-10.477385858770333],[121.97559079887628,-10.47731923429518],[121.9753480943391,-10.477276404082716],[121.97512442485242,-10.47721929713282],[121.97503400521521,-10.477138395020859],[121.97502924600292,-10.476919484746361],[121.97497689826525,-10.476771958159304],[121.97476247920508,-10.476585100621833],[121.97418739333364,-10.476031152415715],[121.97378764378482,-10.475345868117302],[121.9736163220357,-10.475060331569011],[121.9731880190119,-10.474731966606953],[121.97260267187585,-10.474375048169918],[121.97191738757749,-10.47417517294582],[121.97130348606709,-10.474132342733412],[121.97070386219355,-10.474232279895773],[121.96881932924873,-10.473775423397001],[121.96821920894945,-10.473612926695182],[121.96820493221196,-10.473612925795862]]],[[[121.99365105165475,-10.441136388633367],[121.99360013114119,-10.441128292936298],[121.99318803120275,-10.441094436159233],[121.99136824314996,-10.440929549958696],[121.9908009508033,-10.440922545139301],[121.99038831396956,-10.440881561235017],[121.98810081999693,-10.440898610582394],[121.98732621503291,-10.440946206302328],[121.98508828359752,-10.441078873391234],[121.98432720623566,-10.441193138552478],[121.9839341719246,-10.441208622180113],[121.98355397633497,-10.441197271836586],[121.98250198357971,-10.441251686216276],[121.98110219421096,-10.441432044353292],[121.98062837559917,-10.441494815233511],[121.97954515658375,-10.441626645053589],[121.97917730239067,-10.441629200926855],[121.97911506031187,-10.441610084038075],[121.97898743392295,-10.441649234224712],[121.97864173183052,-10.441754849706513],[121.97848907461116,-10.441795716698948],[121.97835991397892,-10.441826279259317],[121.97827641912147,-10.441841234984963],[121.97790373736768,-10.4418437647779],[121.9776691501113,-10.441918706183287],[121.97734363779875,-10.442020644337219],[121.97643653931493,-10.442142174221942],[121.97574026889833,-10.442161479968263],[121.97435801630945,-10.442270358190456],[121.97395324584568,-10.442275780203033],[121.9735743686623,-10.442270423840966],[121.97313127898542,-10.442441855307322],[121.97273041877384,-10.442473077970135],[121.97232902796236,-10.442434272223863],[121.96933891166145,-10.451805843764646],[121.96778938427269,-10.457169486782334],[121.96749927826909,-10.460160506901843],[121.96719484426671,-10.46217376340843],[121.96711936956331,-10.462204728865117],[121.9670172011829,-10.46222684319423],[121.96692868541061,-10.46222684319423],[121.96676450158054,-10.462225415070805],[121.9665418564216,-10.462231482796653],[121.96652289241763,-10.462235276137051],[121.96641757730936,-10.46224540160398],[121.9662519662553,-10.462233981113286],[121.96612633096549,-10.462202572290835],[121.96606636776869,-10.462206854862416],[121.96600355102316,-10.462221131599904],[121.96595358199227,-10.462252541321675],[121.96591503525076,-10.46229965410572],[121.9658566422703,-10.46238994064322],[121.96568317833612,-10.462643203221205],[121.96564092099175,-10.462725101781984],[121.96560951216929,-10.462835033110252],[121.96560237335086,-10.463022057921592],[121.96560084989937,-10.463270340953443],[121.96559523543181,-10.463406102609497],[121.96558952383748,-10.463546016435487],[121.96555383244345,-10.463684500339355],[121.96550386431193,-10.463851537718256],[121.96545103993355,-10.46399002342082],[121.96535538534283,-10.464145640309027],[121.96526177670967,-10.464281612406467],[121.96518834706467,-10.464435457630202],[121.96517692567465,-10.464479715966092],[121.96517549755129,-10.464526829649401],[121.9651954526081,-10.464691134887914],[121.96521118984458,-10.464854718870129],[121.9652326054005,-10.464947518113433],[121.96524688213799,-10.465018901800818],[121.96523974421893,-10.465099803912778],[121.96522784618821,-10.465237812075316],[121.96520167231938,-10.465401995006005],[121.96518927966156,-10.46565897088476],[121.96518206530016,-10.466258051567763],[121.96522370570949,-10.466421640046576],[121.96526534611894,-10.466546561274754],[121.96529806255558,-10.466671483402195],[121.96529806255558,-10.466778559382988],[121.96529806255558,-10.466858866143696],[121.9652564230455,-10.466930249831137],[121.96518503935818,-10.467075992163245],[121.96505103587663,-10.467292165800757],[121.96670445744485,-10.470166526763762],[121.96704219064463,-10.470942258578305],[121.96770488307391,-10.471960986310421],[121.96782861359975,-10.472246521959391],[121.96790475739874,-10.472455914708632],[121.96806656072329,-10.472693860932907],[121.96817125709788,-10.472969878157301],[121.96825691842207,-10.473188788431798],[121.96823788157303,-10.473407698706296],[121.96820493221196,-10.473612925795862],[121.96821920894945,-10.473612926695182],[121.96881932924873,-10.473775423397001],[121.97070386219355,-10.474232279895773],[121.97130348606709,-10.474132342733412],[121.97191738757749,-10.47417517294582],[121.97260267187585,-10.474375048169918],[121.9731880190119,-10.474731966606953],[121.9736163220357,-10.475060331569011],[121.97378764378482,-10.475345868117302],[121.97418739333364,-10.476031152415715],[121.97476247920508,-10.476585100621833],[121.97497689826525,-10.476771958159304],[121.97502924600292,-10.476919484746361],[121.97503400521521,-10.477138395020859],[121.97512442485242,-10.47721929713282],[121.9753480943391,-10.477276404082716],[121.97559079887628,-10.47731923429518],[121.97582398588827,-10.477385858770333],[121.97608096806232,-10.47753338535739],[121.97625228891206,-10.477676153631535],[121.97638078044872,-10.477690430369023],[121.9764188514489,-10.477652357570207],[121.97652830703578,-10.477595252418894],[121.97666155688546,-10.477504831882413],[121.97682336021001,-10.47751435030699],[121.97690426142253,-10.477557181418717],[121.97704226958513,-10.477695188681992],[121.97715172517201,-10.477752297430527],[121.97735690909417,-10.477302182249844],[121.97747588220625,-10.476873879226105],[121.97747588220625,-10.47657644644579],[121.9774580360596,-10.47645747423303],[121.9773918900238,-10.476271802002032],[121.9772972660561,-10.476061187074095],[121.97725443494426,-10.475994562598942],[121.97719494928754,-10.475925557618325],[121.97714022104446,-10.475861312749316],[121.97712356470083,-10.475828000062108],[121.97711404717563,-10.475782790243557],[121.97709263161971,-10.475716165768404],[121.97708549370066,-10.475701889030915],[121.97702362843779,-10.475609089787611],[121.97699983327573,-10.47556863918129],[121.97684506264955,-10.475356384789279],[121.97682153008964,-10.475303435405181],[121.97671445500816,-10.475089283443651],[121.97666686558341,-10.474803748694001],[121.97660737902743,-10.474530110176374],[121.97656405328848,-10.474307776182854],[121.97646461165255,-10.473923346585138],[121.97646461165255,-10.473732990684937],[121.97646461165255,-10.473197612579725],[121.9767501464022,-10.471389221635206],[121.97772572556187,-10.468605252430393],[121.9779690461346,-10.46785247940835],[121.97807915642795,-10.467424696192722],[121.97810643916091,-10.467427419339856],[121.97870031366858,-10.467522101763564],[121.97872708198929,-10.467522101763564],[121.97878871162982,-10.467456105015174],[121.97894915428014,-10.467288823020738],[121.9791446677923,-10.467162867572256],[121.97930507357034,-10.467115767378743],[121.97989004389046,-10.466980774642991],[121.98010661772628,-10.466917607161804],[121.98032631940418,-10.466807939334899],[121.98044338865157,-10.46671656821502],[121.98061471040057,-10.466608065010121],[121.9807417729146,-10.466523831809354],[121.98081803362538,-10.466487036047852],[121.98093912194304,-10.466467771670295],[121.98115150673675,-10.466457028369121],[121.98123717705414,-10.466449592774438],[121.98129633086103,-10.466480513265026],[121.98129987418986,-10.466481087931811],[121.98165381856893,-10.46679041784347],[121.98203615364559,-10.467019676616758],[121.98218622441482,-10.467075952593063],[121.9823892994267,-10.467106414429452],[121.98252936343943,-10.467171754672677],[121.98256004740836,-10.467189288754639],[121.98277050225693,-10.467291922084485],[121.9828261810834,-10.467323330906936],[121.98289621488846,-10.467370618159464],[121.98292907611608,-10.467297832428983],[121.98318064437126,-10.466740613388538],[121.98337994312999,-10.466147951166988],[121.98340695696561,-10.466072078063917],[121.98346234441169,-10.465917436940117],[121.98350107911153,-10.465809291665437],[121.9837313343337,-10.465550283318862],[121.98376285916868,-10.465493924604914],[121.98391566567545,-10.465231974575943],[121.98402451871664,-10.465045390432351],[121.98435492064311,-10.464709831793243],[121.98447106628669,-10.464573552127661],[121.98452906356545,-10.464505505824377],[121.98460936493029,-10.464411294645458],[121.98502282734171,-10.46391992306593],[121.9854296212801,-10.463484766308852],[121.98562095564262,-10.463167108675066],[121.98586415031036,-10.46282877203015],[121.98599676613787,-10.462644270716453],[121.98636810880123,-10.462336092836381],[121.98650453775429,-10.462215989276444],[121.98668279777291,-10.461985769127921],[121.98705129678001,-10.461619140710752],[121.98794148980801,-10.460611765120802],[121.98816175895809,-10.460345626949106],[121.98819589002835,-10.460313233368993],[121.98844448962154,-10.459933425387248],[121.98881442664458,-10.459329270729199],[121.9890376689533,-10.458961799647284],[121.98931845708114,-10.458475891449211],[121.98951019164213,-10.458095735429822],[121.98951692576554,-10.458027019131578],[121.9895940480269,-10.457808707805555],[121.98972253686566,-10.457562363712043],[121.98977933085155,-10.457453479194669],[121.98999729863647,-10.456910956875106],[121.99024229824352,-10.456074802310241],[121.99039786476976,-10.455413146799231],[121.99063570757187,-10.454720739870197],[121.99093781862553,-10.453834889668371],[121.99109854905885,-10.453360766186336],[121.99123910769868,-10.45309282577324],[121.99139420387951,-10.452506174620225],[121.99153594962445,-10.45203820429964],[121.99162061000322,-10.451613638858305],[121.99171054400642,-10.451357893252123],[121.99173913525294,-10.451262003038948],[121.99185195790164,-10.45094617462621],[121.99196208078547,-10.450484271132154],[121.99218291560908,-10.44947295741099],[121.99227948570979,-10.44916098619052],[121.99238911036923,-10.448786577738304],[121.99242963471988,-10.44865634331552],[121.9925114514424,-10.44839348676993],[121.99260258873858,-10.447937736437325],[121.9927317017067,-10.447469677983179],[121.99282325718764,-10.446945143903235],[121.99288367364272,-10.446357952257642],[121.99296823419672,-10.44593964609777],[121.99302507494735,-10.445939983343521],[121.99303338198501,-10.445608739651561],[121.99308589160069,-10.445277737877234],[121.99312632601914,-10.444852932316905],[121.99317914590097,-10.4444719552165],[121.99326382966206,-10.444041138587636],[121.99334951526794,-10.443441580364606],[121.99340982470369,-10.442860610228934],[121.99346357088712,-10.442639416575787],[121.993481110365,-10.442567235189699],[121.9935413910224,-10.441986264154707],[121.99358682477225,-10.441620885795203],[121.99361439618747,-10.441399139059001],[121.99365105165475,-10.441136388633367]]],[[[122.0032131526649,-10.447750106382273],[122.00310351901226,-10.447468969317413],[122.00193173206389,-10.445555278553229],[122.00164775224198,-10.44525180862405],[122.00144699568239,-10.44502183668834],[122.00077910157438,-10.444290739126245],[122.0001517147299,-10.443707113292589],[122.00000718288527,-10.443609739198052],[122.0000005908546,-10.443605298345801],[122.00000000000011,-10.443604899946138],[121.99982200438205,-10.443484987042496],[121.99934712007359,-10.443134597683468],[121.99880494129502,-10.442768423423956],[121.99793769626774,-10.442211681923538],[121.99713567367246,-10.441898267291151],[121.99660998756099,-10.441688154184931],[121.99624319097052,-10.441608280897412],[121.99458931434549,-10.441321851322357],[121.99405233634627,-10.441200066030149],[121.99365105165475,-10.441136388633367],[121.99361439618747,-10.441399139059001],[121.99358682477225,-10.441620885795203],[121.9935413910224,-10.441986264154707],[121.993481110365,-10.442567235189699],[121.99346357088712,-10.442639416575787],[121.99340982470369,-10.442860610228934],[121.99334951526794,-10.443441580364606],[121.99326382966206,-10.444041138587636],[121.99317914590097,-10.4444719552165],[121.99312632601914,-10.444852932316905],[121.99308589160069,-10.445277737877234],[121.99303338198501,-10.445608739651561],[121.99302507494735,-10.445939983343521],[121.99296823419672,-10.44593964609777],[121.99288367364272,-10.446357952257642],[121.99282325718764,-10.446945143903235],[121.9927317017067,-10.447469677983179],[121.99260258873858,-10.447937736437325],[121.9925114514424,-10.44839348676993],[121.99242963471988,-10.44865634331552],[121.99238911036923,-10.448786577738304],[121.99227948570979,-10.44916098619052],[121.99218291560908,-10.44947295741099],[121.99196208078547,-10.450484271132154],[121.99185195790164,-10.45094617462621],[121.99173913525294,-10.451262003038948],[121.99171054400642,-10.451357893252123],[121.99162061000322,-10.451613638858305],[121.99153594962445,-10.45203820429964],[121.99139420387951,-10.452506174620225],[121.99123910769868,-10.45309282577324],[121.99109854905885,-10.453360766186336],[121.99093781862553,-10.453834889668371],[121.99063570757187,-10.454720739870197],[121.99039786476976,-10.455413146799231],[121.99024229824352,-10.456074802310241],[121.98999729863647,-10.456910956875106],[121.98977933085155,-10.457453479194669],[121.98972253686566,-10.457562363712043],[121.9895940480269,-10.457808707805555],[121.98951692576554,-10.458027019131578],[121.98951019164213,-10.458095735429822],[121.98931845708114,-10.458475891449211],[121.9890376689533,-10.458961799647284],[121.98881442664458,-10.459329270729199],[121.98844448962154,-10.459933425387248],[121.98819589002835,-10.460313233368993],[121.98816175895809,-10.460345626949106],[121.98794148980801,-10.460611765120802],[121.98705129678001,-10.461619140710752],[121.98668279777291,-10.461985769127921],[121.98650453775429,-10.462215989276444],[121.98636810880123,-10.462336092836381],[121.98599676613787,-10.462644270716453],[121.98586415031036,-10.46282877203015],[121.98562095564262,-10.463167108675066],[121.9854296212801,-10.463484766308852],[121.98502282734171,-10.46391992306593],[121.98460936493029,-10.464411294645458],[121.98452906356545,-10.464505505824377],[121.98447106628669,-10.464573552127661],[121.98435492064311,-10.464709831793243],[121.98402451871664,-10.465045390432351],[121.98391566567545,-10.465231974575943],[121.98376285916868,-10.465493924604914],[121.9837313343337,-10.465550283318862],[121.98350107911153,-10.465809291665437],[121.98346234441169,-10.465917436940117],[121.98340695696561,-10.466072078063917],[121.98337994312999,-10.466147951166988],[121.98318064437126,-10.466740613388538],[121.98292907611608,-10.467297832428983],[121.98289621488846,-10.467370618159464],[121.9828261810834,-10.467323330906936],[121.98277050225693,-10.467291922084485],[121.98256004740836,-10.467189288754639],[121.98252936343943,-10.467171754672677],[121.9823892994267,-10.467106414429452],[121.98218622441482,-10.467075952593063],[121.98203615364559,-10.467019676616758],[121.98165381856893,-10.46679041784347],[121.98129987418986,-10.466481087931811],[121.98129633086103,-10.466480513265026],[121.98123717705414,-10.466449592774438],[121.98115150673675,-10.466457028369121],[121.98093912194304,-10.466467771670295],[121.98081803362538,-10.466487036047852],[121.9807417729146,-10.466523831809354],[121.98061471040057,-10.466608065010121],[121.98044338865157,-10.46671656821502],[121.98032631940418,-10.466807939334899],[121.98010661772628,-10.466917607161804],[121.97989004389046,-10.466980774642991],[121.97930507357034,-10.467115767378743],[121.9791446677923,-10.467162867572256],[121.97894915428014,-10.467288823020738],[121.97878871162982,-10.467456105015174],[121.97872708198929,-10.467522101763564],[121.97870031366858,-10.467522101763564],[121.97810643916091,-10.467427419339856],[121.97807915642795,-10.467424696192722],[121.9779690461346,-10.46785247940835],[121.97772572556187,-10.468605252430393],[121.9767501464022,-10.471389221635206],[121.97646461165255,-10.473197612579725],[121.97646461165255,-10.473732990684937],[121.97646461165255,-10.473923346585138],[121.97656405328848,-10.474307776182854],[121.97660737902743,-10.474530110176374],[121.97666686558341,-10.474803748694001],[121.97671445500816,-10.475089283443651],[121.97682153008964,-10.475303435405181],[121.97684506264955,-10.475356384789279],[121.97699983327573,-10.47556863918129],[121.97702362843779,-10.475609089787611],[121.97708549370066,-10.475701889030915],[121.97709263161971,-10.475716165768404],[121.97711404717563,-10.475782790243557],[121.97712356470083,-10.475828000062108],[121.97714022104446,-10.475861312749316],[121.97719494928754,-10.475925557618325],[121.97725443494426,-10.475994562598942],[121.9772972660561,-10.476061187074095],[121.9773918900238,-10.476271802002032],[121.9774580360596,-10.47645747423303],[121.97747588220625,-10.47657644644579],[121.97747588220625,-10.476873879226105],[121.97735690909417,-10.477302182249844],[121.97715172517201,-10.477752297430527],[121.97717076112178,-10.477833197743848],[121.9770803405853,-10.477923617381009],[121.97710889495954,-10.47812349170573],[121.97723262728402,-10.478366197142236],[121.97725166323369,-10.478456616779397],[121.97727545659711,-10.478518482941581],[121.97731828770884,-10.47863269684143],[121.97733732365862,-10.478780223428544],[121.97739918982086,-10.47893726844012],[121.97797968511441,-10.479303394136309],[121.9781050658961,-10.479362592009977],[121.97829788683805,-10.479414624984884],[121.9783797233456,-10.479473833650445],[121.97845951299621,-10.479575055944053],[121.97857484115605,-10.479787924573031],[121.97868191713678,-10.479816478947271],[121.97873902408674,-10.479873585897224],[121.97882468541093,-10.479930692847176],[121.97892462257335,-10.480059182585137],[121.97907452786728,-10.48021622759677],[121.97916764097397,-10.480337436423497],[121.97923426634839,-10.480419289118856],[121.97938147907212,-10.480566009014069],[121.97963846034668,-10.480994312037808],[121.97969937862354,-10.481087140059401],[121.97984912743539,-10.4812835007329],[121.98011673240137,-10.481551105698941],[121.98036122209282,-10.481729565367118],[121.98059860803937,-10.481914958808261],[121.98062798619264,-10.481890934319097],[121.98085197673743,-10.481756561216287],[121.98097094984951,-10.481658408308874],[121.98109289791898,-10.481471025567316],[121.98111980563453,-10.481335030986827],[121.98116067622425,-10.481071050288676],[121.98118922969923,-10.480542810102577],[121.9812177831742,-10.480442872940159],[121.98128916686164,-10.480300104666071],[121.98138910402395,-10.480100230341293],[121.98143193423641,-10.47991463275406],[121.9814462109739,-10.479657650580066],[121.981646086198,-10.478943811907357],[121.98173174662293,-10.478658277157706],[121.9819030665733,-10.478401294983712],[121.98208866595928,-10.478229974133967],[121.98224571007154,-10.478072929122334],[121.98241703092128,-10.477901608272532],[121.98273112004517,-10.477573242411154],[121.98291671943116,-10.477387644823921],[121.98308803938153,-10.477059278962486],[121.98314514633148,-10.476773744212892],[121.98327363696887,-10.476302610976688],[121.98335929829307,-10.476045628802694],[121.98350206566784,-10.475745816416236],[121.98367338741696,-10.475560218829003],[121.98385898500419,-10.475288959917521],[121.98394464542912,-10.475131915805207],[121.98408741280389,-10.474803549943829],[121.98420162670379,-10.474617952356596],[121.98435867171543,-10.474275309757672],[121.98462992972759,-10.473818453258957],[121.9847713346295,-10.473458513099843],[121.98488369412723,-10.473348850668856],[121.98504395601378,-10.473233106122905],[121.98522955539977,-10.473018954161375],[121.98555791856313,-10.472719142674237],[121.98558647383675,-10.472576374400091],[121.98558647383675,-10.472419330287835],[121.98558647383675,-10.472176624851329],[121.9855721962,-10.472019580739016],[121.98554364272502,-10.471805429676806],[121.98552936598753,-10.471619831190196],[121.98552936598753,-10.471419956865475],[121.98558647383675,-10.471220081641434],[121.9856435807867,-10.470991653841679],[121.98573182316522,-10.470803404153742],[121.98597079281785,-10.470260790103339],[121.98612545822334,-10.469924690971652],[121.98619684101152,-10.469838436094903],[121.98633068621223,-10.469695667820758],[121.98646155555639,-10.469591566797305],[121.98681789213208,-10.469392941630929],[121.98688927581952,-10.46929776278148],[121.98733661479298,-10.468721933170627],[121.98758407944183,-10.468426879996457],[121.98766973896738,-10.468293630146889],[121.98776015860449,-10.468150862772063],[121.98789459825718,-10.467852240188677],[121.98807305792536,-10.467614293964459],[121.98832290128098,-10.467483423720978],[121.98865602455589,-10.46740014290225],[121.98889397167954,-10.467364450608841],[121.98919140356054,-10.467281169790112],[121.98959591322091,-10.467174093809319],[121.98990524313251,-10.467055120697239],[121.99008370190143,-10.466868729907901],[121.99016160207634,-10.466795158169987],[121.99030082792092,-10.4667467827378],[121.99041087795968,-10.466725963432395],[121.99054769721852,-10.466690270239724],[121.99114851089507,-10.466309556640681],[121.99145189269075,-10.466190584427864],[121.99151732736289,-10.466089456563111],[121.99157086580283,-10.465869355586221],[121.99156491678752,-10.465696844933404],[121.9915601108105,-10.465278786986403],[121.99161999756495,-10.465021549404923],[121.99249350097432,-10.462763564886586],[121.99317759636904,-10.462019982935828],[121.99406989470992,-10.461395374996528],[121.99475398920526,-10.460859995991996],[121.99514065181972,-10.460384104442824],[121.99576526065835,-10.45943232044516],[121.9964094135637,-10.458441683037222],[121.99689550432413,-10.457201574592943],[121.9981744643801,-10.454375964978738],[121.99894778960891,-10.452978030911368],[121.99933445222325,-10.452442652806155],[121.99986983032852,-10.452055990191752],[122.00043495261104,-10.451699070855398],[122.00094332857179,-10.45139393088516],[122.00138673660865,-10.45101497636],[122.00213031855947,-10.450152421297162],[122.00251698117381,-10.449408840245724],[122.0032131526649,-10.447750106382273]]],[[[121.99623662232227,-10.502820861693351],[121.99622271160888,-10.502815690591603],[121.99438409624906,-10.502132195944057],[121.99430282091851,-10.502114319220425],[121.99405043428021,-10.502140204406885],[121.99383628231863,-10.502161619063429],[121.99367209938794,-10.502197311356781],[121.99336514908248,-10.502268695044222],[121.99308734760302,-10.502305873916896],[121.99304259284145,-10.502311654759012],[121.99301784709598,-10.502294522674049],[121.99296454697628,-10.502243127318422],[121.99284462238143,-10.502094648349271],[121.99270375797209,-10.501925231364282],[121.99267330063242,-10.501866219650253],[121.99256098969795,-10.501734873665441],[121.99246951785403,-10.501686019793908],[121.99234588715308,-10.501721549309991],[121.99216124104851,-10.501801499039914],[121.99188522292479,-10.501896676989986],[121.99133249509862,-10.502015579955014],[121.99120374635584,-10.502043252094381],[121.99104916188935,-10.502034334416976],[121.99096199330143,-10.501995662669628],[121.99082348871309,-10.50184931509375],[121.99058341379362,-10.501532894027775],[121.98471344257143,-10.500886181651936],[121.98459018329038,-10.500949820377855],[121.9842377803493,-10.500980000726429],[121.9838380308006,-10.501018071726605],[121.98333358487707,-10.500989518251629],[121.98311467460258,-10.501018071726605],[121.98263344467784,-10.501037742597703],[121.98105677844762,-10.500561334837698],[121.9808854566985,-10.50054705810021],[121.98078908894536,-10.500575611575186],[121.98075696606122,-10.500561334837698],[121.98071770435865,-10.500507796397642],[121.98069985911127,-10.500461396776018],[121.98067487414619,-10.500397151907009],[121.98049853957605,-10.5002686918466],[121.97986831267258,-10.50012839131216],[121.97981477423252,-10.500067318352023],[121.97981477423252,-10.499992365255423],[121.97979335957598,-10.499903136320654],[121.97973268321687,-10.499856736698973],[121.97962917664529,-10.499813905587246],[121.97950782392695,-10.499806767668133],[121.97937219357198,-10.499803198258974],[121.97927225730893,-10.499803198258974],[121.9791509045906,-10.499792490930645],[121.9790438304085,-10.499792490930645],[121.97893326415885,-10.499760737667884],[121.97884038577524,-10.499628307999956],[121.97877970941613,-10.499491885342195],[121.97864289015729,-10.499497834357499],[121.9780318763701,-10.499639590894333],[121.97664644737574,-10.499898654998901],[121.97635496271141,-10.499975986802326],[121.97596235198102,-10.500083062783062],[121.97555784321992,-10.500273419582584],[121.97477875693414,-10.500451050075867],[121.97481030155427,-10.500683718179005],[121.97479602571605,-10.500847901109694],[121.97473891876621,-10.500976391747031],[121.97400682655382,-10.502256898636915],[121.97282890173244,-10.505551314041838],[121.97269336310831,-10.50612252023808],[121.97268051359492,-10.506146791141475],[121.97263054636267,-10.506181055311401],[121.97218225500717,-10.506535119300281],[121.97190814074816,-10.50676782967156],[121.97160249086232,-10.507071949810609],[121.9715226688362,-10.507160441301266],[121.97141559285535,-10.507254667768677],[121.97128710221807,-10.507336045621969],[121.97120429714062,-10.507376021386222],[121.97116575039911,-10.50739029722439],[121.97109008324082,-10.507430272089323],[121.97103297629087,-10.507455970216824],[121.97095730913259,-10.507487379039276],[121.97089734593578,-10.507517360637621],[121.97086165364249,-10.507554480155079],[121.97075315133691,-10.507647279398384],[121.97049543621551,-10.507625424973355],[121.96999479802162,-10.508603858581182],[121.96935710224852,-10.509865924872486],[121.97356459393097,-10.510830349740786],[121.97285065543349,-10.515032492255671],[121.99297310042834,-10.517193971424604],[121.99296302082678,-10.517150830046717],[121.99300336081649,-10.5169425623493],[121.99325663598506,-10.515501230597295],[121.99332906018799,-10.515027986652228],[121.9934388988861,-10.514252763853904],[121.99349281414209,-10.513978588441034],[121.99356086674072,-10.513615274924973],[121.99364392812481,-10.512954410817372],[121.99388594558002,-10.512048253024432],[121.9943865720827,-10.510208670893405],[121.99447244204964,-10.509893121270466],[121.99462987736706,-10.509305146315398],[121.99505628911652,-10.507712496434522],[121.99516564667726,-10.507216298193555],[121.99528698410711,-10.507245736601419],[121.99806876526134,-10.507920657112606],[121.99813538973649,-10.507578013614363],[121.9976119078633,-10.507473318139091],[121.997478658913,-10.507568496988483],[121.99522942569752,-10.506926909848971],[121.99547053213939,-10.505832920552791],[121.99550185102964,-10.505690740435284],[121.99553699563592,-10.50553132930736],[121.99570788660969,-10.50481099573085],[121.99578773471626,-10.50451948408687],[121.9960242366293,-10.503546632570988],[121.99612156395904,-10.503214080365467],[121.99623662232227,-10.502820861693351]]],[[[121.96935710224852,-10.509865924872486],[121.96368174431711,-10.50892076977766],[121.96311679830171,-10.51193395728626],[121.96288809620876,-10.512118241863334],[121.9621506629228,-10.51271097513137],[121.9614662491681,-10.513422866771862],[121.96026313073901,-10.514668426007006],[121.95934348041737,-10.515427548242712],[121.95878845212542,-10.515885703362471],[121.95769932456426,-10.517158142434255],[121.9570811548715,-10.518160801080057],[121.95666823565057,-10.518830545093522],[121.95650931105592,-10.519106818624721],[121.95580720493865,-10.520327371311112],[121.95515414244983,-10.521648487087987],[121.95434561056152,-10.523807896017559],[121.9542792999498,-10.524444067439731],[121.9542228935718,-10.525014888726105],[121.9541234987006,-10.526286760325661],[121.95410120180907,-10.526572075640729],[121.9539495464345,-10.528356763154022],[121.95393645140621,-10.52851074867209],[121.9539596458211,-10.529130404944169],[121.95399364559034,-10.53003917167041],[121.95401201694108,-10.530529988368244],[121.95406758155366,-10.530942431847677],[121.95230333563052,-10.53597887362605],[121.95228608303637,-10.536015878929618],[121.95241552515643,-10.536158647203763],[121.9524973787511,-10.536246210594072],[121.95258494304073,-10.536312835968545],[121.95272961428032,-10.536398497292794],[121.9531369783889,-10.536564107447532],[121.95346439186824,-10.536691645702831],[121.95357289507308,-10.536739236026847],[121.95363190588785,-10.536779210891837],[121.95366236322752,-10.53680966823157],[121.95370233809251,-10.536874388841909],[121.95375754117765,-10.536992409572008],[121.95386692391946,-10.537304761205746],[121.95390030855242,-10.53740929210511],[121.95402023404665,-10.537753837669413],[121.954044979792,-10.537810944619366],[121.95407734099661,-10.537879472959276],[121.95410208674195,-10.537927063283291],[121.95411160516653,-10.537953712893511],[121.95411541199678,-10.537986073198681],[121.95410970220109,-10.53805079470834],[121.95405397571051,-10.538290122291244],[121.95402713724263,-10.538359081406441],[121.95392188508697,-10.538540457576005],[121.953641079872,-10.538766869095696],[121.95316642938724,-10.539100672258144],[121.95315333076167,-10.539112116131207],[121.95307382080023,-10.53920174256632],[121.9530628769503,-10.539226615116149],[121.95651121671938,-10.539646513076093],[121.95690843017996,-10.539693555712972],[121.9571644680658,-10.539770962160105],[121.9573094118,-10.539809721141694],[121.95736734432751,-10.539838623553578],[121.95744940656493,-10.539881960084358],[121.95750481379616,-10.53997260185406],[121.95751668934383,-10.540006597126705],[121.95749220440177,-10.540097434948621],[121.95748709535326,-10.540178766037172],[121.95749170617739,-10.540245775422136],[121.95755924526304,-10.540293848682097],[121.95762847597348,-10.540305501197849],[121.96406729267153,-10.540580137962934],[121.96460050610858,-10.540731052296167],[121.96474445968909,-10.540809361662639],[121.96499537683519,-10.540972879994342],[121.96527518200412,-10.541174773297087],[121.96547758342376,-10.54138598357622],[121.96572830901437,-10.541606922721257],[121.96594992534881,-10.541856477394447],[121.96620052503431,-10.542115697981046],[121.96641227940324,-10.542422642890585],[121.96661449016665,-10.542691274882372],[121.96676834258506,-10.542959748593489],[121.96691220443472,-10.543323893982461],[121.96698865220458,-10.543601685569286],[121.96706431576558,-10.543828793164209],[121.96713241512896,-10.543977113852691],[121.96714136608125,-10.543986050415867],[121.96726016292621,-10.544113841380636],[121.96738088342113,-10.544166872603057],[121.96756925811485,-10.544234480037176],[121.96783506983263,-10.544283199010351],[121.96807676622984,-10.544312698572128],[121.96841638890533,-10.544340778104356],[121.96904805382474,-10.544372590722446],[121.96918551879673,-10.544373038584808],[121.96939112180291,-10.544349782116683],[121.96954836556472,-10.544326368267264],[121.96989535818432,-10.544297305776013],[121.97014037038184,-10.544096617564776],[121.97201963959481,-10.542557298380586],[121.97209779697585,-10.542542094442069],[121.97261907820791,-10.542440689586101],[121.97336402622886,-10.54182108817264],[121.97339999731207,-10.541791170426109],[121.97432806618735,-10.540742031219736],[121.97460259773175,-10.540431684174848],[121.97344903374596,-10.539021356550336],[121.97329000842717,-10.53882693301648],[121.97263479835738,-10.53769853206154],[121.97258851834556,-10.537418088374011],[121.97245862476575,-10.5366309639478],[121.97240166890197,-10.535741615383188],[121.97227699408802,-10.535266478365259],[121.97210588457892,-10.53461437994963],[121.97144793517418,-10.534315856291698],[121.97159816242527,-10.533421204424997],[121.9717892926418,-10.53228294330313],[121.97182973965084,-10.532042062591074],[121.9718757066986,-10.531768307161599],[121.97201126870516,-10.53108908339442],[121.97227745813825,-10.531259385312353],[121.9724095181848,-10.53136646039377],[121.97250945534711,-10.531419997934506],[121.97265936064105,-10.531434274671994],[121.97280212891519,-10.531405721197018],[121.9728663737842,-10.531355753065498],[121.97291634281498,-10.531202276563761],[121.97298829127669,-10.53098269269708],[121.97300914205834,-10.53084178871751],[121.97308766366484,-10.530748990373581],[121.97317332498903,-10.530713298080173],[121.97323400134815,-10.530716866590069],[121.97339818427884,-10.530777543848501],[121.973686434981,-10.53084289308498],[121.97392999297483,-10.530902465076679],[121.97414771434558,-10.530856066354318],[121.97432260370522,-10.530770405030125],[121.97439398829204,-10.530670467867765],[121.97443324909523,-10.530534839311315],[121.97441301165122,-10.53026276831207],[121.9744225417669,-10.530113674206632],[121.9745276608229,-10.529905747352302],[121.97467595363241,-10.52967823326378],[121.97473306058237,-10.529456943383195],[121.97476161495661,-10.528996516575944],[121.97476877266081,-10.528940256787394],[121.97485441419997,-10.528543230385708],[121.97484155389463,-10.527995109786445],[121.97484727538153,-10.527807976157135],[121.97488296677557,-10.527683054929014],[121.97492579788729,-10.527593825094925],[121.9751232980019,-10.527318610965096],[121.97544220839131,-10.526587846152154],[121.97546241975488,-10.526483945677512],[121.97548697574337,-10.526357714137134],[121.97552716464702,-10.52629861698756],[121.97578613522205,-10.525974995049921],[121.97591222826679,-10.525767580809145],[121.97591922858965,-10.525662336747416],[121.9758985486792,-10.525513936019308],[121.97568841488851,-10.525201276817427],[121.97559085733224,-10.525098960048922],[121.97542094032417,-10.52494836227703],[121.97521264834506,-10.524853153749973],[121.97512283485105,-10.524843379918025],[121.97495925086878,-10.52487502796015],[121.97477708059785,-10.524953813067953],[121.97472235415341,-10.524965710199297],[121.9746389213492,-10.524962457351478],[121.9738348150247,-10.524994263674273],[121.97361365464656,-10.52495934030128],[121.9733946139703,-10.524915741168456],[121.97326374372687,-10.524915741168456],[121.97304007513947,-10.524968089805441],[121.97286399507732,-10.524975227724553],[121.97273788314681,-10.524960950987065],[121.97265222272199,-10.524875290562136],[121.97235840071971,-10.524606097393416],[121.97205735716136,-10.524456505063597],[121.9718551032305,-10.524399398113701],[121.97148152755051,-10.524320875607884],[121.97148434872372,-10.524278177595761],[121.97166438670217,-10.523231642826033],[121.97203183889826,-10.520802450772464],[121.97281723932417,-10.515267967142904],[121.97285065543349,-10.515032492255671],[121.97356459393097,-10.510830349740786],[121.96935710224852,-10.509865924872486]]],[[[121.99464209285838,-10.4861739861405],[121.99450927108603,-10.486132559769771],[121.99343779721664,-10.485762628142709],[121.99309872402694,-10.48567339830862],[121.99102264358021,-10.485804268552101],[121.99080254440196,-10.485822113799486],[121.99035044711547,-10.485822113799486],[121.98982101712625,-10.485715038718013],[121.98942840459722,-10.485661500277956],[121.98847662059961,-10.485494938640443],[121.98751293857129,-10.485203453976169],[121.98726309611504,-10.484941712589944],[121.98692997194075,-10.484769202836389],[121.98665038530714,-10.484662126855596],[121.98631411530425,-10.484548683674745],[121.98621613326804,-10.48455505087486],[121.98575213885022,-10.484662126855596],[121.98511452401613,-10.484694703897446],[121.9850648346744,-10.484706823161332],[121.9848531873248,-10.484789303583455],[121.98469461616367,-10.484792288433312],[121.98451252143582,-10.484827952847695],[121.98443202222006,-10.484849979942567],[121.98437451237396,-10.484858886828135],[121.98433406086826,-10.484846989696791],[121.98476494764429,-10.487058212166687],[121.98420577437707,-10.48760548830262],[121.98268291908153,-10.489485262934465],[121.98226651408845,-10.491198475029535],[121.9822784112198,-10.491710058872059],[121.98219513040101,-10.493006865074733],[121.98174931937569,-10.494289081575801],[121.98128994297656,-10.494607369634366],[121.98076170279046,-10.495214132326282],[121.98077598042721,-10.495321208307075],[121.98085450203371,-10.4954425610253],[121.98096157801444,-10.495556774925149],[121.98104723843937,-10.495649574168453],[121.98102582288345,-10.495820895018255],[121.98066176562804,-10.49654187161002],[121.98037622997913,-10.496891652127999],[121.98024773934173,-10.497191465413778],[121.97984442038376,-10.49811291078214],[121.97963621833685,-10.498440086840503],[121.97945180965337,-10.498648289786672],[121.97925550383854,-10.498785108146194],[121.97900565958355,-10.498933825435643],[121.97885694409274,-10.499189616907245],[121.97877970941613,-10.499491885342195],[121.97884038577524,-10.499628307999956],[121.97893326415885,-10.499760737667884],[121.9790438304085,-10.499792490930645],[121.9791509045906,-10.499792490930645],[121.97927225730893,-10.499803198258974],[121.97937219357198,-10.499803198258974],[121.97950782392695,-10.499806767668133],[121.97962917664529,-10.499813905587246],[121.97973268321687,-10.499856736698973],[121.97979335957598,-10.499903136320654],[121.97981477423252,-10.499992365255423],[121.97981477423252,-10.500067318352023],[121.97986831267258,-10.50012839131216],[121.98049853957605,-10.5002686918466],[121.98067487414619,-10.500397151907009],[121.98069985911127,-10.500461396776018],[121.98071770435865,-10.500507796397642],[121.98075696606122,-10.500561334837698],[121.98078908894536,-10.500575611575186],[121.9808854566985,-10.50054705810021],[121.98105677844762,-10.500561334837698],[121.98263344467784,-10.501037742597703],[121.98311467460258,-10.501018071726605],[121.98333358487707,-10.500989518251629],[121.9838380308006,-10.501018071726605],[121.9842377803493,-10.500980000726429],[121.98459018329038,-10.500949820377855],[121.98471344257143,-10.500886181651936],[121.99058341379362,-10.501532894027775],[121.99082348871309,-10.50184931509375],[121.99096199330143,-10.501995662669628],[121.99104916188935,-10.502034334416976],[121.99120374635584,-10.502043252094381],[121.99133249509862,-10.502015579955014],[121.99188522292479,-10.501896676989986],[121.99216124104851,-10.501801499039914],[121.99234588715308,-10.501721549309991],[121.99246951785403,-10.501686019793908],[121.99256098969795,-10.501734873665441],[121.99267330063242,-10.501866219650253],[121.99270375797209,-10.501925231364282],[121.99284462238143,-10.502094648349271],[121.99296454697628,-10.502243127318422],[121.99301784709598,-10.502294522674049],[121.99304259284145,-10.502311654759012],[121.99308734760302,-10.502305873916896],[121.99336514908248,-10.502268695044222],[121.99367209938794,-10.502197311356781],[121.99383628231863,-10.502161619063429],[121.99405043428021,-10.502140204406885],[121.99430282091851,-10.502114319220425],[121.99438409624906,-10.502132195944057],[121.99622271160888,-10.502815690591603],[121.99623662232227,-10.502820861693351],[121.99637628793539,-10.502343544718769],[121.99650757366567,-10.502035888445448],[121.99658344766806,-10.501876559155846],[121.99661645638446,-10.501665553022804],[121.99667541323981,-10.501540802665886],[121.99671752759184,-10.501474244740564],[121.99672760719341,-10.500989282629234],[121.99668399187283,-10.500621726111717],[121.99665548066594,-10.500517358888942],[121.99659742223332,-10.500320391173091],[121.99649529702037,-10.500086919076011],[121.99645620528975,-10.500035580377698],[121.99642927509103,-10.500000212739565],[121.99642911321303,-10.499999999600277],[121.99637319426756,-10.499926576250459],[121.99565520612293,-10.499285245417695],[121.99515294015612,-10.498611702667915],[121.99515594928766,-10.498450670961631],[121.99527210392455,-10.497676826824033],[121.99542164679167,-10.497147968803688],[121.99567271142655,-10.496522590145389],[121.9957740326455,-10.496357831648538],[121.99583554087758,-10.496152713377001],[121.99582537314257,-10.495948711164033],[121.9957542808354,-10.495853116827845],[121.995682791028,-10.49582600856337],[121.99551759905796,-10.495762314978833],[121.99548147509006,-10.495622457810157],[121.99546276829221,-10.495084206370962],[121.9955256731713,-10.494895527706376],[121.99562323342559,-10.494832247809939],[121.99569601465942,-10.494737405306978],[121.99567005662789,-10.494578977138019],[121.99555554055587,-10.494329519591588],[121.99531614372506,-10.493998939599351],[121.99513030062292,-10.493872174761009],[121.99492973471956,-10.493863068225949],[121.99456580696653,-10.493878955649222],[121.9944462951604,-10.493792218735848],[121.99436775916479,-10.493649189658356],[121.9943661098082,-10.493406543577066],[121.9944312692877,-10.493154516667573],[121.9945892001316,-10.492563060436851],[121.9944948639469,-10.492161404325316],[121.99432049259667,-10.491751013098735],[121.99421850857732,-10.491689611886045],[121.99394670827405,-10.491583650165296],[121.9937699087543,-10.491504981969285],[121.99369323615394,-10.491408204125264],[121.99371149419017,-10.491300076837035],[121.993764892336,-10.491056679821895],[121.99364457563672,-10.490654765604916],[121.99353526663936,-10.490271583366848],[121.99356049981725,-10.490075312625549],[121.99356211140241,-10.490016794639303],[121.99357086270516,-10.489703028371991],[121.99348048983279,-10.489387048873141],[121.99353185281279,-10.48913655171043],[121.99424154561086,-10.487224223419105],[121.99442217894045,-10.486697084003197],[121.99448022388333,-10.486518160284845],[121.99464209285838,-10.4861739861405]]]]},"properties":{"OBJECTID":435,"nama_kawasan":"Kawasan perbatasan Kecamatan Perbatasan Prioritas Kec. Sabu Timur, Sabu Liae, Hawu Menhara, Raijua - Kab. Sabu Raijua","delineasi_asal":"Sabu Timur","Shape_Length":0.9689094385071142,"Shape_Area":0.0040770948456604382}}]}