{"type":"FeatureCollection","features":[{"type":"Feature","id":436,"geometry":{"type":"Polygon","coordinates":[[[125.06649972418302,-9.0314406880372644],[125.06648960231337,-9.0314253536970455],[125.06648900696212,-9.0314033436893055],[125.06648805458008,-9.0313814532913739],[125.06649281379237,-9.0313398119827184],[125.06648995934427,-9.0313122099904604],[125.0664941232053,-9.0312979341522919],[125.06649888241759,-9.0312830620636078],[125.06650268924773,-9.0312447527430777],[125.0665032836996,-9.0312322602605377],[125.0664904350856,-9.0312072761947775],[125.06648864993133,-9.0311935939091654],[125.06647508725553,-9.0311743214377316],[125.06647032804324,-9.0311612336039957],[125.06645664575763,-9.0311451717122395],[125.06643737328625,-9.0311173322990044],[125.06642250119751,-9.0310887788240279],[125.06641179296992,-9.0310709326773804],[125.06638109820915,-9.0310330999975008],[125.06634957067615,-9.0309890799820209],[125.06633719690421,-9.0309674261058035],[125.0663122128384,-9.0309251912445347],[125.06630745362611,-9.030903775688671],[125.06630507491934,-9.0308835499358224],[125.06630507222133,-9.0308597556731343],[125.06630507222133,-9.0308389363677861],[125.06630507491934,-9.0308187097156178],[125.06630566937122,-9.030787182182678],[125.06630447956809,-9.0307657666267573],[125.06630209996206,-9.0307443519702133],[125.06629912590404,-9.0307217466112775],[125.06629317688862,-9.0306991421516614],[125.06627652144437,-9.0306652350125205],[125.06626819282292,-9.0306402509467603],[125.06625986510073,-9.0306188353908965],[125.06625094202741,-9.0305914717189921],[125.06624142360283,-9.0305724357692725],[125.06622655241358,-9.0305379341782555],[125.06621941359515,-9.0305212778346799],[125.06621108587296,-9.0304998622787593],[125.06617491783823,-9.0304363305721722],[125.06615826239397,-9.0303994493750679],[125.0661439847571,-9.0303804134252914],[125.06613756089973,-9.0303704201587038],[125.06612685267214,-9.0303604259927965],[125.06608878167197,-9.0303318716185572],[125.06607521899627,-9.0303275890469763],[125.06604309611203,-9.0303252103401519],[125.06602310778021,-9.0303180724210392],[125.06600383530883,-9.0303073641934475],[125.06599312708124,-9.0303002262743917],[125.06596814301543,-9.0302731000235212],[125.06595267557555,-9.0302504946645286],[125.06594077934358,-9.0302255105987683],[125.06591650933944,-9.0301862488962001],[125.0658986631928,-9.0301565056182085],[125.06587225100361,-9.0300993986682556],[125.06584250682624,-9.0300422917183596],[125.06582680286476,-9.0300287290425558],[125.06581038484148,-9.0300158804284933],[125.06575000615794,-9.0299647215945811],[125.06573358813466,-9.0299540142663091],[125.06571716921201,-9.0299425928762957],[125.06570378460208,-9.0299321823243304],[125.06568379716953,-9.0299171924244206],[125.06566595102288,-9.0299038069151152],[125.06565024706128,-9.0298902442393114],[125.06563091433532,-9.0298768596293257],[125.06561449631204,-9.0298583003202566],[125.06560450214613,-9.0298411682352935],[125.06558516942005,-9.0298218346099475],[125.06557588931594,-9.0297982777682364],[125.06556399128522,-9.0297804316215888],[125.06555756742785,-9.0297575888416191],[125.06555607994915,-9.0297337945789309],[125.06555251143936,-9.0297209459648116],[125.06555251143936,-9.0297038138798484],[125.06555548459801,-9.0296829927758608],[125.06555548459801,-9.0296744267333793],[125.06555548459801,-9.0296622921810012],[125.06555845865603,-9.0296459326136755],[125.06555489014613,-9.0296295145903969],[125.06555488744812,-9.0296072078063503],[125.06554299301479,-9.0295893616596459],[125.06553514013467,-9.0295765130455834],[125.06552443280634,-9.0295636626328815],[125.06550510008037,-9.029539869269513],[125.06549938938542,-9.0295270197561308],[125.06549796126194,-9.0295091736094264],[125.06549796126194,-9.0294899002386728],[125.06549795766466,-9.0294601569606243],[125.06548725033645,-9.0294337447714383],[125.06549469042773,-9.0294158986247908],[125.0655011142851,-9.0293944839681899],[125.06551003735842,-9.0293736628642023],[125.06551646211506,-9.0293615283118243],[125.06552990608031,-9.0293374957287824],[125.06553585419636,-9.029286932246066],[125.06554180321166,-9.0292613528291099],[125.06554775222708,-9.029250050149642],[125.06555816187972,-9.0292322049023142],[125.06557838673325,-9.0292203068715935],[125.06558730980657,-9.0292143587556097],[125.0656036693739,-9.029205435682286],[125.06560902303806,-9.0291982968638536],[125.06561943269071,-9.0291893737905298],[125.06562538170601,-9.0291789641378273],[125.06562597615789,-9.0291670670064832],[125.06562746363659,-9.0291521949177991],[125.06562746183795,-9.0291388112071331],[125.06562091927003,-9.0291275076283455],[125.06559117689142,-9.0291066883229405],[125.0655792788607,-9.0290936013885243],[125.06556292109201,-9.0290817042571803],[125.06554328979109,-9.0290680219715682],[125.06551057335435,-9.0290457142882588],[125.06546714689136,-9.0290124016009941],[125.06544186604935,-9.0289945563536662],[125.0654067691072,-9.0289820638711262],[125.06537702492983,-9.0289627311451],[125.06537345641993,-9.0289621357939041],[125.06536512779849,-9.0289573765816158],[125.06534876913042,-9.0289469669289133],[125.06533687199908,-9.0289398281105377],[125.06527842775733,-9.028869581166191],[125.06523464606209,-9.0288229432242133],[125.06519562267988,-9.0287763061815554],[125.06516897306972,-9.0287468003245408],[125.06514993711994,-9.0287325235870526],[125.06513756424727,-9.0287287158574827],[125.06498258857562,-9.0283060722673554],[125.0649812279014,-9.0283027222927785],[125.0617540988726,-9.0282262547378309],[125.06155319212621,-9.0282214946262229],[125.06141685760201,-9.0282087296491227],[125.06122498814273,-9.0281907647919297],[125.06099491098644,-9.0281559736192207],[125.06077575339839,-9.0281227058981131],[125.06069024765691,-9.0280702250607874],[125.0604916260877,-9.0279483156621723],[125.06015173901164,-9.0277517679297148],[125.05973273497784,-9.0274714699323226],[125.05944595736514,-9.0272651303814087],[125.05936712099594,-9.0272302169009322],[125.05913187813371,-9.0271260394351316],[125.05869551178853,-9.0269841551945547],[125.0584486191085,-9.0269464448224994],[125.05827773712792,-9.0269203446981123],[125.05812114267667,-9.0269318128528084],[125.05795297125269,-9.0269441290682835],[125.05782916968053,-9.0270140450620602],[125.05773412213205,-9.0270677228970726],[125.05741453275459,-9.0272499291408508],[125.05706705719899,-9.0274382228956256],[125.05669685127873,-9.0276388337651383],[125.05629165723428,-9.0278229096994664],[125.05610271956493,-9.0279155542593799],[125.05572626785306,-9.0281001446059577],[125.05504439108586,-9.0284903145762883],[125.05482163261229,-9.0286177772885594],[125.05462810030667,-9.0290168316614086],[125.05450096404832,-9.0295138770637209],[125.05440506843922,-9.0298040783954434],[125.05428887603091,-9.030187133829088],[125.05415676292432,-9.0303717232763461],[125.0539730359269,-9.0305860173307906],[125.05373021177991,-9.0308153489491474],[125.05337619005923,-9.031066525100016],[125.05308938366818,-9.0313042959564314],[125.05307477777887,-9.0313135805572529],[125.05280928082368,-9.0314823581242649],[125.05235180469208,-9.0316908290684523],[125.05210116903379,-9.0317599329744667],[125.0520847932786,-9.0317644475711631],[125.05164479097436,-9.0317865735914324],[125.05005361058568,-9.0317280556052424],[125.04952156177069,-9.0318164787474302],[125.04920662008954,-9.0317520863896448],[125.04910701927361,-9.031736686398915],[125.04883121878584,-9.0316940432454658],[125.0482559161776,-9.03158900512841],[125.04760842678752,-9.0316135062582816],[125.04674869379721,-9.031658653124282],[125.04561902839555,-9.0317179760037334],[125.04498083529734,-9.0317685961437633],[125.04467257018302,-9.0317930469115595],[125.04399190929928,-9.0317571109018786],[125.04343658243238,-9.0318185858590141],[125.04324827338917,-9.031839432144011],[125.04306221444972,-9.0318607110029916],[125.04286134817278,-9.0318836832852867],[125.04266391191004,-9.0319192433783542],[125.04254022814905,-9.032023794062809],[125.04239700032133,-9.0321448643939561],[125.04228019817265,-9.0322450290847769],[125.04219230203319,-9.0323204048627304],[125.04200887271134,-9.0325327680727696],[125.04199395835451,-9.032550035955353],[125.04177202455935,-9.0328880470456738],[125.04162757005633,-9.0330994021156812],[125.04132364956683,-9.0335440719013604],[125.0411721938417,-9.0337994775637753],[125.04104949393911,-9.0339469214132464],[125.04092582456724,-9.034095528086084],[125.04079341558372,-9.0342143815884128],[125.04075728711916,-9.0342468129400118],[125.04062474143871,-9.0343437724470732],[125.04051183875038,-9.0343818821181117],[125.04044359459624,-9.0344049182523349],[125.04026619522881,-9.0344485560559633],[125.04026497484881,-9.0344488564295489],[125.04026012840222,-9.0344486477868031],[125.0401231769431,-9.0344427833077816],[125.0400331017463,-9.0344219918814019],[125.03999596873905,-9.0344134213422649],[125.03995735005174,-9.0343920039877617],[125.03985639215887,-9.0343360166937714],[125.03908721370397,-9.0336441637471125],[125.03902898709816,-9.0335877510738101],[125.03898077084591,-9.0335410375887477],[125.03886532487491,-9.0334514723075472],[125.03877509589404,-9.0334347476154448],[125.03873694395486,-9.0334276771455393],[125.03869244460066,-9.0334125793270346],[125.03859874333739,-9.0333807855947157],[125.03855128521366,-9.0333877949107659],[125.03842949362627,-9.033405782251009],[125.03827862875573,-9.0334727727502013],[125.03813411939416,-9.0335938529738655],[125.03779555612005,-9.0340747222705886],[125.03764384858482,-9.0344388883439706],[125.03757118066551,-9.0346133262439707],[125.03731335222949,-9.0350663417382293],[125.03728962721459,-9.0351080271137221],[125.03726102517624,-9.0351547343034895],[125.0370198665737,-9.0355485393336039],[125.03675568262872,-9.0359048246479006],[125.03671930595124,-9.0359431573508004],[125.03641361109931,-9.0362652783198882],[125.03620210224528,-9.0364371198771209],[125.03598386736167,-9.0365605095598198],[125.0358583597756,-9.0366314723644905],[125.03546129560232,-9.0367930211809266],[125.03542377498729,-9.0368082871726756],[125.03531701197062,-9.0368539385583517],[125.03474416720962,-9.0370988887027011],[125.03408936183462,-9.0372667309748067],[125.03353037562636,-9.0373849954211778],[125.03219200006083,-9.0376681523632669],[125.03159150204624,-9.0378808006583995],[125.03132944409867,-9.0380127779673103],[125.03119021016016,-9.0380939903453168],[125.03112692576713,-9.0381309030187253],[125.03105390891085,-9.0382226770348666],[125.03096355492414,-9.0383362416242221],[125.03092920082202,-9.0384803813644794],[125.03087471989249,-9.038708969243487],[125.03083477380585,-9.0388948051510738],[125.03079495812085,-9.0390800349156279],[125.03077042011887,-9.039528337063075],[125.03077021057686,-9.0395321537858422],[125.03084895521522,-9.0397671493344092],[125.03092743095624,-9.0400013435871074],[125.0312864583035,-9.0405469829568688],[125.03136391241469,-9.0406646952194478],[125.03156008692849,-9.0409289223318297],[125.03161085096008,-9.0410552968643856],[125.03166153315328,-9.0411814690494907],[125.031675710066,-9.0412806813583302],[125.03168954523642,-9.0413775023698122],[125.03168992834753,-9.0413801841481245],[125.03165456880333,-9.0415611718105993],[125.03159203084761,-9.0417603896302126],[125.03148912142592,-9.041927068179632],[125.03145577276575,-9.04198107966306],[125.03137429059109,-9.0421115434129433],[125.0311233851362,-9.0425132768662024],[125.03088888421473,-9.0428580823345897],[125.03053611884684,-9.0431945034235355],[125.03041840478556,-9.0432855570827542],[125.03030070511352,-9.0433765990507595],[125.03003634310278,-9.0434722572388182],[125.0294931184128,-9.0436884200844929],[125.02888462092858,-9.0438273833270273],[125.02777818141806,-9.0438736417551127],[125.02618412140009,-9.0439340006535645],[125.02513805607646,-9.0439736112930973],[125.02508181157646,-9.0439428787607881],[125.02507959294894,-9.0439416655753462],[125.02497843360788,-9.0437988136642957],[125.02484528538173,-9.0435439026289828],[125.02461787741322,-9.0432583364030279],[125.02430518763435,-9.0428764204104368],[125.02425036226452,-9.042822522241579],[125.0241954613515,-9.042768550328276],[125.02405825628352,-9.0426381630207402],[125.02392119510716,-9.0425079142088407],[125.02372608988719,-9.0423900166858857],[125.02359298842578,-9.0423095867180336],[125.02324671976032,-9.0422314068538867],[125.0228646472857,-9.0422063967077975],[125.02266462637147,-9.0422165410604975],[125.02246463873212,-9.0422266827151816],[125.02216214097007,-9.0422981941063085],[125.02212988858355,-9.0423058185586456],[125.02209731244113,-9.0423245073700969],[125.02182042197501,-9.0424833483278348],[125.02078263491069,-9.0432397681007615],[125.02039848320351,-9.0436313823823298],[125.02038854929219,-9.0438221699571386],[125.02038888383993,-9.0438235306314141],[125.02038992975156,-9.0438277727334935],[125.02052341792148,-9.0443694406970963],[125.020676433071,-9.0449030570304103],[125.02067907707783,-9.0449122768800407],[125.0209645389823,-9.0457258197907322],[125.02107689038621,-9.0460460099153579],[125.02118940726541,-9.0463138172288495],[125.02133678816233,-9.0466646076854431],[125.02145262713714,-9.0470526750409022],[125.0215572884382,-9.047474702595423],[125.02159402574375,-9.0479468241865675],[125.02160104675102,-9.0483897286030697],[125.02160102786524,-9.04838995523221],[125.02157967076528,-9.0486412006308683],[125.02155838111446,-9.0488916672165942],[125.02152740036934,-9.0490293498245933],[125.02149626494077,-9.0491677204138909],[125.0214136999823,-9.0493480650611104],[125.02113974490339,-9.0496487902594254],[125.02091619322778,-9.0498433837651078],[125.02088956610066,-9.0498665619921894],[125.02082822963916,-9.0499199529434122],[125.02073476309886,-9.0500013119109894],[125.02038070540527,-9.0501891973735269],[125.0202934271,-9.050218151946126],[125.01986620596074,-9.050359883301951],[125.0193870417786,-9.050463939359247],[125.01914185061594,-9.0505438594115617],[125.01901430156886,-9.0505854341703866],[125.0188803133758,-9.050613880626031],[125.01833080332392,-9.0507305478764124],[125.01757566598428,-9.0507788792418182],[125.01678733916447,-9.0507597137897164],[125.01677578377542,-9.0507600213578598],[125.0167709867917,-9.0507601481622828],[125.01672232897238,-9.050756922294056],[125.01636170982511,-9.050733013817478],[125.01528153501488,-9.0506611346036152],[125.01421086244136,-9.0505898894118104],[125.01408279808277,-9.0505757547672374],[125.01331473119001,-9.0504909891677698],[125.01259484187847,-9.0503107902107445],[125.0124844950634,-9.0502831693327721],[125.01242835038818,-9.0502631720077602],[125.01205502561902,-9.0501302036459492],[125.01168652391402,-9.0500330390934209],[125.01149993617321,-9.0500114589615919],[125.01131343386794,-9.0499898887223367],[125.01116349439985,-9.0500042697811978],[125.0110134937778,-9.0500186562359772],[125.01064095591539,-9.0500749394068976],[125.01046394595437,-9.0501392013629811],[125.01028700703978,-9.0502034381381122],[125.00994230229549,-9.0503590055636209],[125.00962532904578,-9.0505957781725783],[125.00939034968496,-9.0508592201768465],[125.0093003005685,-9.0510224570207356],[125.00921028292828,-9.0511856390060075],[125.00915210128846,-9.0513486069526152],[125.00909387198465,-9.051511707998884],[125.00905036098538,-9.05186449674909],[125.00900076337462,-9.0528919793812861],[125.00900069232819,-9.0528934470748936],[125.00864272977822,-9.055496214578568],[125.00835800082109,-9.0575664988947437],[125.00832846798448,-9.0576658272161126],[125.00820279941968,-9.0580884923899703],[125.00802307980132,-9.0584781866189701],[125.00786529644631,-9.0587140059465696],[125.00770740517271,-9.0589499862527987],[125.00756858042575,-9.0592180894432204],[125.00744467273353,-9.0594573828519174],[125.00729415500132,-9.0598652676679308],[125.0071952016973,-9.0600510307304489],[125.00709614676987,-9.0602369844492046],[125.00698346621402,-9.0604275399988978],[125.00687090706674,-9.0606178887045417],[125.00655134556825,-9.0610045998823239],[125.0054686193813,-9.0619363442868348],[125.00411170698976,-9.0629275779453451],[125.00353926962168,-9.0633300002792225],[125.00309526713295,-9.0636217052774555],[125.00255117819438,-9.0639049170782187],[125.00208777822843,-9.0640766669046116],[125.00162371366355,-9.0641784989385314],[125.00145478141314,-9.064360427291831],[125.00136873697772,-9.0644530889388761],[125.00134018440201,-9.0645530270005565],[125.00141870600851,-9.0647029331937574],[125.00168557442976,-9.0648696576085399],[125.00186760260783,-9.0649731641801168],[125.00199609324522,-9.0650302711300697],[125.00213172270094,-9.0650409793576614],[125.00224950601,-9.0650159943925814],[125.00281700699929,-9.0648446726434599],[125.00307755768324,-9.0647268902337714],[125.00338450888808,-9.0646055366161704],[125.00388526579241,-9.0646911979403626],[125.00399234177326,-9.0648161200678601],[125.00410655567305,-9.0650124249833652],[125.00417794025975,-9.0651658996864626],[125.00424218602814,-9.0652515610107116],[125.00434569170034,-9.0652908218139032],[125.0043885219128,-9.0653657749105605],[125.00440993836798,-9.065497834957057],[125.00440636805945,-9.06560491093785],[125.00438138399375,-9.0657298330652907],[125.00435639992793,-9.0661652740081422],[125.00427073860374,-9.0667613293717864],[125.00428144683133,-9.0671503706930139],[125.00437067666542,-9.067325260951975],[125.00445276768119,-9.0674930132918803],[125.00449916730281,-9.067546550832617],[125.00461695061188,-9.0676250733384336],[125.00473116541104,-9.0676786108791703],[125.00482396375503,-9.0677428566474418],[125.00489891685163,-9.0677892562691227],[125.0049667311298,-9.0677785489408507],[125.00501313075142,-9.0677571342842498],[125.00508094592897,-9.0677357178290663],[125.00514162228808,-9.06778211835001],[125.0051666063539,-9.0678927628406996],[125.00515589902557,-9.068003408230652],[125.00510592999478,-9.0681211906403973],[125.00486679396738,-9.0683960189610389],[125.00457768980857,-9.0687208154132577],[125.00444206035286,-9.0689777966879319],[125.00429572266955,-9.0691705330935974],[125.00416723293154,-9.0693133013677425],[125.00407086427902,-9.0694346540859669],[125.0039816353443,-9.0696095443449281],[125.00394237364173,-9.0697487423105372],[125.00394237364173,-9.0698915096853625],[125.00402089614749,-9.0701484918593565],[125.00439566073123,-9.0706803005553525],[125.00459910536449,-9.0709658371036426],[125.00480968701754,-9.0711407273626037],[125.00540931089108,-9.0713870013090059],[125.00556992531187,-9.0714548155872308],[125.00570555386832,-9.071561891567967],[125.00583047599571,-9.0717082292513282],[125.00593041315813,-9.0718117349235854],[125.00604462705792,-9.0718759806919138],[125.0062587790195,-9.0718866880201858],[125.00639083906606,-9.0718866880201858],[125.00644437660674,-9.0719330876418098],[125.00647649859161,-9.0719937640009789],[125.00649791504679,-9.0720651476883631],[125.00650148355669,-9.0721293925573718],[125.00644437660674,-9.0722935763873807],[125.00639797698511,-9.0724541899089104],[125.00634087003516,-9.0726040961021113],[125.00634443944443,-9.0728646467860017],[125.00646936067255,-9.0731823053191079],[125.00653003703167,-9.0735856233777668],[125.00655859140591,-9.0738925736832812],[125.0065371758501,-9.0743315840353489],[125.00652289911261,-9.0744993363752542],[125.00656572932496,-9.0746206890934786],[125.00670135878079,-9.0747420409123833],[125.00682984941807,-9.0748348401556882],[125.00696547887378,-9.0749383467272651],[125.00727956799767,-9.0753380962760843],[125.00730347467572,-9.0753995730318024],[125.00730397110146,-9.0754008482704762],[125.00730455206349,-9.0754023420444128],[125.00728670591684,-9.0755236938633175],[125.00725101362343,-9.0756022163691341],[125.00713323121374,-9.075727137597255],[125.00677988128655,-9.0760340888020892],[125.006383701147,-9.076262516601787],[125.00616954918542,-9.0764338383509084],[125.00608388786122,-9.0765266366948936],[125.00598752010808,-9.0767193731005591],[125.00586616828912,-9.0768835560312482],[125.0057697996366,-9.0770156160778015],[125.00574124616162,-9.0771797990084906],[125.00584118332404,-9.0774760419856761],[125.00587687471807,-9.0776152399513421],[125.00587687471807,-9.0776830551288299],[125.00583047599571,-9.0777437305886224],[125.00581619925822,-9.0778365298319272],[125.00585189065225,-9.0779257596660159],[125.00599108861786,-9.0779507437317761],[125.00611601074536,-9.077932899383768],[125.00621237939788,-9.0779186217469601],[125.00635871618192,-9.0779257596660159],[125.0064586542436,-9.0779400373028238],[125.00654431376915,-9.0779828666159688],[125.00659785220921,-9.0780185589093207],[125.00663354360324,-9.078079235268433],[125.00671920492744,-9.0782112953149863],[125.00672634284649,-9.0782576949366103],[125.00666923589654,-9.0785610758329085],[125.00661569835586,-9.0787716592845982],[125.00640154639427,-9.0791143009841448],[125.00616954918542,-9.0795247578612361],[125.00606247320468,-9.0798531237226143],[125.00602321240137,-9.0799851837691676],[125.00604105764876,-9.0801172438157209],[125.00619096384196,-9.080327826368034],[125.00675132691231,-9.080791820785862],[125.00688695726728,-9.0809167429133026],[125.00704043197038,-9.0810523723690153],[125.00709397041044,-9.0811416022031608],[125.00720104459265,-9.0813414756285624],[125.00741876596339,-9.0816734108991568],[125.00750799579748,-9.0817947636173812],[125.00755082600983,-9.0819161163356625],[125.00757938038419,-9.0819982082506385],[125.00760079504073,-9.0821945131662005],[125.00744018061994,-9.0825942627150198],[125.0073295361293,-9.0827620150549251],[125.00727242917935,-9.0828548142981731],[125.00720104459265,-9.0829797346270311],[125.00711538506698,-9.0830404118854631],[125.00705827811714,-9.0830653959512233],[125.00696904828305,-9.0830939494261997],[125.0068405567464,-9.0831260723103355],[125.00642653135935,-9.0831581951945282],[125.00626948634783,-9.083165333113584],[125.00608745816976,-9.0832045939168324],[125.00600893476462,-9.0832474250286168],[125.00595182781467,-9.0833330845541695],[125.00593755197656,-9.0834151773685221],[125.00593823995791,-9.0834466770224935],[125.00593755197656,-9.0834936989749622],[125.00594825930477,-9.0836114822840273],[125.00608031935133,-9.0839505545744146],[125.00643009986925,-9.0846643941464436],[125.00656929783486,-9.0850427281393422],[125.00662997509335,-9.0854710311631379],[125.00664425093146,-9.0856816128161313],[125.00665495915905,-9.0858814880401724],[125.00669421996236,-9.0861134852490864],[125.00692621807059,-9.0865810499754502],[125.00704756988955,-9.0868023389567156],[125.00712966180447,-9.0869807986248929],[125.00720818431034,-9.0872377807988869],[125.00723673688594,-9.0874162395677445],[125.00724030629522,-9.0875304543669131],[125.00726885977008,-9.0876589450042502],[125.00731882880098,-9.0877910050508035],[125.0073652284226,-9.0879159271782441],[125.00739021338768,-9.0879694647189808],[125.00740091981663,-9.0880158652399246],[125.00738664307914,-9.0880586945530695],[125.0072938438359,-9.0881336476496699],[125.00724387570438,-9.0881693399430219],[125.00721175282024,-9.0882050322363739],[125.00719033816358,-9.088240723630463],[125.0071653531985,-9.0883121073178472],[125.00715464587029,-9.0884941363952407],[125.00711538506698,-9.0885976429668176],[125.00710110832949,-9.0886654572449856],[125.00710467683939,-9.0887511176699149],[125.00712966180447,-9.0888260707665154],[125.00716892260778,-9.0888617630598674],[125.00728670591684,-9.088915300600604],[125.00750442728759,-9.0889938231064207],[125.00784349957792,-9.0891401598904054],[125.00801838983693,-9.0892365276436067],[125.00818257276762,-9.0893400351145033],[125.00825752586422,-9.0894185567209433],[125.00830749489501,-9.08949707922676],[125.00840386264815,-9.0896005857983369],[125.00850023130067,-9.0898861214473072],[125.00853235418481,-9.08997178097286],[125.00860016756371,-9.0900395961504046],[125.00865013659461,-9.0900752884437566],[125.00874650524713,-9.0901466721311408],[125.00899991801191,-9.0904357762900077],[125.00908200902757,-9.0905250061240963],[125.00910342368411,-9.0905428522707439],[125.00926046869574,-9.0905999592206967],[125.0093140071358,-9.0906178053674012],[125.0097423101596,-9.0906963269738412],[125.00987080079688,-9.0906820511357296],[125.01012064415249,-9.0906642049890252],[125.01037048660874,-9.0906998972823772],[125.01045257762439,-9.0907230961938694],[125.0105346704388,-9.0907462951053617],[125.01066851474025,-9.0907998344447378],[125.01080235994107,-9.0908533719854745],[125.01104149506898,-9.0909675858853234],[125.01119497067145,-9.0910175549161636],[125.01121824602535,-9.091020879709788],[125.0113698600311,-9.0910425389819238],[125.01150548858755,-9.0910639536385247],[125.01157687407351,-9.0911210605884207],[125.01166627837608,-9.0912541998214351],[125.01168092203693,-9.0912760110790032],[125.01169696504292,-9.0912998997704904],[125.01182493317424,-9.0914904706086759],[125.01202427599958,-9.091681367900776],[125.01205130422443,-9.09170725038922],[125.01218109438207,-9.0918315411926187],[125.01224609827887,-9.0918937913653508],[125.01239881125616,-9.0919871158126853],[125.01256732532192,-9.0920900971801757],[125.01272793794408,-9.0921400644123764],[125.01286713680895,-9.0921828964234805],[125.01288231826447,-9.0921873120947225],[125.01292531665013,-9.0921998198657548],[125.01294205213401,-9.0922046887952774],[125.0129595556391,-9.0922097807567184],[125.01302502898193,-9.0922288292969711],[125.01306344172451,-9.0922400033734334],[125.01311392786556,-9.0922532890580214],[125.01315945694341,-9.0922652698262709],[125.01320411008169,-9.0922760715833988],[125.01323970524822,-9.0922787416705546],[125.01327617275717,-9.0922814774082212],[125.01348460682925,-9.0922971094240097],[125.01358097368302,-9.0923042473430655],[125.01366850020122,-9.0923860631662592],[125.01370208898027,-9.0924174629954564],[125.01374515931172,-9.0924577229454826],[125.01374872692224,-9.0927075672004207],[125.01374818732904,-9.0927237567959196],[125.01374759377654,-9.092741557976467],[125.01374515931172,-9.0928146431812138],[125.01378084980638,-9.0928967341968701],[125.01382985026748,-9.0929457346578602],[125.01383795675633,-9.0929538411468229],[125.01400213968702,-9.0929859649302784],[125.01408779921258,-9.0929574096566625],[125.01441616597333,-9.0928253496101661],[125.01455536393894,-9.0928003664437256],[125.01468880534412,-9.0928087058570668],[125.01472668568806,-9.0928110728726779],[125.01477636783522,-9.0928210085826322],[125.01479702166523,-9.0928251400681006],[125.01486945306283,-9.0928396263476543],[125.01489721423513,-9.0928531989159751],[125.0149879378431,-9.0928975516806076],[125.015030068383,-9.0929181488534141],[125.01520727529555,-9.0930004233308068],[125.01522179215203,-9.0930109552913336],[125.01530508376266,-9.0930647320516869],[125.01539717523951,-9.0930998658660656],[125.01543338644171,-9.0931215943860479],[125.01555473915994,-9.093153716370864],[125.01573319792885,-9.0931251619965678],[125.0158259971721,-9.0930751938650474],[125.01586525797529,-9.0929931019500714],[125.01588310412205,-9.0929038721159827],[125.0158957719724,-9.0928531989159751],[125.0159009502687,-9.0928324893278614],[125.01594021107189,-9.0927147060187963],[125.01595402825581,-9.0926704908504234],[125.0159759033653,-9.0926004912196277],[125.01597581703038,-9.0925962167419812],[125.0159741343989,-9.0925124592825455],[125.01597138607065,-9.0923757569356098],[125.01597004877874,-9.0923092448757075],[125.01599146433466,-9.0922464272308048],[125.01600969718982,-9.0921448407117964],[125.01602906768744,-9.0921237228315022],[125.01604585803,-9.0921129093832178],[125.01609568496792,-9.0920808170760097],[125.01623559699522,-9.0920294199217437],[125.01631269227698,-9.0920208538792622],[125.01645403242776,-9.0920279926976377],[125.01668483893422,-9.092134235906201],[125.01674918632591,-9.092171599139931],[125.01677704282633,-9.0921877743462574],[125.01682760720837,-9.0922145417676461],[125.01691698003469,-9.0922319211661602],[125.01693468408848,-9.0922353628716337],[125.01704770638662,-9.0922591571343219],[125.01712801494602,-9.0922770032810263],[125.01724401310082,-9.0923245927057224],[125.01725481575716,-9.0923342163509346],[125.01736301858853,-9.0924306056878663],[125.01738023700841,-9.0924459454240036],[125.01749797625064,-9.0925267656976416],[125.01752062477703,-9.0925423131771481],[125.01760509719759,-9.0926017997332451],[125.01760848044705,-9.0926036559339423],[125.01767885869242,-9.0926422512388854],[125.01768705061693,-9.0926458260439631],[125.01774429426382,-9.0926708038144852],[125.01778474487014,-9.0926886499611896],[125.01782757418323,-9.0926922202697256],[125.01788111262329,-9.0927076859109093],[125.01802388089743,-9.092787398219798],[125.01812619676662,-9.0928468838765184],[125.01814559604247,-9.0928684379280185],[125.0181476132218,-9.0928706790385831],[125.01819044433364,-9.0928968529074155],[125.01823565325287,-9.0929087500387595],[125.01831417485937,-9.0929087500387595],[125.01834536964316,-9.0929087500387595],[125.01839031775899,-9.0929087500387595],[125.01847835779006,-9.092903991725791],[125.01854736187136,-9.0928968529074155],[125.01862305241195,-9.092876210768452],[125.01862823880219,-9.0928736441033493],[125.01866256772337,-9.0928474891202882],[125.0187258224388,-9.0927992935525026],[125.01873579232301,-9.0927965254392689],[125.01881148286373,-9.0927755001891342],[125.01885678171516,-9.0927672650971658],[125.01889000536949,-9.0927612243509657],[125.01896614826921,-9.0927636039571098],[125.01901300744441,-9.0927596991007817],[125.01908036216901,-9.0927540846332704],[125.01913508771418,-9.0927207728453254],[125.01914505939703,-9.0927035517274817],[125.01916126338165,-9.0926755630267735],[125.01920140462119,-9.0926581692390869],[125.01923264706909,-9.0926446299456529],[125.01933496473691,-9.0926470086524773],[125.01946107396941,-9.0926945989764931],[125.01958480719316,-9.0927659826639342],[125.01972995507344,-9.0928040536641106],[125.01976492431186,-9.092815127016479],[125.01987272064957,-9.0928492643819823],[125.01998484632361,-9.0929155192357598],[125.02002976835922,-9.0929420618266477],[125.02006069964159,-9.092984892938432],[125.02007977696019,-9.0930188099700331],[125.02012494630924,-9.0930991068382809],[125.02018681067284,-9.0932323566878495],[125.02027779688285,-9.093452821890196],[125.02029635259464,-9.0934977825965575],[125.02031054299721,-9.0935321681749883],[125.02035206289747,-9.0936336629631569],[125.02035337320967,-9.0936368636503175],[125.02035099360353,-9.0936915927927089],[125.02035136592281,-9.0937050070803593],[125.02035337320967,-9.0937772532176382],[125.02037705056046,-9.0938221149985452],[125.02039858302828,-9.0938629136425106],[125.02059607864612,-9.0940223382602312],[125.02061557414947,-9.0940359252177245],[125.020674601152,-9.0940770656040399],[125.02073408680872,-9.0941198949171849],[125.02080309178928,-9.0941436900791928],[125.02082001882889,-9.0941419390991882],[125.02087209587057,-9.0941365521600801],[125.02093634073958,-9.0941056190790164],[125.02098393016433,-9.0940556491488564],[125.02103151958897,-9.0940104411288871],[125.02105243602114,-9.0939951787344739],[125.02111955962005,-9.0939461953605587],[125.02117676909268,-9.0939153899832377],[125.02118142488291,-9.0939128826733509],[125.02126470660096,-9.0939128826733509],[125.02130732907005,-9.0939153899832377],[125.02134560871298,-9.0939176418856391],[125.02140509526896,-9.093931916824431],[125.02143853565997,-9.0939361499333131],[125.02159307336171,-9.0939557119864958],[125.02169329560911,-9.0939897171516577],[125.02172632231202,-9.0940009236036872],[125.02180722442392,-9.0940604101597273],[125.02190002366717,-9.0941413113723684],[125.02198330358669,-9.0942317319088488],[125.02200758528193,-9.0942618394122974],[125.02204569675155,-9.0943090987858568],[125.02210227669877,-9.0943792566972661],[125.02217523060244,-9.0944661060259477],[125.02220309159941,-9.0944909641866047],[125.02222714486686,-9.0945181749737571],[125.0222735984479,-9.0945553376586759],[125.0223294292598,-9.0946025781464073],[125.02233546371076,-9.0946076853963405],[125.02239971037841,-9.0946766903769003],[125.02240208818591,-9.094740935245909],[125.02239650699323,-9.0947643823703288],[125.02239019195383,-9.0947909042767492],[125.02237470113164,-9.0948106192146838],[125.022364018085,-9.0948242160646942],[125.02234736174137,-9.09486228886351],[125.02234260162982,-9.0949384308638628],[125.02237623177768,-9.0950464583273174],[125.02240002693975,-9.0951107031963261],[125.02243857368126,-9.0951512788084301],[125.02244523675836,-9.095158292621079],[125.02255469234524,-9.0952094505556715],[125.02267723396722,-9.0952391938336632],[125.022760514786,-9.0952522807680793],[125.02283903819114,-9.0952594213851512],[125.02291399128774,-9.0952641787987432],[125.02293292291608,-9.0952641787987432],[125.02298299536903,-9.0952641787987432],[125.02301154884401,-9.0952606093895838],[125.02315016764624,-9.0952480071897526],[125.02315550602179,-9.0952475215558479],[125.02319394934136,-9.095235656800071],[125.02325187377505,-9.0952177791771192],[125.02333039628081,-9.0951832766868392],[125.02334109011929,-9.0951774706637138],[125.02348048413705,-9.0951051480840874],[125.02353741032334,-9.0950827441732827],[125.0236135523237,-9.0950595452617335],[125.02367215124889,-9.0950518137901213],[125.02372003295318,-9.0950530008952342],[125.02379201199187,-9.0950547869488219],[125.02383900696464,-9.0950684683351142],[125.02388600013887,-9.0950821497214065],[125.02392823589946,-9.0951107040956458],[125.02397047076067,-9.0951392566713025],[125.02402222404646,-9.0951939840151113],[125.02407397823163,-9.0952487131575595],[125.0241120492318,-9.0953117682234961],[125.02416915618164,-9.0954152729963766],[125.02419303677925,-9.0954367658939645],[125.02424053986908,-9.0954795187647051],[125.02428211642655,-9.0955169368571092],[125.02437022210813,-9.0955842169379935],[125.02446176409921,-9.0957032988681021],[125.02449131672097,-9.0957528542107866],[125.02454804055969,-9.0959333310583474],[125.02457323506678,-9.0961682222855984],[125.02461031501412,-9.0963940069777891],[125.02460627525943,-9.0964844257156301],[125.02455587095676,-9.0967197369262749],[125.02459311458063,-9.0968732044348144],[125.02464993914339,-9.0970717603534013],[125.02469825432104,-9.0971890076665431],[125.0247076351493,-9.0973245498880146],[125.02471302838364,-9.0976770661436603],[125.02473348256422,-9.0977763890690539],[125.02476468813995,-9.0978666108553625],[125.02498190768893,-9.0980823564155457],[125.02521654620671,-9.0982618449081656],[125.02537641598883,-9.0983875107749554],[125.0258092057303,-9.0988280472765268],[125.02598359057026,-9.0990078721155783],[125.02618541732318,-9.0992146604281743],[125.02640501467977,-9.0994484688716852],[125.02663370867879,-9.0996822269531776],[125.02721715824532,-9.1004292712937627],[125.02732112077319,-9.1005190901838091],[125.0273639977504,-9.1006634826335926],[125.02747684558005,-9.1008165301586814],[125.02765946281397,-9.1008426320817648],[125.02775799613471,-9.1009776778774949],[125.02782832132004,-9.1010496038560973],[125.02792737085156,-9.1011756069686385],[125.02788586803842,-9.1012752743343981],[125.02788652993945,-9.1013927842495264],[125.02790170869696,-9.1015644540362928],[125.02790272762888,-9.1017452411498994],[125.02787507077801,-9.1018809902154771],[125.02786214212426,-9.1020076147595432],[125.02787634511731,-9.1021069709598805],[125.02789111468326,-9.1022063262608981],[125.02791968164809,-9.1023327205785449],[125.02796245969978,-9.1024590375544676],[125.02799179738361,-9.1026215882156976],[125.02810489792273,-9.1028198302709029],[125.02814782795997,-9.102973263605179],[125.02824651506467,-9.1031354275579019],[125.02830335131864,-9.1032345463372053],[125.02837367470534,-9.1033064723158077],[125.02861245999713,-9.1034136166450708],[125.02872531502135,-9.1034672270308761],[125.02880974787161,-9.1035209938987123],[125.0289502957196,-9.1036467658855145],[125.02911972439585,-9.1038537340625112],[125.02921846186257,-9.1040249362018244],[125.02931771913745,-9.1041870947585721],[125.02941692515105,-9.1043402169274259],[125.02944549121651,-9.1044666112450727],[125.0294740590806,-9.104593007361359],[125.02950293811011,-9.1046742026522907],[125.02958736466519,-9.1048274066594672],[125.0297988591301,-9.1050341383148066],[125.02992545939253,-9.1051057477320114],[125.02998290718551,-9.1053133400385491],[125.03005369012578,-9.1054666186894337],[125.03009631709142,-9.1055658166091007],[125.0301538161458,-9.1057824471022286],[125.03018238311051,-9.1059088423191952],[125.03019725789716,-9.1060262739932796],[125.03021140962892,-9.1061165911077637],[125.03029635509279,-9.1062607506331119],[125.03038078974168,-9.1063145184002678],[125.03049322927916,-9.106395246943066],[125.03056370914794,-9.106494289279965],[125.03066291606081,-9.1066474096501793],[125.03070538744373,-9.1067194894128534],[125.03088866478015,-9.1069625365917659],[125.03094550103413,-9.107061656270389],[125.03107246102536,-9.1071965410874327],[125.03118495182412,-9.1072863096154606],[125.0314340226621,-9.1074024345746238],[125.03152238465043,-9.1074471398735568],[125.03159679185853,-9.107537122440192],[125.03172007811918,-9.107726264255632],[125.0319513747562,-9.107815369083994],[125.03193813403777,-9.1079871953527345],[125.03197011482905,-9.1081135707846101],[125.03213366283831,-9.108184975156405],[125.03230987779864,-9.1081839912981195],[125.03250577891868,-9.1082461749209642],[125.0326071639895,-9.1082817673895988],[125.03289845979612,-9.1083253377440769],[125.03304001038828,-9.1083339190750507],[125.03314665469441,-9.1083872290873273],[125.03325144639723,-9.1085222380108348],[125.03340863260235,-9.1086750328264543],[125.03366448163058,-9.1086826419902991],[125.03389045877771,-9.1087356183540464],[125.03420531502331,-9.1088242546355787],[125.03448420738027,-9.1088859733089862],[125.03459980443745,-9.1089214848386177],[125.03474015083737,-9.1090110968845579],[125.03507354480826,-9.1093617758252208],[125.03524437912483,-9.1095144941984927],[125.03541576292719,-9.1099655140971549],[125.03547311359341,-9.1101550237353308],[125.03552110771307,-9.1103988254453725],[125.03555494740294,-9.110552309141724],[125.03563854658171,-9.1107597512614689],[125.03569042307458,-9.1108860151774138],[125.03575842081455,-9.1110483464040044],[125.03581913584446,-9.1111293636291748],[125.03595900110713,-9.1113454338446331],[125.03595906405963,-9.1113455309714482],[125.03605859382913,-9.1113540142762872],[125.03621748964554,-9.1115067974007502],[125.03627469282287,-9.1115697544405521],[125.03636041979757,-9.1116506313715036],[125.03645978858845,-9.1117314309607309],[125.0368241021506,-9.1118197857544487],[125.03692880032395,-9.1118372802662293],[125.03704987605101,-9.1118366021773909],[125.03729167317226,-9.1117719723985715],[125.03741761603021,-9.1116266338620449],[125.03755580315783,-9.1115354641902968],[125.03770763210161,-9.1114442180761444],[125.03786679861389,-9.1113438924066372],[125.03802824220963,-9.1112435523480144],[125.03818689161187,-9.1111522675630567],[125.03833706580303,-9.1110700713267079],[125.03847359997667,-9.1109879497340671],[125.03859204338812,-9.1109240097352426],[125.03869291764408,-9.1108692068483492],[125.03877963387311,-9.1108235239863689],[125.03891564913795,-9.110750445076917],[125.03901657375593,-9.1107046821753102],[125.03909879067669,-9.1106680626809293],[125.03921279233657,-9.1106222260348773],[125.03929500925733,-9.1105856074397593],[125.03939143906371,-9.1105489088050717],[125.03950719530087,-9.1105121022516755],[125.03963938484981,-9.11046616308289],[125.03978015303164,-9.1104292162352749],[125.03992314163975,-9.1103832168119538],[125.04006328928938,-9.1103372335764448],[125.04020343693912,-9.1102912503408788],[125.04034756408885,-9.1102452437229999],[125.04050073392182,-9.1101901476571356],[125.04058186536088,-9.1101625753425424],[125.04066589081822,-9.1101440250266705],[125.0407532770422,-9.1101164158398547],[125.04084345386241,-9.1100797522786934],[125.04093652290226,-9.1100521116156301],[125.04103243379984,-9.1100244547647549],[125.04113062088152,-9.1099967862226663],[125.04123159676089,-9.1099600606082731],[125.04133484702561,-9.1099233242019864],[125.0414409382488,-9.1098865707086247],[125.04154987312825,-9.1098498010274511],[125.04166278660841,-9.1098130097625472],[125.04178024706084,-9.1097761933166339],[125.04190220502278,-9.1097303108051619],[125.04202922616787,-9.1096753613288115],[125.04216141391817,-9.1096294221600829],[125.04229980429261,-9.1095744079325414],[125.04244274073994,-9.1095193676246708],[125.04258960812399,-9.1094552666472168],[125.04273879665823,-9.1094001930644026],[125.04288907337207,-9.1093360732011774],[125.04303934828738,-9.1092719524386325],[125.04318796934933,-9.1092168806544578],[125.0433348870954,-9.1091618187628569],[125.04345391686479,-9.1091161628805821],[125.04347839101501,-9.1091067757570272],[125.04361905487553,-9.1090517489390095],[125.04375749471262,-9.109005773797378],[125.0438953176149,-9.1089507622677957],[125.04403262160827,-9.1089047943207788],[125.04417101198271,-9.1088497800932373],[125.0443105373015,-9.108794758671138],[125.04445233700585,-9.1087397255578253],[125.04459754693926,-9.1086846717601588],[125.04474554656974,-9.1086205653867296],[125.04489587544435,-9.1085654828107181],[125.04504728530401,-9.1085013557529351],[125.0451998337054,-9.1084372223998571],[125.04535290101558,-9.1083640463635902],[125.04550544671906,-9.1082999121111925],[125.0456574267489,-9.108235780556754],[125.04580832129705,-9.1081806952828401],[125.04595859621236,-9.1081165754195581],[125.04610773258582,-9.1080524600529316],[125.04625578707498,-9.1079973918660926],[125.0464044063383,-9.1079423182833352],[125.04655183759724,-9.1078782137085454],[125.04669989028775,-9.1078231419244275],[125.04684850865181,-9.1077680701402528],[125.0469971288145,-9.1077129983561349],[125.047146318248,-9.1076579211760986],[125.04729493661205,-9.1076028493919239],[125.04744355767411,-9.1075477758091665],[125.04759052308418,-9.1075017521041559],[125.04773630228863,-9.1074466947091537],[125.04781278063535,-9.1074010676051671],[125.04804423735175,-9.1073184091172266],[125.04880062115183,-9.1067808222770736],[125.04987790014502,-9.1064945338955567],[125.04999034507841,-9.1064758217017356],[125.05050875297661,-9.1063734680610651],[125.05102715907617,-9.1062711117223785],[125.05118539119292,-9.1062069450944136],[125.05135669495553,-9.1061427047220036],[125.0515438627591,-9.1060693317342043],[125.05174632623198,-9.1059868369229662],[125.05196470680585,-9.1059042512801511],[125.05219781287883,-9.1058125420151441],[125.05244570020898,-9.1057207500125514],[125.05270888320842,-9.1056198307904879],[125.05298622243629,-9.1055097951409039],[125.05327782401241,-9.1054087158395305],[125.05358301614331,-9.1052985210098996],[125.05390009641235,-9.1051792187458886],[125.05422632008867,-9.1050689052057692],[125.05455931386132,-9.1049495148081974],[125.05489685370685,-9.1048300974309768],[125.05523609866714,-9.1047106665639603],[125.05557529326518,-9.1045822011076325],[125.05591226384001,-9.1044627846297885],[125.05624406870891,-9.1043343614416017],[125.05657251191201,-9.1042149917284405],[125.05689806199598,-9.1040866009158776],[125.05722190876418,-9.103958219096512],[125.05754637156781,-9.1038388727657207],[125.05787135328035,-9.1037104828524775],[125.05819912379059,-9.1035730385648321],[125.05853035669065,-9.103444616275965],[125.05886613656298,-9.10331616430949],[125.0592052754032,-9.1031786552706535],[125.05954730916108,-9.1030501700292916],[125.05988985733109,-9.1029126412053643],[125.06023245766187,-9.1027841505680271],[125.06057386818952,-9.1026466280393947],[125.06091305829102,-9.1025181562878288],[125.06124764566243,-9.1023806724300584],[125.06157716985058,-9.1022522537384702],[125.06190101212212,-9.1021238683218257],[125.06227079086432,-9.1019771942920329],[125.06252600766913,-9.101876266076772],[125.062826025101,-9.1017570537449615],[125.0631152947351,-9.1016469425522928],[125.06339438494297,-9.1015459280021105],[125.06366153934857,-9.1014449809010785],[125.06391572193309,-9.1013621857162548],[125.0641568301736,-9.1012794651751392],[125.06438435055736,-9.1012058610616009],[125.06459765895488,-9.1011323360883694],[125.06479572294427,-9.1010769774205187],[125.06497957764543,-9.1010216978929748],[125.06514751704435,-9.1009665100963275],[125.06529902493014,-9.1009204540156929],[125.06543518498586,-9.1008744851692995],[125.06555599631224,-9.1008286026578276],[125.06566430526357,-9.1007827920921613],[125.06576243209065,-9.1007460772696049],[125.06585089660166,-9.1007094182050423],[125.06593253975495,-9.100672796912022],[125.06600907026245,-9.1006362061959294],[125.06615364977119,-9.1005721097150172],[125.06629420121646,-9.1004989966313588],[125.06643423735022,-9.1004349271301521],[125.06657768101525,-9.1003708378438546],[125.06672794783663,-9.1003067089873753],[125.06680731840311,-9.1002701011841509],[125.06689128720325,-9.1002425072858273],[125.06698088755797,-9.1002058410267068],[125.06707787764196,-9.1001691333987651],[125.06718225835459,-9.1001323826033058],[125.06729567995171,-9.1000865423599748],[125.06741990420528,-9.1000406400634688],[125.06755487355861,-9.0999856384264035],[125.06769836938429,-9.0999305873266962],[125.06784692929239,-9.0998664683627908],[125.06799781484733,-9.0998113749948857],[125.06814808076933,-9.0997472470377829],[125.0682949868243,-9.0996921761529848],[125.06843450404915,-9.0996371484355905],[125.06856378968723,-9.0995821773755665],[125.06868124384437,-9.0995453528357189],[125.06878727481296,-9.0994995539612091],[125.06888431885625,-9.0994718854191206],[125.06897448668326,-9.0994352146634014],[125.06905902475421,-9.099407617167742],[125.06922132990053,-9.0993614981346127],[125.06930302521448,-9.0993339159274456],[125.06938699401462,-9.0993063211297454],[125.06947437304393,-9.0992787056476914],[125.06956516320179,-9.0992510721791859],[125.06965993016172,-9.0992234162276304],[125.06975919463116,-9.0991866942105162],[125.06986243680205,-9.0991499497103518],[125.06997027900525,-9.0991222191150882],[125.07008313133156,-9.0990763806703967],[125.07020172223179,-9.0990395498353109],[125.07032371976391,-9.0990026992151343],[125.070448509691,-9.0989567933212925],[125.07057500563212,-9.0989108766356139],[125.07070093320158,-9.0988649653458538],[125.07082634186224,-9.0988280949405862],[125.07094829083098,-9.0987822052345564],[125.07106631066176,-9.0987453761981101],[125.07117973315826,-9.0986995350554594],[125.07129150000276,-9.0986627419919159],[125.07140435412771,-9.0986169026479047],[125.07152351070147,-9.09858006821554],[125.07165171085785,-9.0985341416372876],[125.07179236392653,-9.0984791058260157],[125.07194893229746,-9.0984239800825435],[125.07212591078223,-9.098359698341369],[125.07232500359612,-9.0982862507098616],[125.07254166736413,-9.0982036641677269],[125.07277083530585,-9.0981210056798432],[125.07300625623384,-9.0980383121183763],[125.07324219157397,-9.0979465758737206],[125.07347306283168,-9.0978639083926396],[125.07369313592949,-9.0977813020654139],[125.07389677841365,-9.0977078283535775],[125.07407938755375,-9.0976344742515494],[125.07424215405229,-9.0975702707513619],[125.07438906010714,-9.0975151989671872],[125.0745223729092,-9.0974692427113268],[125.07464483629019,-9.0974143103221081],[125.07476001516261,-9.0973774965741541],[125.07487002473192,-9.0973316743172745],[125.07497838044799,-9.0972948992401825],[125.07508725327421,-9.0972490823792214],[125.07519617826108,-9.0972123046041133],[125.0753050510873,-9.0971664877431522],[125.07541227185891,-9.097129719860618],[125.07551778661662,-9.097092960971338],[125.07562102788813,-9.097056215571854],[125.07572080587056,-9.0970104508715508],[125.07581608994064,-9.0969737513374866],[125.07590739271211,-9.0969370733871529],[125.07599642469529,-9.0969004089266718],[125.07608488740766,-9.09686374716415],[125.07617505433541,-9.0968270764084309],[125.07626971697391,-9.0967813395870962],[125.07637068386009,-9.0967446067781452],[125.07648069432867,-9.0966987836219459],[125.07660088242483,-9.0966438629238837],[125.076734195227,-9.0965979057687036],[125.07687939256994,-9.096542842977783],[125.07703425492696,-9.0964877244288687],[125.07719815726921,-9.0964235146334431],[125.0773689340291,-9.0963683052530655],[125.07754590981597,-9.096304020813875],[125.07772288560273,-9.0962397066970766],[125.0786618308789,-9.0962217328466295],[125.07954796886372,-9.0962022382426539],[125.08094200796734,-9.0960787604263942],[125.08308975538796,-9.0956477252622676],[125.0842517559139,-9.0955977616273458],[125.08490669169055,-9.0957961799496729],[125.08583766267805,-9.0959930163645595],[125.08736311701432,-9.0959842830481534],[125.08805862480574,-9.0956626153374032],[125.08868115621044,-9.0952836041549858],[125.08911582463566,-9.0950789508328853],[125.08973952695771,-9.0949020937565592],[125.09068301111211,-9.0947522819921574],[125.09124885015433,-9.0946190753100495],[125.09198776642233,-9.0942682722629229],[125.09255259642521,-9.0939617878062222],[125.09332190887903,-9.0938418497215139],[125.09422205470412,-9.0937356002177125],[125.0947147473878,-9.093516168336464],[125.09535187568861,-9.0931515040386444],[125.09558225681576,-9.0929652355571307],[125.09587121528443,-9.0929156586307158],[125.09608273223239,-9.0929402442968126],[125.09637983855873,-9.0929816266007606],[125.09644408522638,-9.0931115453614666],[125.09654687773627,-9.0932186213422597],[125.09661826142371,-9.0932771564155814],[125.09672961997603,-9.0933199857287264],[125.09684954457089,-9.0933342633655343],[125.09702657701496,-9.093324269199627],[125.09715649577572,-9.0932999982962315],[125.09725928828561,-9.0932657341263052],[125.09731925058304,-9.0932371806513288],[125.09734923218139,-9.0931843571722766],[125.09737064683793,-9.0931186832805793],[125.09738777892289,-9.0930744258440086],[125.09742204309293,-9.0930173179947928],[125.09746487420466,-9.0929744877823282],[125.09754054136295,-9.0929102429133195],[125.09764190574947,-9.0928188708941207],[125.09767331367254,-9.0927717581100751],[125.09770043992341,-9.0927046569942718],[125.09773184874587,-9.0926032917084854],[125.09776611291579,-9.0924748010711482],[125.09778038965328,-9.0924191222446211],[125.09781037125174,-9.0923591599472502],[125.09784463632093,-9.0923163288354658],[125.09798597557233,-9.0921906944449233],[125.09802737766142,-9.0921464361090898],[125.09803594370385,-9.0921264477772752],[125.09803594370385,-9.0921064612441569],[125.09803594370385,-9.092087901035768],[125.09803594370385,-9.0920636301323725],[125.09803166113227,-9.0920350766573961],[125.09802880578479,-9.0920108057540574],[125.09802166786574,-9.0919951017924632],[125.09801310092394,-9.0919722590124934],[125.09801310092394,-9.0919437064368367],[125.09802023974237,-9.0919051578966901],[125.09805735925977,-9.0918723218501327],[125.09812017690467,-9.0918580451126445],[125.09818442267306,-9.0918608995607997],[125.09823439080458,-9.0918666111551261],[125.09837715907872,-9.0919237181050789],[125.09842427186277,-9.091939422965936],[125.09846567485113,-9.0919508443559494],[125.098505649716,-9.0919479890084176],[125.09853420319098,-9.091939422965936],[125.09855847409438,-9.0919237181050789],[125.09858417222188,-9.0919037306725841],[125.09860558687842,-9.0918851713635149],[125.09863842382424,-9.0918594732360702],[125.0986712598708,-9.0918323469851998],[125.09872265702506,-9.0917923721202101],[125.09878690189407,-9.0917552517034324],[125.09889540599829,-9.0917109942669185],[125.09900961989808,-9.091702428224437],[125.09909099685206,-9.0916952903053811],[125.09917951262446,-9.0916767300969923],[125.09926945741961,-9.0916438940504349],[125.09928087791025,-9.0916338998845276],[125.09935940131538,-9.0915682268920932],[125.09941936271343,-9.0914925597338083],[125.09946076570179,-9.0914383081313872],[125.09949931334268,-9.0914026158379784],[125.09953786008418,-9.0913669244439461],[125.09958497286823,-9.0913269486796935],[125.09965635655567,-9.0912869738147606],[125.09971060905741,-9.0912741252006981],[125.09988264396895,-9.0912316520190757],[125.10004254432806,-9.0911866796215008],[125.10013605673373,-9.0911474188182524],[125.10017033079623,-9.0911325449309288],[125.10024955657184,-9.0910981638491535],[125.10035703904623,-9.0910661084141111],[125.10037162335175,-9.0910617583933799],[125.10044800367245,-9.0910324908567191],[125.10050676537503,-9.0910134800880087],[125.10054508638666,-9.0910010820342677],[125.10064359632497,-9.0909782392542979],[125.10075495397803,-9.0909768120301919],[125.10087273818635,-9.090984664010989],[125.10094983166948,-9.0909967985633671],[125.10113186074682,-9.0910117902618595],[125.1013738521217,-9.0910410568992006],[125.10154017723744,-9.0910696112734968],[125.10159799734981,-9.0910796036407646],[125.10164368290975,-9.0910888837449306],[125.10170578739223,-9.0911245760382826],[125.10174861670532,-9.0911524163508943],[125.10177431483282,-9.0911845392350301],[125.10182000129214,-9.0912459287565639],[125.10205509037019,-9.0908911552025984],[125.10232431771317,-9.0906384807811946],[125.10271406410288,-9.0904209869389661],[125.10294156739951,-9.0902343236550678],[125.10320474410366,-9.0899757056142789],[125.10366204486752,-9.0896369462880102],[125.10356302771163,-9.0895200074423315],[125.10353868126515,-9.0894387950642681],[125.1035212488066,-9.0892761886451581],[125.10344104276999,-9.0891681809667375],[125.10326059020417,-9.0890245943095351],[125.10327814497043,-9.0889160227562229],[125.10322149397678,-9.0887536429661964],[125.10320432412027,-9.0886362319764658],[125.1032254366047,-9.0884553261523138],[125.10321306732931,-9.0882836518690056],[125.10322455616836,-9.0880124100446551],[125.10320592221558,-9.0877413408901475],[125.10314420983752,-9.0875880298636389],[125.10305965467933,-9.0874167719663888],[125.10298465931464,-9.0872273810387583],[125.10258735682112,-9.0867415528803122],[125.10240147504805,-9.0865437613854283],[125.10240435827461,-9.0864533516408414],[125.10243562410483,-9.0860644847880963],[125.10246767144599,-9.0857117706815984],[125.10245333355454,-9.0854949117607475],[125.10246137439299,-9.0853140805803037],[125.10251956592526,-9.0849612162870699],[125.10247840935119,-9.0847264329784707],[125.10246571092387,-9.0844010942350906],[125.1024245543498,-9.0841663118258111],[125.10228767033982,-9.0840857469596017],[125.10217248966876,-9.0840231361587485],[125.10194791906133,-9.0839159585545985],[125.10183945362792,-9.0838352309111201],[125.10085377508176,-9.0835951703807609],[125.09997673643727,-9.0828425979075291],[125.09938846920261,-9.0822562138531566],[125.09898882667312,-9.0818578501596221],[125.09878599178012,-9.081684575982365],[125.09877245518476,-9.0816730116001736],[125.09875892038792,-9.0816614481173019],[125.09859549828366,-9.0815218436580949],[125.09807981263327,-9.080628398681597],[125.09759845680344,-9.0797854956040851],[125.09737371262679,-9.0791779064351772],[125.0971147438504,-9.078536684420385],[125.0968077467802,-9.0778876194180498],[125.09664802268821,-9.077491343950328],[125.09654947497836,-9.0772030419867633],[125.09649824329938,-9.0767218912022827],[125.09652280378441,-9.0763367898109664],[125.09654548828371,-9.0759811250288749],[125.09654686064914,-9.0759595889638263],[125.09643815329821,-9.0758394350418712],[125.09630545293442,-9.0756955686954939],[125.096188202024,-9.0755696923873188],[125.09608578363202,-9.0754527688301891],[125.09599654210683,-9.0753538488010577],[125.09591758342981,-9.0752639103011461],[125.09584720068779,-9.0751829596258631],[125.09578369506153,-9.0751110102648909],[125.09572473191088,-9.0750390348235328],[125.09566918168741,-9.074967038697821],[125.09555988977718,-9.0748411156249631],[125.09550490702588,-9.0747691177005549],[125.09544935680242,-9.0746971215748431],[125.0953926689366,-9.0746251326436891],[125.09533427595613,-9.0745531536051089],[125.0952735582282,-9.0744721489704716],[125.09521056611482,-9.0743911569263105],[125.09514416377215,-9.0743101837679205],[125.09507600505367,-9.0742201823155142],[125.09500614122055,-9.0741301898563052],[125.09493570721713,-9.0740402009944319],[125.09486584158537,-9.0739502094345994],[125.09479768376616,-9.0738602070828165],[125.09473179673512,-9.0737701921406142],[125.09466880462173,-9.0736892000964531],[125.09461036037987,-9.0736081819719629],[125.09455537762858,-9.0735361831482919],[125.09450380600595,-9.0734641636402102],[125.09445394129636,-9.0733921360381942],[125.09432154670208,-9.0732030697658388],[125.09423902221317,-9.0730860328940821],[125.09415763266873,-9.072968987928391],[125.09407510817971,-9.0728519510566343],[125.09398974183318,-9.0727349303726896],[125.0938980712391,-9.0726089047770984],[125.09380123134179,-9.0724738706725248],[125.09375136483368,-9.0724018421712458],[125.09370149832557,-9.07232981366991],[125.09365106344592,-9.0722577887659099],[125.09360176530924,-9.0721857566672952],[125.09355246717269,-9.0721137245686805],[125.09350482199,-9.0720326443909585],[125.0934572280687,-9.0719606032991464],[125.09341015125756,-9.0718795186248258],[125.09336364371723,-9.0717984321518657],[125.0933159967359,-9.0717173510748239],[125.09326778408104,-9.0716362735951179],[125.09321894999459,-9.0715461606267809],[125.09316778936204,-9.0714470220623866],[125.09311549288577,-9.0713478888939107],[125.09306149129486,-9.0712487674166482],[125.09300573063001,-9.0711406149473532],[125.09294940339237,-9.071032466075394],[125.09289307615461,-9.0709243172034348],[125.09283618144468,-9.0708161710294348],[125.09277923097682,-9.0706989866688446],[125.09272290373906,-9.0705908377968854],[125.0926677132444,-9.0704826826296312],[125.0926120083376,-9.0703835692463031],[125.09255624677348,-9.0702754167770081],[125.09249878279263,-9.0701672750996067],[125.09243904622508,-9.0700591451134187],[125.09237641563914,-9.0699419931284524],[125.0923098055531,-9.0698248636265362],[125.09223864939418,-9.069707760204949],[125.09216289320307,-9.0695816437777808],[125.0920836746219,-9.0694465080498503],[125.09200275002695,-9.0693113822144937],[125.09192188029056,-9.0691852945656706],[125.09184214459935,-9.0690592006215525],[125.09176639020677,-9.0689330841944411],[125.09169585458005,-9.0688250171607478],[125.09163219067307,-9.0687259487435199],[125.09157710629847,-9.0686358708487091],[125.0914876570298,-9.0685007926774119],[125.09141768977463,-9.0683927220464398],[125.09135754311615,-9.0683117129151469],[125.09129625791604,-9.068230710079149],[125.09122639498219,-9.0681407158213574],[125.09114397661324,-9.0680417562220441],[125.09104321387326,-9.0679157818877911],[125.09098487575147,-9.0678528401364247],[125.09091847610682,-9.0677718669780347],[125.09083378515118,-9.0676729190699348],[125.09074185375357,-9.0675016980449072],[125.09069761070623,-9.0674205917868562],[125.09056234637524,-9.0673219379570469],[125.09035157136793,-9.0670429250908455],[125.09007543003713,-9.0666648528006704],[125.08972131298822,-9.0661697157597132],[125.08931403161728,-9.0656038713215708],[125.08932239441299,-9.0655077059158771],[125.08930811677624,-9.0653696977532832],[125.08926528566451,-9.0652554838534343],[125.08918914366416,-9.0651507865794656],[125.08916314336443,-9.0651284150442848],[125.08898451012715,-9.0649747074167522],[125.08871325121561,-9.0647415213041427],[125.08867993942772,-9.064636824030174],[125.08867674863313,-9.0646144902664787],[125.08867042190252,-9.0645701977563817],[125.08866090257868,-9.0644750198062525],[125.08864473726487,-9.0644566637440107],[125.08857534377717,-9.0644398401264539],[125.08793019802033,-9.0644626298464459],[125.08790999385121,-9.0644604876613357],[125.0877661661757,-9.0644438331163428],[125.08760624962883,-9.0644191224445194],[125.08760618128031,-9.0644191107533061],[125.08749961881244,-9.0644026459652878],[125.08581260396852,-9.0641522441306961],[125.08488424461223,-9.0636339477484285],[125.08409828480808,-9.0631863380789923],[125.08386250505066,-9.0628391179308778],[125.08319703371615,-9.0623006983185519],[125.0823766109919,-9.0619180772574168],[125.08136316767616,-9.0618463860018892],[125.07773462535272,-9.060976236164322],[125.07682337020242,-9.0607204581825727],[125.07488776835589,-9.0605276399385843],[125.073405230567,-9.0601874785692189],[125.07225497878426,-9.0599796992037227],[125.07137501644388,-9.059463116929237],[125.07098229509688,-9.0589231253019307],[125.07052358959209,-9.0548823391486053],[125.07032617940968,-9.0512877399372087],[125.0700113222648,-9.050084110693092],[125.06986521121064,-9.0480950549427916],[125.06999523878926,-9.0472715808187445],[125.07011935872151,-9.0454149331525855],[125.07113630219862,-9.0441043790138451],[125.07118579458881,-9.0440710672259002],[125.07121054213292,-9.0440577419711872],[125.07122481797103,-9.0440453681991357],[125.07123814322574,-9.0440348991912174],[125.07125051699779,-9.0440244292839225],[125.07129144334544,-9.0439720806469381],[125.07131047929522,-9.04394828638425],[125.07132094920246,-9.0439321057820052],[125.07134188811767,-9.043897841612079],[125.07136282703289,-9.0438502530866458],[125.0713828153647,-9.0438178918821563],[125.07139138140724,-9.0438017121792313],[125.07140280189788,-9.043786483059705],[125.07142374081309,-9.0437436528472404],[125.07143611458503,-9.0437236654148023],[125.07145514963554,-9.0436903527275376],[125.07146847489025,-9.0436532332100796],[125.07147513796735,-9.0436313419128282],[125.07147894479749,-9.0436113553797099],[125.07149131767028,-9.0435656689204507],[125.07149227005232,-9.0435504407002441],[125.0714903661875,-9.0435304532677492],[125.07148465639182,-9.0435114173180295],[125.07147513796735,-9.0434505026385636],[125.0714532466701,-9.0433924442058924],[125.07144182528009,-9.0433667460784477],[125.07143801755058,-9.0433553246884344],[125.07143421072033,-9.0433400955689081],[125.071433734979,-9.0433235588351408],[125.07143659032647,-9.0432978607076393],[125.07144015973563,-9.0432859626769755],[125.07145348499046,-9.0432650237617622],[125.07146062290951,-9.0432525321785988],[125.07146728508724,-9.043239206923829],[125.07147680261244,-9.0432273097924849],[125.07148215717586,-9.0432171969160322],[125.07148275162774,-9.0432052997846881],[125.07148370400978,-9.0431815046226802],[125.07148191885551,-9.04316901303946],[125.07147478093646,-9.04315652055692],[125.07147002172417,-9.04314700303172],[125.07146109865084,-9.0431357012515718],[125.07144004102508,-9.0431098826149423],[125.07141446070887,-9.0430730023171577],[125.07139780526461,-9.0430361202207337],[125.07138114892098,-9.0430051871396131],[125.07136687218349,-9.0429825817806773],[125.07135854356204,-9.0429623569272053],[125.07134902603673,-9.0429445107805009],[125.07134724178184,-9.042933208101033],[125.07134486217569,-9.0429153619543285],[125.07134426682455,-9.0429004907649642],[125.07134545662757,-9.0428838353207084],[125.07134664732996,-9.0428683678808284],[125.07134664732996,-9.0428433838150681],[125.07134962138798,-9.0428314857844043],[125.0713496177907,-9.0428124507339476],[125.07134604928081,-9.0427934147842279],[125.07134129276653,-9.0427833019078321],[125.07133415484748,-9.0427720001276839],[125.07132582712529,-9.0427577233901957],[125.07130441067011,-9.0427398772434913],[125.07129251443803,-9.0427327393244354],[125.07127466829138,-9.0427160829808031],[125.07125503788973,-9.0427000210890469],[125.07124373521026,-9.0426845554478064],[125.07121280212914,-9.0426405354323265],[125.0712026892528,-9.0426209041313541],[125.07119495598249,-9.0426012737297583],[125.0711901967702,-9.0425774785677504],[125.07118186904813,-9.0425548741081343],[125.07116878211366,-9.0425144226024941],[125.07115688498232,-9.0424965773551094],[125.07114558230285,-9.0424793256602811],[125.07113963418681,-9.0424733784436171],[125.07112059823703,-9.0424579110037371],[125.07110810575455,-9.0424513684358772],[125.07109799287809,-9.0424448240693209],[125.07108371614061,-9.0424269779226734],[125.07107538841854,-9.0424180548492927],[125.0710682496001,-9.0424002087026452],[125.07106705979709,-9.0423900958261925],[125.07106705979709,-9.0423758199880808],[125.07106705889771,-9.0423663015635043],[125.07107300701375,-9.0423460758107126],[125.07107895692843,-9.0423335842274923],[125.07108906980477,-9.0423258509571838],[125.0711149468973,-9.0422992013470207],[125.07113457729895,-9.0422873042156766],[125.07114528462728,-9.042283020744776],[125.07114885403644,-9.0422824262928998],[125.07115718175862,-9.0422824271922195],[125.0711726491985,-9.0422485182544392],[125.0711762177084,-9.0422328142929018],[125.07116848533735,-9.0422232958683821],[125.07116491502882,-9.0422143727950015],[125.07115849117145,-9.0421979547717228],[125.07115254215614,-9.0421818937793432],[125.07114040670444,-9.0421626204085328],[125.0711285095731,-9.0421429891076173],[125.07111280471224,-9.0421208603893319],[125.07110745194746,-9.0421089632579879],[125.0711068565962,-9.0420964707754479],[125.07109829055378,-9.0420771974046943],[125.0711054293721,-9.0420536405630401],[125.07110602382397,-9.0420393638255518],[125.07110840343012,-9.0420268722423316],[125.07111482818686,-9.0420111673814176],[125.07111601798988,-9.0419814241033691],[125.07111458986651,-9.0419614366709311],[125.07110566679319,-9.0419400211150105],[125.07110067015981,-9.0419193196208312],[125.07109234243774,-9.0419068280376109],[125.07107806480087,-9.0418782736633716],[125.07106438341464,-9.0418556692036987],[125.07104356320997,-9.0418271157287791],[125.07102214765405,-9.0418014176012775],[125.0710120347776,-9.0417859510607741],[125.07098205407863,-9.0417438349099939],[125.07097372635644,-9.0417271785664184],[125.07097372365843,-9.041712307377054],[125.07096944108685,-9.0417030272728312],[125.07097086831095,-9.0416894636977645],[125.07097086741169,-9.0416775665664204],[125.07097657720738,-9.0416611494424615],[125.07098657137328,-9.041638305763172],[125.07098954902858,-9.041603208820959],[125.07099454566185,-9.0415825073267797],[125.07099990022527,-9.0415593084152874],[125.07100275467349,-9.0415386060217884],[125.07100870368879,-9.0415136219560281],[125.07101441528312,-9.0414800718477863],[125.0710197680479,-9.0414574673881702],[125.07102762092802,-9.0414389071797814],[125.07104844113269,-9.0413984556741411],[125.07106700134113,-9.0413584808092082],[125.07107711331821,-9.0413358763495921],[125.07108353807484,-9.0413208855503626],[125.07108948709026,-9.0413083930678226],[125.07109091431425,-9.0412976857395506],[125.07109567262728,-9.0412863830600827],[125.07110162164258,-9.0412738905775427],[125.07110161984394,-9.0412631841485904],[125.07108948529162,-9.0412439098785171],[125.07108829728713,-9.0412320127471162],[125.07108175292058,-9.0412201147164524],[125.07107282984725,-9.0412094082875001],[125.071056174403,-9.0412010796660525],[125.07104546707467,-9.0411967970944715],[125.07103178478906,-9.0411938221371315],[125.07102250468495,-9.0411916808513411],[125.07100227893204,-9.0411887067933208],[125.07098300556129,-9.0411858514458459],[125.07096694366953,-9.0411840671908976],[125.07095338099384,-9.0411776424342065],[125.07094410178888,-9.041169076391725],[125.07093042040265,-9.0411655069825088],[125.07091400058073,-9.0411531341097771],[125.07090388860365,-9.0411465897432777],[125.07089674978522,-9.0411400471754177],[125.07088366285086,-9.0411269602410016],[125.07087176571952,-9.041116252013353],[125.0708408326384,-9.0410995956697775],[125.07083012531007,-9.0410912679475928],[125.07079502836791,-9.0410692579398528],[125.07077242300898,-9.0410621191214773],[125.07076171568065,-9.0410561710054367],[125.07074387043338,-9.0410442729747729],[125.07072721408974,-9.0410395137624846],[125.07071055684673,-9.0410240481213009],[125.07071055684673,-9.0410038223684523],[125.07070282357654,-9.0409937103913762],[125.07070520408195,-9.0409746744415997],[125.07069806526351,-9.0409592079010963],[125.07069628100862,-9.0409455256154843],[125.07069390140248,-9.0408979361907313],[125.07069509120561,-9.0408878242136552],[125.07070104022091,-9.0408818751983517],[125.07070877259184,-9.0408741419280432],[125.07071174664986,-9.0408670031096676],[125.07070817813997,-9.0408503467660353],[125.07069865971539,-9.0408384496346912],[125.07068914219019,-9.040814655372003],[125.07067545990458,-9.040802162889463],[125.07066177761897,-9.040788480603851],[125.07064155276555,-9.0407480299975305],[125.07063441484638,-9.0407367282173823],[125.07063203524035,-9.0407266153409864],[125.07062846583108,-9.0407063895881379],[125.0706314398891,-9.0406879489896141],[125.07063025098535,-9.0406653436306783],[125.07063382039451,-9.0406564205572977],[125.07063798425565,-9.0406439289740774],[125.07064036296242,-9.0406237041206055],[125.07065107119001,-9.040602287665422],[125.0706593989122,-9.0405773035996617],[125.07066356277323,-9.0405660018194567],[125.07067189139468,-9.0405445862635929],[125.07067486455344,-9.0405326891322488],[125.07067486365406,-9.040525551213193],[125.07067486185542,-9.0405094893214368],[125.07067248314866,-9.0404856950587487],[125.07067189139468,-9.0404684442632401],[125.07066594327875,-9.0404470287073764],[125.07066593968148,-9.0404279927575999],[125.07066118136845,-9.0404089568078803],[125.0706593989122,-9.0403911106611758],[125.07066296832136,-9.0403673172978074],[125.07066237297022,-9.0403518498579274],[125.07066118406647,-9.0403393582747071],[125.07067664970771,-9.040300096572139],[125.07068021911687,-9.0402870096377228],[125.07068795328644,-9.040278086564399],[125.07069865971539,-9.0402602413170143],[125.07072245487745,-9.0402459636802064],[125.07073792141796,-9.0402209796144462],[125.07074327508212,-9.0402144361472665],[125.07075576666534,-9.0401954010968097],[125.07076290638304,-9.0401852882204139],[125.07077361281199,-9.0401692263286577],[125.07079978668082,-9.04009189362597],[125.07081109025967,-9.0400788066915538],[125.07081763282758,-9.0400669095602098],[125.07082596144903,-9.0400431152974647],[125.07082536609778,-9.0400258636026933],[125.07081941798185,-9.0400127766682772],[125.07081346896643,-9.0400020693400052],[125.07081346896643,-9.0399699473551323],[125.07080454589311,-9.0399562650695202],[125.07079740797406,-9.0399437725869802],[125.07079145895875,-9.0399152191120038],[125.07078313123657,-9.0398997525715004],[125.07077361281199,-9.0398801221698477],[125.07075814717086,-9.0398515677955515],[125.07074624914014,-9.0398432400734237],[125.0707403010241,-9.039836696606244],[125.07073554181181,-9.0398277744321831],[125.07071531605902,-9.0398015996640311],[125.07071353180413,-9.039786727575347],[125.07070877259184,-9.0397742359921267],[125.07070341892768,-9.039763527764535],[125.07067129604354,-9.039709991123118],[125.07065702020543,-9.0396921449764704],[125.0706314398891,-9.0396659702083184],[125.07061716405099,-9.0396433657487023],[125.07061121503557,-9.0396326584204303],[125.07060705117453,-9.0396201659378335],[125.07058682542174,-9.039593992069058],[125.07058147175758,-9.0395832838414094],[125.07057433293915,-9.0395707922581892],[125.07056897927498,-9.0395648432428857],[125.07054756371917,-9.0395243926365652],[125.07054221095439,-9.0395166593663134],[125.0705374517421,-9.0395053566867887],[125.07053507213595,-9.0394970289646608],[125.07053507213595,-9.0394613366713088],[125.0705344767847,-9.0394476552850165],[125.07053269342907,-9.0394309989413841],[125.07054221095439,-9.039382219713616],[125.07054815907031,-9.0393500968294802],[125.0705529182826,-9.0393370098950641],[125.0705529182826,-9.0393132147329993],[125.0705529155847,-9.03930012779864],[125.07055351273448,-9.0392822816519356],[125.07055351273448,-9.0392537290762789],[125.07055351003658,-9.0392346931265593],[125.07055113132969,-9.0392132775706386],[125.07055113402771,-9.0391954323233108],[125.07054756371917,-9.0391763963735343],[125.07054637481542,-9.0391537919139182],[125.07054637481542,-9.0391264282420138],[125.07054458966115,-9.0390931146554863],[125.07053983134824,-9.0390752694081016],[125.07053388233282,-9.0390514751454134],[125.07053150272668,-9.0390407669178217],[125.07052674441377,-9.0390264901803334],[125.07051960559534,-9.0390026959176453],[125.07051425193129,-9.0389919876900535],[125.07050354370369,-9.0389794961068333],[125.07047142171882,-9.0389426140104092],[125.07044941171102,-9.0389217938056845],[125.0704404886377,-9.0389122762804845],[125.07042621190021,-9.0388956199368522],[125.07041966843303,-9.0388878866666005],[125.07041431476887,-9.0388747997321843],[125.07040003803138,-9.0388629017015205],[125.07039527881909,-9.0388462462572079],[125.07039349366482,-9.0388343491258638],[125.07039468436722,-9.0388224519945197],[125.07039468256858,-9.03881293357],[125.07040777040231,-9.0387938976202236],[125.07041312496585,-9.0387814060370033],[125.0704250220972,-9.0387683191025872],[125.07043334981927,-9.0387582062261913],[125.0704500061629,-9.0387403600794869],[125.07045892923622,-9.038732032357359],[125.07047261062257,-9.0387070482915988],[125.07047855963788,-9.038685632735735],[125.07048034479214,-9.038659457967583],[125.070477965186,-9.0386332840987507],[125.07047975034027,-9.0386190082605822],[125.07048093924402,-9.0386077046817945],[125.07047142171882,-9.0385815308129622],[125.07046963656455,-9.038569039229742],[125.07044643675374,-9.0385375107974255],[125.07041907308178,-9.0385030092064653],[125.0704089611047,-9.0384911120751212],[125.07039646862222,-9.0384762399864371],[125.07038338168775,-9.0384441171023013],[125.07037624286943,-9.0384316246197614],[125.07037862337484,-9.0384113997662325],[125.07037683822057,-9.0383977183799402],[125.07037802802358,-9.0383846314455241],[125.07038219188473,-9.0383739232179323],[125.07038338168775,-9.038310867252676],[125.07038814000077,-9.0382936155578477],[125.07040122693513,-9.0382608991211555],[125.07040479724367,-9.038221638317907],[125.0704089611047,-9.0381990329589712],[125.07041133981159,-9.0381877302795033],[125.0704125296146,-9.038172263738943],[125.07041728882689,-9.0381413306578224],[125.07041550367262,-9.0381270539203342],[125.07041193516272,-9.0381121818317069],[125.07042383229407,-9.0380669729124179],[125.07042323694293,-9.0380509110206617],[125.0704250220972,-9.0380407990435856],[125.07044167844072,-9.0380051067502336],[125.07047023191569,-9.037950973858301],[125.07049640578452,-9.0378784003678447],[125.07051663063805,-9.0378427080744927],[125.07052971757253,-9.037808205584156],[125.07055470343687,-9.0377487199274356],[125.07056659966895,-9.0377261145684997],[125.07058206710872,-9.0376975610935233],[125.07060551783047,-9.0376433580544813],[125.0706221741741,-9.0376231332010093],[125.07063339501519,-9.0376006924179819],[125.07063135535282,-9.0375874310150834],[125.07062302583199,-9.0375612571462511],[125.07061792577667,-9.0375500372044257],[125.07060160488027,-9.037525555859645],[125.07058375873351,-9.0375017606976371],[125.07057355862287,-9.0374885001940584],[125.07055452267309,-9.0374587569160667],[125.0705402432377,-9.0374393756266613],[125.07053412155256,-9.0374199952365188],[125.07052460492662,-9.0373890621554551],[125.07052460312798,-9.037374781820688],[125.07053174104703,-9.0373117258554316],[125.07054414899335,-9.0372728337742387],[125.07054533879636,-9.0372526080213902],[125.07055485722094,-9.0372204860365741],[125.07055723592771,-9.0372050185966941],[125.07056556544853,-9.0371847937431653],[125.07057270336759,-9.0371645679903736],[125.07058103108977,-9.0371443431369016],[125.07061315397391,-9.0371027018281893],[125.07062624090838,-9.0370836667777326],[125.07064170744889,-9.0370622512218688],[125.0706571739895,-9.0370455948782364],[125.07067026092386,-9.0370289394339807],[125.07069048577739,-9.0370146617971727],[125.07070476341414,-9.0370015748627566],[125.07071785034861,-9.0369670732717395],[125.07073093728297,-9.0369539863373802],[125.07073807520203,-9.036933759685212],[125.07074402421745,-9.0369111561249156],[125.07074402421745,-9.0368730842254195],[125.07073514341221,-9.0368342838750664],[125.07071491676004,-9.0367831259404738],[125.07070525444396,-9.0367498402329147],[125.0706755102666,-9.0366986822983222],[125.07066799373297,-9.0366793540688946],[125.07064974109278,-9.0366428478890839],[125.07063784396144,-9.0366202434294678],[125.07062356722395,-9.0365988278735472],[125.07060853505595,-9.0365741315908394],[125.0706031661033,-9.0365644683754454],[125.07059126897195,-9.0365406741127572],[125.07058053106675,-9.0365245681542774],[125.07056744413228,-9.036506722007573],[125.07054919059271,-9.0364906160490364],[125.07053372405221,-9.0364691995938529],[125.07050473440609,-9.0364530936353162],[125.07048093924402,-9.0364328687818443],[125.07046190329424,-9.0364209716505002],[125.07044364975468,-9.036412382225592],[125.07042539621511,-9.0363952015772497],[125.07040160195243,-9.0363821146428336],[125.07037660619551,-9.0363677515704239],[125.07033258617992,-9.0363534748329357],[125.07031830944254,-9.0363534748329357],[125.07029641814529,-9.0363515718674989],[125.07024882782116,-9.0363503820644269],[125.07022122672834,-9.0363446713694202],[125.07020409464326,-9.0363332499794637],[125.07018981790588,-9.0363249222573359],[125.07018267908745,-9.0363154038327593],[125.07014555956994,-9.0362811396628331],[125.07013485224172,-9.0362680527284169],[125.07012533381715,-9.0362573454001449],[125.07011462738819,-9.036243067763337],[125.07006227875127,-9.0361907200256724],[125.07005632973585,-9.0361728738789679],[125.07005395102908,-9.0361597869445518],[125.07004205299836,-9.0361419407979042],[125.07003134567015,-9.0361324232726474],[125.07001706893266,-9.036111484357491],[125.06998732565467,-9.0360900688015704],[125.06996828970489,-9.0360634191914073],[125.06995163426052,-9.0360515220600632],[125.06993640514099,-9.03603058314485],[125.06991974879747,-9.03601511570497],[125.06990451967795,-9.0359875137127688],[125.0698997622643,-9.0359720480715282],[125.06989738175878,-9.0359518223186797],[125.0698850088861,-9.0359280280559915],[125.06988215443789,-9.0359166057667153],[125.06988310502129,-9.0358937638860652],[125.06989143274347,-9.0358711594263923],[125.06990190265071,-9.0358578341716793],[125.06992379394796,-9.0358416526701149],[125.06993807068545,-9.035820238013514],[125.06996186584752,-9.0358088166235575],[125.06998209070093,-9.0357802631485811],[125.06999065674347,-9.0357659864110929],[125.06999779466253,-9.0357433819514767],[125.07000065090938,-9.0357243460017003],[125.07000422031854,-9.0357029313451562],[125.07000422031854,-9.0356791361831483],[125.07000541012167,-9.035663669642588],[125.06999946110636,-9.0356374957737557],[125.06999755724155,-9.0356108461635927],[125.06998090089792,-9.0355834815923686],[125.06997233485538,-9.0355663504067252],[125.06995924792102,-9.0355485042600208],[125.06994306821809,-9.0355351790052509],[125.06992998128362,-9.0355209022677627],[125.06991855899435,-9.0355218537504811],[125.0699007128477,-9.0355135260283532],[125.06988548462743,-9.0355116221635967],[125.06986406997089,-9.035503294441412],[125.0698478893687,-9.035499486711899],[125.06982885431819,-9.035489969186699],[125.06980029994395,-9.0354780720553549],[125.0697784086467,-9.0354628429358286],[125.06974509685881,-9.0354461865921962],[125.06970607257722,-9.035415730151783],[125.06968227921391,-9.0354026432173669],[125.06966038791666,-9.0353836072675904],[125.06963754513663,-9.0353607635883009],[125.06959114461574,-9.0353250721942686],[125.06956639887028,-9.0352946148545357],[125.06954141480446,-9.0352458356267675],[125.06951761964251,-9.035210619974066],[125.06949501518284,-9.0351773081861779],[125.06946265487773,-9.0351221042017187],[125.06944837814024,-9.0351018793481899],[125.06943885971566,-9.0350887924137737],[125.06942815238733,-9.0350745147769658],[125.06940792663454,-9.0350566686303182],[125.06934891581989,-9.0350052732746917],[125.06933463998166,-9.0349933752440279],[125.069315604032,-9.0349802883096118],[125.06930513412465,-9.034964107707367],[125.06927776955354,-9.0349462615606626],[125.06926349371531,-9.0349310342397757],[125.06924731311312,-9.0349234187806928],[125.06920686340607,-9.0348972449118605],[125.06917450220158,-9.0348905827341355],[125.06914499724394,-9.0348782098614606],[125.0691116836573,-9.0348532248963807],[125.06909169712424,-9.0348427558884055],[125.06907147137133,-9.0348237199386858],[125.06905338690433,-9.0348075402357608],[125.0690448208619,-9.0347932625989529],[125.06903530333659,-9.0347742266491764],[125.06902864115898,-9.0347570945642133],[125.06902673729417,-9.0347437702087632],[125.06902554839041,-9.0347283036682597],[125.06901864699307,-9.0346764307726062],[125.06899925491177,-9.0346380027415876],[125.0689798619311,-9.034599574710569],[125.06897771974604,-9.0345845839113963],[125.06897415123615,-9.0345691182701557],[125.06897272401204,-9.0345512721234513],[125.0689721286609,-9.0345256918071755],[125.0689721286609,-9.0345121291314285],[125.0689721286609,-9.0344928557606181],[125.06897153420903,-9.0344553792123179],[125.06897153420903,-9.0344425296989357],[125.06897082014734,-9.0344303951465577],[125.06896427578079,-9.0344119536487142],[125.06895785192341,-9.0344005331580206],[125.06895011865311,-9.0343868508724086],[125.06893227340572,-9.0343747163200305],[125.06892156517813,-9.0343657932467067],[125.06891442725907,-9.0343610340344185],[125.06889360615503,-9.034353299864847],[125.06886291139426,-9.0343433065982595],[125.06884292396182,-9.0343340273934132],[125.06880961217394,-9.0343197497566052],[125.06879105196549,-9.0343090424283332],[125.06877617987686,-9.0342995249031333],[125.06876190313938,-9.0342902447989104],[125.06874108293471,-9.0342753727102263],[125.06872894838227,-9.034264666281274],[125.06872038233985,-9.0342525299302565],[125.06870134639007,-9.0342263560614242],[125.06869278034765,-9.0342156487331522],[125.06868849687669,-9.0342063686289862],[125.068687782815,-9.0341992298105538],[125.06868635469152,-9.0341913778297567],[125.06868219083049,-9.0341717483274806],[125.06867790825891,-9.0341546153431977],[125.06866660557944,-9.034132605335401],[125.06866303706954,-9.0341268946404512],[125.06865018755616,-9.034119042659654],[125.06863888487669,-9.0341059548259182],[125.06861747022015,-9.03409465304577],[125.06858320605022,-9.0340782350224913],[125.06856535990346,-9.0340728813583269],[125.0685482278185,-9.0340636012541609],[125.0685280020657,-9.0340576522388005],[125.06850872869495,-9.0340498002580034],[125.06849445195746,-9.0340426623389476],[125.06848302966819,-9.0340369507446212],[125.0684773198725,-9.0340248161922432],[125.06847196620834,-9.0340087551998636],[125.06847268027002,-9.0340016163814312],[125.06847482065655,-9.0339951916247401],[125.06847422620467,-9.0339832935940763],[125.06847565432804,-9.0339747275515947],[125.06847565432804,-9.0339697309182725],[125.06847684413117,-9.0339542652770888],[125.06847089511575,-9.0339444500762625],[125.06847148956763,-9.0339319566944027],[125.06847089511575,-9.0339224400685225],[125.06846613590346,-9.0339147058988942],[125.06844758918498,-9.0339066084031856],[125.06841427559846,-9.0339032773143231],[125.06837144628525,-9.0338800766041913],[125.06834527241642,-9.0338753182912797],[125.06832909181423,-9.0338715105617098],[125.06830958012313,-9.0338634211599356],[125.06828816456721,-9.0338491444224474],[125.06826674991066,-9.0338396259978708],[125.06821678087977,-9.0338378417429794],[125.06820250414228,-9.0338321310479728],[125.06819001165979,-9.033832133745932],[125.06817240383339,-9.0338249949274996],[125.06813492818446,-9.0338267773838083],[125.06811493985265,-9.0338196385654328],[125.0680825804468,-9.0338077414340887],[125.06805937973661,-9.0338041720248725],[125.0680289232962,-9.0337917991521408],[125.06797003119209,-9.0337650299321126],[125.06794100197567,-9.0337521813180501],[125.06791720681372,-9.0337421871521428],[125.06788508392958,-9.0337279113140312],[125.06785795767871,-9.0337188686308423],[125.06783178380988,-9.0337003093217731],[125.06776753894087,-9.0336467708817167],[125.06775159665892,-9.0336311847313482],[125.06772899219925,-9.0336085811710518],[125.06771828397166,-9.0335889498700794],[125.06770222297928,-9.0335663454104633],[125.06768973139606,-9.0335484992637589],[125.06767485930732,-9.0335389808392392],[125.06765165859724,-9.0335175661826952],[125.06762548472841,-9.0335134023216028],[125.06760050066259,-9.0335009098390628],[125.06757551569751,-9.0334955561749553],[125.06755826490212,-9.0334943663718832],[125.06753209103329,-9.0334896080589147],[125.06750353755831,-9.0334878229046467],[125.06748569231092,-9.0334854432985026],[125.06746249160074,-9.0334818738893432],[125.06744762041137,-9.0334729508159626],[125.06742501505244,-9.0334527259624906],[125.06739646157746,-9.0334348798157862],[125.06736433869332,-9.0334009726767022],[125.06734827770094,-9.0333831274293175],[125.06732507789013,-9.0333599267191858],[125.06729830867005,-9.0333521943482538],[125.0672768940135,-9.033339700966394],[125.06725785806373,-9.0333391074138376],[125.06721502785126,-9.0333319676960855],[125.0671906391367,-9.0333331583984773],[125.0671739818938,-9.0333283991862459],[125.06714007475466,-9.0333283991862459],[125.06712282395927,-9.0333194761128652],[125.06710319265824,-9.0333117428426135],[125.06705144027183,-9.0333117428426135],[125.06702229234497,-9.033305199375377],[125.0670020656928,-9.033305199375377],[125.06696125895496,-9.0333010346150218],[125.06694579241446,-9.0333010346150218],[125.06691307417907,-9.033292706892837],[125.06690415110575,-9.0332843791707091],[125.06687916704004,-9.033255824796413],[125.06685358762309,-9.033215375089469],[125.06684169139101,-9.0331975289427646],[125.06681789622894,-9.033165406058572],[125.06678696314793,-9.0331130583209642],[125.06677090215544,-9.0330922381162395],[125.06675543471556,-9.033072606815324],[125.06672331183142,-9.0330416737342034],[125.06670487213216,-9.0330196637264635],[125.06667869826333,-9.0329923000545591],[125.06664241061878,-9.0329661261857268],[125.066592441588,-9.032934003301591],[125.06657162228259,-9.0329250802282104],[125.06655496593896,-9.0329161571548866],[125.06652760226712,-9.0329066396296867],[125.06650737561495,-9.0329000961624502],[125.06647882303935,-9.0328905777379305],[125.06646216669571,-9.0328893879348584],[125.06643599282688,-9.0328798713089782],[125.06641457727096,-9.032873326942422],[125.06639792092733,-9.0328649992202941],[125.06638245528609,-9.0328507215834861],[125.06635866012414,-9.032829902278138],[125.06634200378051,-9.03281562464133],[125.06631701881543,-9.0327936146335901],[125.06630155317418,-9.0327781489923495],[125.0662890606917,-9.0327650620579334],[125.06626764603504,-9.032747215911229],[125.06624920543652,-9.0327228262973449],[125.06622897878435,-9.0326966524285126],[125.06621291779197,-9.0326740470695768],[125.06618912263002,-9.0326502528068886],[125.06617603569555,-9.0326347862663283],[125.06611119637466,-9.0325812478262719],[125.06609216042489,-9.0325610229727999],[125.06605884773774,-9.0325146233511191],[125.06603386367192,-9.0324896392853589],[125.06601423327027,-9.0324664385752271],[125.06599995563352,-9.032453351640811],[125.0659856797954,-9.0324289629262466],[125.06597735117384,-9.0324134963856864],[125.06597199840905,-9.0323908910267505],[125.06596604939375,-9.0323742346831182],[125.0659654540425,-9.0323373543853336],[125.06596307533573,-9.0323171277332222],[125.06596426423948,-9.0322974982308892],[125.06596783364864,-9.0322784622811696],[125.06597437711582,-9.0322600207832693],[125.06598032613124,-9.0322469338488531],[125.06598746405029,-9.0322278978991335],[125.06600531019694,-9.0322070776944088],[125.06601601842453,-9.0321928009569774],[125.06602851000775,-9.032176739964541],[125.066043975649,-9.0321553253079969],[125.06607431427824,-9.0321190376633922],[125.06609044721642,-9.0320945770030789],[125.0661028200891,-9.0320736380878657],[125.06613375317022,-9.0320242644082214],[125.06614993377252,-9.0319995177634951],[125.06616706585748,-9.0319785779489621],[125.06619383507746,-9.0319494300221095],[125.06621477399267,-9.0319246842767029],[125.06623440529359,-9.0318967252536027],[125.06625153737866,-9.031871027126158],[125.06627116688094,-9.0318525856282577],[125.06631970778835,-9.0318230806705628],[125.0663655129581,-9.0317867939253347],[125.06638454890788,-9.0317715648058083],[125.06640001544838,-9.0317584778713922],[125.06642666505866,-9.0317394428209923],[125.06643796683875,-9.031723976280432],[125.06645343427863,-9.0317126736009641],[125.06647151784637,-9.0316936376511876],[125.06648103627083,-9.0316876886358841],[125.06649233805103,-9.0316793609137562],[125.06651042161877,-9.0316536627862547],[125.06651875024022,-9.0316465248671989],[125.06652826776542,-9.0316381971450141],[125.06654539985038,-9.0316096427707748],[125.06655075441381,-9.031601910399786],[125.06655967658787,-9.031589417917246],[125.06657395422462,-9.0315741887977197],[125.06657692828264,-9.0315664564267877],[125.06658109214379,-9.031556938002268],[125.06658775522078,-9.031545515712935],[125.06659132373068,-9.031537783342003],[125.06659893829044,-9.0315244580872331],[125.06660072344471,-9.0315155350139094],[125.06660262641014,-9.0314993553109275],[125.06659977106267,-9.0314869824382527],[125.06658739818988,-9.031477464013733],[125.06658204362645,-9.0314602132182245],[125.06656205619402,-9.0314506947937048],[125.06655789233298,-9.0314477207356845],[125.06655313312069,-9.0314471262838083],[125.0665407602479,-9.0314366563765702],[125.06653124182344,-9.0314420100406778],[125.06649972418302,-9.0314406880372644]]]},"properties":{"OBJECTID":436,"nama_kawasan":"Kawasan Perbatasan PKSN dan Wilayah Pendukung PKSN Atambua, Kec. Lasiolat, Lamaknen Selatan, Tasifeto Barat, Nanaet Duabesi - Kab. Belu","delineasi_asal":"Lasiolat","Shape_Length":0.32943174880210274,"Shape_Area":0.0049563707657750786}}]}