{"type":"FeatureCollection","features":[{"type":"Feature","id":427,"geometry":{"type":"MultiPolygon","coordinates":[[[[124.28334750808108,-8.4705547339137865],[124.28329079233629,-8.4705446327285472],[124.2828234173669,-8.4704292110392316],[124.2817942449085,-8.470154367430041],[124.28155017879783,-8.4701602669827025],[124.28146325932198,-8.4701623677989915],[124.28037068196147,-8.4702664607285101],[124.27924544662017,-8.4704810389687282],[124.27895629119996,-8.4706996803459447],[124.27874175972454,-8.4708040385754657],[124.27828533759828,-8.4709731327038753],[124.27815482258711,-8.471058242743652],[124.27768779115866,-8.4713831480138424],[124.27717221342698,-8.4716515551750717],[124.27651299507875,-8.4718742740784592],[124.2760686661361,-8.4721919290142864],[124.27524361909775,-8.4726941482163056],[124.27489041576018,-8.4728971647722915],[124.27419052557241,-8.4732923682481669],[124.27364613895816,-8.4734879141358874],[124.27355396294513,-8.4735210235763248],[124.27310911869097,-8.4736836641696982],[124.27283035313837,-8.4737029780099533],[124.27278458843807,-8.473706149019506],[124.27255226027864,-8.4737222576760018],[124.27230068213089,-8.4736385388874282],[124.27214771284673,-8.473645569787152],[124.271854057219,-8.4736242261770371],[124.27108555595373,-8.4734962418580153],[124.27106313495574,-8.4734925078728907],[124.27092447838208,-8.4735598050409067],[124.27085241660575,-8.4736633358941731],[124.27085396343978,-8.4737757421567039],[124.27093005687664,-8.4739143052009922],[124.27112310444772,-8.4742120230663431],[124.27110490037091,-8.4746125856023014],[124.27119127575679,-8.4750729917251419],[124.27116438512837,-8.4752808978950611],[124.27096344780489,-8.4758220541444302],[124.27070968070723,-8.4759785550662059],[124.2705499008573,-8.4760091643913711],[124.27041640099617,-8.4761197108559259],[124.27015071338474,-8.4764051961428208],[124.26966955720434,-8.477059053632388],[124.26971311856562,-8.4774247269695024],[124.2697015263044,-8.4775889755507592],[124.26962099381387,-8.4777308993614611],[124.26947007228603,-8.4779883977462873],[124.26935938462793,-8.4788022113528996],[124.26939355616776,-8.4791918830989061],[124.26958924504765,-8.4804250083074635],[124.26965525978244,-8.4806070229956845],[124.26976416588366,-8.4806496013979427],[124.26986272888189,-8.4805994605965793],[124.27016952540339,-8.4804447583188676],[124.27039980670577,-8.4805564136475482],[124.27051919710334,-8.4806731636355721],[124.27059000972122,-8.4808049925563296],[124.27139919721526,-8.4819015233366031],[124.27159358837343,-8.4821361636529673],[124.27211024439237,-8.4830541960942014],[124.27235149382648,-8.4837153830584384],[124.27261949359479,-8.4847868506325881],[124.27260183810438,-8.4857104768569798],[124.27256513497309,-8.4862128048769705],[124.27260502620106,-8.4866961329201445],[124.27260202606271,-8.4868603985884761],[124.27263038528406,-8.4869863360505065],[124.27274630699651,-8.4871865080508542],[124.27291594791268,-8.4873456170065538],[124.27320305737521,-8.4875559927148174],[124.27324938505114,-8.4879053361622709],[124.27338515030453,-8.4880595078399779],[124.27382588465696,-8.4883994605665976],[124.27465358829249,-8.4887938834309011],[124.27541061960449,-8.4890987113363963],[124.27561519738356,-8.4893040859147959],[124.27604243201267,-8.4897003991540601],[124.27624961872493,-8.4897945860512323],[124.27642488490062,-8.4898975548282465],[124.27647405623281,-8.4900187420712427],[124.27672274485883,-8.4906055083374667],[124.27712385418261,-8.4912213361956788],[124.27723391591257,-8.4912032112591191],[124.27743004096374,-8.4910610860002862],[124.27767821337886,-8.4908559137693373],[124.27805849440404,-8.490583022588396],[124.27817441611649,-8.4904593828941302],[124.27827913497413,-8.4904539923578],[124.27835599463356,-8.4905168522708436],[124.27846600959867,-8.4906898053901614],[124.27866247909014,-8.4906558209093532],[124.27884918194422,-8.4905504608350384],[124.27892379239915,-8.4904113833786141],[124.27919097828112,-8.4899183984152842],[124.279485151019,-8.4895465386417754],[124.28021049381925,-8.4887275710205472],[124.28050591571548,-8.4881803830182321],[124.28068807339594,-8.4876631334468016],[124.28069326518209,-8.4876370647986619],[124.28079593178688,-8.4871216327571233],[124.28088385400667,-8.4856050079646934],[124.28107739980226,-8.4850993362653071],[124.28112661969783,-8.4850096549715772],[124.28131138541221,-8.4846730081527539],[124.28163222844466,-8.484201804769441],[124.28191104525854,-8.4839186298408436],[124.28192404226081,-8.4839054295918572],[124.28222860306767,-8.4837040713857164],[124.28271557156643,-8.4834893195763925],[124.28318427483453,-8.4832527583080832],[124.28355844676491,-8.4829813833840717],[124.28374438519529,-8.4828411952648821],[124.28401336972127,-8.4827567741057806],[124.28504863508647,-8.482625413731796],[124.28552808885024,-8.4826666953117069],[124.28620938465542,-8.4828046477162502],[124.28681843162542,-8.4829074303335688],[124.28722721306553,-8.4828641477621431],[124.28753710415413,-8.4828131022428011],[124.2876771816567,-8.4828281721823373],[124.28781347840936,-8.4828428356283325],[124.28805721267031,-8.4829669609564462],[124.28805923614493,-8.482968505991721],[124.28861400992866,-8.483392210781858],[124.28915768158186,-8.4839140082248718],[124.28937015091185,-8.4840162269672419],[124.28967597886344,-8.4840318508891528],[124.28984704070842,-8.483939929384178],[124.29032408788646,-8.4836575071881839],[124.29061672907881,-8.48356797608119],[124.29157658808913,-8.4834552415661051],[124.2917288999688,-8.4836139143505989],[124.29181293172144,-8.4835852421651339],[124.29185472861286,-8.4834984297087317],[124.2919780571417,-8.4832547727895076],[124.29220318173157,-8.4830223358121088],[124.29239710434297,-8.4827563361359353],[124.29254533779715,-8.4823580857570278],[124.2927882293933,-8.4813313828370269],[124.29305310401764,-8.4805900545873101],[124.29302486890265,-8.4802436483256542],[124.29298374380483,-8.4798169919605471],[124.29298358912138,-8.4792377269395161],[124.29308165029795,-8.4787062896634779],[124.2931848070333,-8.4782469150630391],[124.29342165068874,-8.4773858978408612],[124.29336922920663,-8.4772536480373901],[124.29321415101231,-8.4771144302866901],[124.29279079066248,-8.4768083199479634],[124.29264657268129,-8.4765225702603857],[124.29219469842667,-8.4753290538926649],[124.29200300973116,-8.4750340537785291],[124.29169044675677,-8.474660914269748],[124.29158105682041,-8.4745214447088415],[124.2912390419483,-8.4741969297444371],[124.2909141672551,-8.4735604921229424],[124.29086580711135,-8.4733091334097139],[124.29083193234783,-8.4730880863460811],[124.29070752643122,-8.4729543670503631],[124.29053213524992,-8.4727670076912318],[124.29042285413152,-8.4725246017289351],[124.29040596306481,-8.4723323212795663],[124.29040008779384,-8.4722651949826968],[124.29056180658222,-8.4720678513502321],[124.29043544823742,-8.4717979917838306],[124.29038615100012,-8.4715053200144439],[124.29025177609867,-8.4713464143055148],[124.29005529131871,-8.471228398971391],[124.28970138471118,-8.4711549612324006],[124.28898974398157,-8.4710026007893475],[124.28882255731526,-8.4709307737361996],[124.28868689998046,-8.4709678518848364],[124.28824175984937,-8.4710711803905951],[124.28731864983592,-8.471114273205103],[124.28720119837669,-8.4710476487299502],[124.28698830726466,-8.4709291801374889],[124.28660308806218,-8.470836819763349],[124.28593513459884,-8.4707601480623111],[124.28555833844666,-8.4707675863549525],[124.28490955673067,-8.4707263047750985],[124.28432915136932,-8.4706064152538261],[124.28405857234532,-8.4705505232879545],[124.28341257223246,-8.470566320779028],[124.28334750808108,-8.4705547339137865]]],[[[124.32893124408167,-8.2133833506610472],[124.32902938439861,-8.2131943347507104],[124.32948577414925,-8.2128356482465392],[124.32960454041722,-8.2126385699140201],[124.32961908785069,-8.2125162261428954],[124.32957310281654,-8.212372834638586],[124.32950525886065,-8.2122846480180556],[124.32926571184316,-8.2122630858726779],[124.32912783678034,-8.2122515547653734],[124.32903325867801,-8.2121465067558574],[124.32898038393762,-8.2117875225760599],[124.3290624146988,-8.2111923980107235],[124.32931154039534,-8.2094561317949797],[124.32945049284604,-8.2087963351826829],[124.32950021186537,-8.2084027567817657],[124.32939766576976,-8.2072014603790535],[124.32939199284624,-8.2071685703731987],[124.32929446316905,-8.2066033203868756],[124.32913655570758,-8.2053463667413666],[124.32909946227039,-8.2049497882021001],[124.32903113357997,-8.2047888356362364],[124.32899944686699,-8.2045136331975641],[124.32898832135402,-8.2034722272614431],[124.32889081236112,-8.2029402881637452],[124.32872272817144,-8.2029382260182615],[124.32856118115365,-8.202952491963913],[124.32831085216412,-8.2031214143217426],[124.32816313402145,-8.203221085284838],[124.32808255566545,-8.2032807571011972],[124.32792091511817,-8.2034535699262392],[124.32703671157503,-8.2037586010785049],[124.3265798991431,-8.2038626328541682],[124.32651394736081,-8.2038776479350304],[124.32623002419632,-8.2039321630388713],[124.32598444722453,-8.2040333817351438],[124.32579472804434,-8.2041788200964447],[124.32529246207753,-8.2049819290727442],[124.32504969638649,-8.2053700701725347],[124.32491338434522,-8.2055611005642959],[124.32462763375838,-8.205812226353089],[124.32433574439915,-8.2059847424018812],[124.32435366608888,-8.2060921951986074],[124.32423241499407,-8.2066015703061908],[124.32420433726043,-8.2066797879418232],[124.32411564971756,-8.2068708201322238],[124.32401213415278,-8.2070257418444612],[124.32399085259578,-8.2070553196472247],[124.32390993069885,-8.207177163395329],[124.32344188303648,-8.2074775225695475],[124.32248208338149,-8.2084139470459832],[124.32196961820341,-8.2089139296340932],[124.32049264991588,-8.210201506993883],[124.31990149315948,-8.2106682101697288],[124.31931261798297,-8.2109410392974951],[124.3187456646807,-8.211124758200981],[124.31831532109527,-8.2111839443834924],[124.31774774276414,-8.2112342101905824],[124.31689618101404,-8.2112603507845279],[124.31632855591818,-8.2112979136677495],[124.31591404040068,-8.2113379299015037],[124.31519736796417,-8.2115636480438639],[124.31503901264034,-8.2116739462955479],[124.3146600086526,-8.2119379296916577],[124.31436818134659,-8.2122952105554532],[124.31387971187928,-8.2128980863775496],[124.31350155595214,-8.2132144292024805],[124.31293500914342,-8.2134807877081357],[124.3126483997039,-8.2135901479668973],[124.31223382213329,-8.2136142731800987],[124.31136597725811,-8.2135737407355123],[124.31035471210032,-8.2135561014329141],[124.3094704150277,-8.2134043992935517],[124.30867907188167,-8.2133507889077464],[124.30751119698425,-8.21327030498054],[124.30683489961098,-8.2132606480604409],[124.30621003986153,-8.2133397731120112],[124.30566154064763,-8.2135355078573298],[124.30519958679156,-8.2137049140504814],[124.30482483030175,-8.2137878621201139],[124.30475513374245,-8.2138032890904924],[124.30425522759674,-8.2139433818815064],[124.30381128985925,-8.2141940697005111],[124.30317319568644,-8.2145838817406798],[124.30239739912076,-8.2153618052030879],[124.30239243756102,-8.2153678864187896],[124.30140064992008,-8.2165835845647166],[124.30113769714706,-8.216930616754496],[124.30088843115618,-8.2172083669724998],[124.30068074262226,-8.2174582885691052],[124.30000258724965,-8.2183466946441968],[124.2995468998696,-8.2192620848772435],[124.29932644635846,-8.2198582418643014],[124.29910607108832,-8.220482070091407],[124.29826186759112,-8.2219723672309328],[124.29771271187224,-8.2225659602507903],[124.29704543110188,-8.223141038028416],[124.29661922799505,-8.2234162728426554],[124.29641877360757,-8.2235315857140563],[124.295005290262,-8.2241608674300437],[124.29448391639971,-8.2245541328668992],[124.29373488365798,-8.2253901480368654],[124.2930207742894,-8.2261910536741425],[124.29230700756239,-8.2270682416059913],[124.29161238380448,-8.2279453360084176],[124.29116550888114,-8.2285893198412055],[124.29108913485572,-8.2287121834204981],[124.29071580469065,-8.2293127569781177],[124.28982500911695,-8.230546678986002],[124.28975598075397,-8.230642199577801],[124.28935266539327,-8.2312003053497733],[124.28851821234571,-8.2321987893425899],[124.28791818017999,-8.2328371011512331],[124.28698761838393,-8.23374385159741],[124.28627260339795,-8.2343540856724644],[124.28535093409835,-8.2350858936989653],[124.28535079110623,-8.235086007912912],[124.28475004128143,-8.2355685859214418],[124.28384080600847,-8.2362591330524992],[124.28295404029677,-8.2369845388053591],[124.28191141577929,-8.2378059759649886],[124.28023850860041,-8.2389353355972048],[124.27974665498425,-8.2391691125644684],[124.27618369032507,-8.2412788600313434],[124.27593030004334,-8.241428900223525],[124.27076006522486,-8.2517582533406539],[124.27002067861144,-8.2530494720554657],[124.26838623723518,-8.2559037592510549],[124.26129408375505,-8.2682890578936394],[124.26125528969987,-8.2685248043761703],[124.26086936812692,-8.2693050076199484],[124.26062483706664,-8.2699516642378512],[124.26044819582762,-8.2702105385854452],[124.26034904197479,-8.2703347448525619],[124.25986724277914,-8.2709382726831109],[124.25953107080238,-8.2713684292095877],[124.25927493039376,-8.271728506964962],[124.25805914861087,-8.2729792256107544],[124.25734705642162,-8.273721836293646],[124.25710250917348,-8.274031866777193],[124.25631505469607,-8.2748270698133979],[124.2563101183174,-8.2748320538561302],[124.25591693112153,-8.2752258831679342],[124.25565291534986,-8.2754988346034679],[124.25469750888294,-8.2762833671836233],[124.25436132161781,-8.2767135228107804],[124.25412244639381,-8.2769922415986343],[124.25344941535832,-8.2777111173741105],[124.25303013343398,-8.2779853674306878],[124.25155329015229,-8.2788816317818146],[124.25126141518217,-8.2790099128771431],[124.25087832107772,-8.2791748980030775],[124.25073252478626,-8.2792845226625218],[124.25045914887073,-8.2794855382269361],[124.25020414970186,-8.2797228828047764],[124.24999999370482,-8.2799106792344332],[124.24999947029937,-8.2799112646930553],[124.2489056950418,-8.2810942158253624],[124.24857310236689,-8.2814539257580009],[124.24746860269397,-8.2826484763460826],[124.24695314906864,-8.2831667421513657],[124.24649946178079,-8.2835597269997265],[124.24578750898638,-8.2841800074013463],[124.24537533710213,-8.2843812424003431],[124.24484944684457,-8.2846639757618163],[124.24430888324844,-8.2850234293877065],[124.24378538428812,-8.2856341643851579],[124.24335235262902,-8.2863006798324363],[124.24300340038667,-8.2870230863463235],[124.24262100865269,-8.2878479760032633],[124.24226783679126,-8.2886978506252831],[124.24196847766314,-8.2895181483438023],[124.24183458659695,-8.290103178918514],[124.24169938431919,-8.2907996948499658],[124.24148574317257,-8.2915835070731418],[124.24022440623139,-8.3026598928397561],[124.24020641529387,-8.3028178821394931],[124.23988075908983,-8.3043456009686452],[124.23942246187721,-8.3057831951383037],[124.23905572823935,-8.3069644924173645],[124.23846021156953,-8.3084171331441325],[124.23830674855765,-8.3087955723577238],[124.23795699322068,-8.3096580698639855],[124.23782244564939,-8.3099243348401615],[124.23746521244971,-8.310631289202604],[124.2368639473134,-8.3117464764187048],[124.23597505470502,-8.3132454915861445],[124.23579258675852,-8.3134205392264562],[124.23502249639114,-8.3141477957840948],[124.23451190000424,-8.3146299915807731],[124.23367164992681,-8.3156059142814911],[124.23289293056439,-8.3164406793937928],[124.23217932121872,-8.31715650826618],[124.23155125898347,-8.3178263197288516],[124.23089269714035,-8.318394726335498],[124.23031399329625,-8.3187707265877293],[124.22738503988774,-8.3208264140077404],[124.22651296190372,-8.3214366318949828],[124.22592882165782,-8.321870038571376],[124.22533418632372,-8.3222229981927853],[124.22517230565745,-8.3223190862567549],[124.22459649313373,-8.3226791010596344],[124.22380091508023,-8.3232752877243001],[124.22321155606858,-8.3237788361243474],[124.22242441455512,-8.3243079918203193],[124.22151032114448,-8.3252692258940328],[124.22088313394954,-8.3263689132946865],[124.21993080586208,-8.327689992199339],[124.21939725877655,-8.3285075227039442],[124.21870902380249,-8.3302982887349799],[124.21836086656083,-8.3313483902159646],[124.21786544713279,-8.3328426632582477],[124.21736738369782,-8.33494666405727],[124.21726527377348,-8.3353084289407775],[124.21193852364399,-8.3330606948950958],[124.2091750868608,-8.3320690232667403],[124.20810172801237,-8.3319238052393985],[124.20676383718137,-8.3320459286766209],[124.20548430605595,-8.3322012272048482],[124.20351833680184,-8.3324787867665577],[124.20292633738063,-8.3325623670595519],[124.20280069579553,-8.3326059769842118],[124.20264830567487,-8.3325694447240721],[124.20176674344054,-8.3322751478797272],[124.20156455516019,-8.3323606482252899],[124.20140296227692,-8.3323528672909219],[124.20104604024266,-8.3323587731388216],[124.20085786789639,-8.3324446008376185],[124.20046585161776,-8.3326572257503244],[124.20032441523961,-8.3326744612573407],[124.20000065030979,-8.332697179031527],[124.19977018104908,-8.3327345233794858],[124.19964782109014,-8.332830570074691],[124.19942966534688,-8.3329600553622072],[124.19899096166364,-8.3332263671031228],[124.19832050808509,-8.3336821174357283],[124.19829880744408,-8.3336666212175601],[124.19825014782612,-8.3336318750109513],[124.19816968008672,-8.3335744137281722],[124.19794696208271,-8.3333219911169749],[124.1977404003992,-8.3330932584470929],[124.19703377428937,-8.3324300084381093],[124.19666016623376,-8.3319149918833091],[124.19646246197306,-8.3317305382337281],[124.19622767956378,-8.3315399449124925],[124.19592264121695,-8.3313483902159646],[124.19574532098989,-8.3312370388582053],[124.19571024293339,-8.3312201963549342],[124.19527719598591,-8.3310575233859367],[124.19508161772251,-8.3309830226483541],[124.19472550777607,-8.3308065549784942],[124.1945745089065,-8.330815601258962],[124.19423046156658,-8.3308641007975552],[124.19413497694768,-8.3308192264261152],[124.19377394591095,-8.3304785227655884],[124.19365925896773,-8.3303206791559887],[124.19359396189191,-8.3300489292146835],[124.19347722719237,-8.329706648143258],[124.19344451705092,-8.3296394750816489],[124.19339090036976,-8.3295293665869394],[124.1932417999692,-8.3295834868883389],[124.19302508673843,-8.3296621478897919],[124.1920959458713,-8.3298308975778355],[124.19181899694922,-8.3297698309129373],[124.19178380377957,-8.3297486968448311],[124.19115028985402,-8.3293682584383077],[124.19110115269609,-8.3293218183471822],[124.19014107784858,-8.3292598784406096],[124.18843458908509,-8.3332175573443692],[124.18775924139595,-8.3347838193177495],[124.18472864571049,-8.3345088992662681],[124.1600564180693,-8.3322708500196541],[124.15573697608068,-8.3420881966129627],[124.1557262372761,-8.3421030875873612],[124.14941299201598,-8.3564520073542212],[124.14941278876927,-8.3564619853323165],[124.14572343428915,-8.3651049594262759],[124.13933288510464,-8.3800759591381393],[124.13932240260681,-8.3801005151266281],[124.1392764166734,-8.3801027112710358],[124.13927376367337,-8.3801030683019349],[124.13921479602607,-8.3802449453478971],[124.139214402123,-8.3802458932333366],[124.13927815416355,-8.3816332251931271],[124.13942172103566,-8.3847574142232588],[124.14000306438993,-8.3886162333524226],[124.14041180895788,-8.3913293512684959],[124.14649650231183,-8.391376160081677],[124.1595827136714,-8.3914859942831868],[124.16161104281548,-8.3914892876005069],[124.17027867631987,-8.3920197832863437],[124.18092146835113,-8.3927140392214596],[124.18112972255869,-8.3927271963030421],[124.18157570985124,-8.3921439823588457],[124.18578714775867,-8.387195127353209],[124.18652065010792,-8.3890441640568838],[124.18731005521499,-8.3910690541934514],[124.1887243677354,-8.392390304868627],[124.18943378983761,-8.3937915862126715],[124.19155849303013,-8.3968260390903993],[124.19352647676556,-8.3998609290385957],[124.19714688382169,-8.4052299446062193],[124.19919527414265,-8.4088104604343812],[124.20014108664191,-8.4106790232182789],[124.20312960304875,-8.4142563356613209],[124.20532833663344,-8.4158870241668069],[124.20838999310376,-8.4178269607455718],[124.20915839634301,-8.4182301663890371],[124.2093126660468,-8.418311100876565],[124.20928641483624,-8.4182128355538453],[124.20927846213135,-8.4181747267821834],[124.20913366498667,-8.4179401323311822],[124.208990492917,-8.4175837112192653],[124.20898288375315,-8.4175279757354247],[124.20900724279011,-8.4171628977495061],[124.20901552374744,-8.4167455547635086],[124.20909941610523,-8.4163307730466954],[124.20946252457588,-8.4155618670864669],[124.20966971128826,-8.4152384286105644],[124.20991274317862,-8.4146579917728559],[124.2101572589504,-8.4141259771320733],[124.21018985307933,-8.4140700393008387],[124.21031147829217,-8.413832679434563],[124.21040768686532,-8.4136216742008401],[124.2104150523129,-8.4136055223768835],[124.2104190102292,-8.4135968412211923],[124.21041953093663,-8.4135956981828599],[124.21042349334959,-8.4135870080339714],[124.21045206840824,-8.4134959723612042],[124.21045247220388,-8.4134946863306368],[124.2104587117002,-8.4134748041188914],[124.21045886998093,-8.4134737114425775],[124.21045903995275,-8.4134726016791888],[124.21046273886441,-8.4134644915929471],[124.21049852468718,-8.413386038334977],[124.21050546475544,-8.4133758328283648],[124.21051001892226,-8.4133691355771134],[124.21074557115128,-8.4130227419059906],[124.21096675940851,-8.4127313345833841],[124.21161075942905,-8.4121142099028248],[124.21170536810837,-8.4120292266674142],[124.21221789893696,-8.411375102079262],[124.2124798678517,-8.4109813671963138],[124.21275344611468,-8.4105373359292912],[124.21283090022598,-8.4103990228965699],[124.21283783669685,-8.4101972267205838],[124.21309413358745,-8.4092329916092012],[124.21318260169573,-8.4089201804219442],[124.2133998518218,-8.4086270077301606],[124.21370118136451,-8.4083484454243944],[124.21420200931539,-8.4079344919831556],[124.21452202497153,-8.407693616667018],[124.21517490040139,-8.4073855539001556],[124.21523357127239,-8.4073636167374843],[124.21548127514075,-8.4072519452210486],[124.21587264930338,-8.4068685237633076],[124.21608152494252,-8.4066748979281556],[124.21618541462522,-8.4066106800387956],[124.21647163375894,-8.4064697256972636],[124.21745442997803,-8.4062017879820701],[124.21760105544445,-8.406133242555029],[124.21772029025919,-8.4060218822040724],[124.21783840002217,-8.4058721010165982],[124.21829939969757,-8.4049398817700762],[124.21841010264416,-8.4047123523931191],[124.21861189882009,-8.4043443992745779],[124.21884900867485,-8.4039761790573948],[124.2190957115979,-8.4037055541679706],[124.21923157128003,-8.4035752891682023],[124.21941804031042,-8.4033211947173072],[124.21975166630637,-8.4028005241248138],[124.2199353986997,-8.4025465070156429],[124.22009116487538,-8.4023760081462342],[124.22046900873784,-8.4018756325543791],[124.22067672784874,-8.4016072101046007],[124.22070274343696,-8.4015818051561268],[124.22122275932293,-8.401218851368867],[124.22155096240704,-8.4010378825921634],[124.22160727525556,-8.4010146009430287],[124.22177891536467,-8.40091691388443],[124.22200933696138,-8.4006909286433711],[124.22222374433045,-8.4002749760093138],[124.22243627391492,-8.3999118819277783],[124.22246794623879,-8.3998686011549921],[124.22321474326588,-8.3991841963934917],[124.22360949258405,-8.3988654595732442],[124.2239167432632,-8.3986377728149364],[124.22414239935233,-8.3984498666679883],[124.22428294720032,-8.3982273042466318],[124.22431532189466,-8.3981506316462742],[124.22440604010671,-8.3978762260069857],[124.2245591343966,-8.3975885229918958],[124.22476182090134,-8.3973493204147758],[124.22561430625524,-8.3963760228351134],[124.22600405534297,-8.3959626323695602],[124.22655147806836,-8.3953790074352241],[124.22738399307684,-8.3948923204242192],[124.22761503970241,-8.3947408826855394],[124.22780900907856,-8.3945442108466182],[124.22798971165594,-8.3941905857269035],[124.22809696210516,-8.3939696321927499],[124.22840944593929,-8.393624913958547],[124.22932357082618,-8.3929821792841039],[124.22936175783889,-8.3929595082746573],[124.22969200778005,-8.39274585094023],[124.23006091507921,-8.3925686170479707],[124.23036516472064,-8.3924476951049769],[124.23066825783394,-8.392209070791921],[124.23075566474222,-8.3920236953372296],[124.23076991539938,-8.391312819930647],[124.23083461802321,-8.3908749921870935],[124.23104208712266,-8.3902226491558736],[124.2317121962609,-8.3880888520188819],[124.2319200089014,-8.3876133831510629],[124.23226293029006,-8.3870476331417194],[124.23291396121044,-8.3863566012760771],[124.23317300822782,-8.3860658828342025],[124.23328486770254,-8.3858566492648947],[124.23332372830748,-8.3856282106733602],[124.23330235322112,-8.3854757728885829],[124.23312055526947,-8.3851976953173448],[124.23301389927212,-8.3850487729824295],[124.23294380611185,-8.3846097581337631],[124.23295646227098,-8.3841816952290174],[124.23303791476803,-8.3838885863891051],[124.23316421195887,-8.3835228357102665],[124.2332121647097,-8.382875647593039],[124.23324974288141,-8.3822100080853374],[124.23330242966347,-8.3817777273602019],[124.23340522756928,-8.3813970227543564],[124.23364818121865,-8.3808464919719654],[124.23370785213569,-8.3807145704210484],[124.23390500870926,-8.3802787112934425],[124.2341298518113,-8.379925664437792],[124.23425766525907,-8.3798085070569073],[124.23510771165161,-8.3790293668117783],[124.23543072834548,-8.3787571950884399],[124.23579724344813,-8.3784632732613886],[124.23599202491209,-8.3782135387237986],[124.23622652403492,-8.3775843658257827],[124.23636374259274,-8.3772488674412102],[124.23651057130587,-8.3770202570791525],[124.23676383658187,-8.3767879289197253],[124.2380058219112,-8.3761059136569429],[124.23868277489021,-8.3758614599383918],[124.239635899777,-8.3755181167676369],[124.23989970240939,-8.3753643246038223],[124.23991589470279,-8.3753548853196662],[124.23996325929704,-8.3753272734348911],[124.24031807242113,-8.3750160882218552],[124.24031839078123,-8.3750158076333605],[124.24033011794063,-8.3750055229864415],[124.24033238513152,-8.3750019778589717],[124.24033274665896,-8.3750014130847035],[124.24033339686878,-8.3750003959514743],[124.24033364688034,-8.3750000056456884],[124.24034818532061,-8.3749772788782479],[124.24035324490637,-8.3749693693408744],[124.24105696170943,-8.3738692727486637],[124.24138493096984,-8.3728351324353412],[124.24152044621167,-8.3723218668606023],[124.24153935265906,-8.3721549293064754],[124.24169946166091,-8.3707410538564773],[124.24174577404824,-8.370211944925245],[124.24178850893259,-8.3699945239280851],[124.2420090559732,-8.3696049457116146],[124.24239669615065,-8.3689800068218005],[124.24300180498938,-8.3681726791257915],[124.24363705640508,-8.3672461795674735],[124.24424594689299,-8.3663580855571809],[124.24433921198511,-8.3662118656849884],[124.24451083680572,-8.3659427732403628],[124.24497947802058,-8.3652036330411761],[124.24580424267174,-8.3637188982085604],[124.24617446208185,-8.3630300543934482],[124.24664469689526,-8.3621927424010778],[124.24707305567699,-8.3615965242601646],[124.2476628211823,-8.3609613348976382],[124.24812468060964,-8.3605312260352207],[124.24843360312832,-8.3602443351079501],[124.24908007088857,-8.3591662260404291],[124.24916652541492,-8.3589523357816233],[124.24924721168952,-8.358833538936608],[124.24986047827849,-8.3583389918509283],[124.24997209223829,-8.3582762047829533],[124.24999067133251,-8.3582657537614864],[124.24999966815028,-8.3582606932763497],[124.25000000899331,-8.3582605080159738],[124.25037400915323,-8.3580501323077101],[124.25039304420363,-8.3580435222906999],[124.25040225236216,-8.3580403252008182],[124.25132839938624,-8.3577187267378008],[124.25194172802844,-8.3575723827592014],[124.25329742993256,-8.357444679927994],[124.253659836932,-8.357410538965155],[124.254791633727,-8.3574074138210221],[124.2557492741098,-8.3573327584000481],[124.2559299461102,-8.3572751802053631],[124.25610694707802,-8.3571313507312084],[124.25653385255532,-8.3567844300573597],[124.25718453993466,-8.3561119449103103],[124.25752132165178,-8.3556420392486643],[124.25805232095786,-8.3545736482552115],[124.25809043062895,-8.3544946167331204],[124.25816444573263,-8.3541554446180157],[124.25822619588234,-8.3539838206967261],[124.25885838420709,-8.3524869144395097],[124.2590124461675,-8.3522865230045795],[124.25942857057214,-8.3519488518579692],[124.26055905615556,-8.3513497262088663],[124.26098952474683,-8.3511901334179015],[124.26178313418438,-8.3510318833147039],[124.26274991527646,-8.35086811587081],[124.26384590016823,-8.3506683512633799],[124.264423195674,-8.3505990845800397],[124.26576250923245,-8.3505941014365703],[124.26618557100733,-8.3505915005972042],[124.26618700902327,-8.3505914916040069],[124.26626960995463,-8.3505711894088108],[124.26652747796084,-8.3505078051910004],[124.26689371157556,-8.3503245377471558],[124.26720725930761,-8.3501275232665648],[124.26720830162185,-8.350126537609583],[124.26738372697753,-8.3499607727713965],[124.26758355633615,-8.3496621016246308],[124.26792019685968,-8.3490628347819325],[124.26820182135702,-8.3486614448697196],[124.26827656401224,-8.3485991380397309],[124.2687485399133,-8.3482056954364339],[124.26986629019723,-8.3469715378061551],[124.27014038377172,-8.3466857098775904],[124.27130497794246,-8.3456517422340539],[124.27193666534492,-8.3450378047508593],[124.27219886898263,-8.3448136334423566],[124.27290618127529,-8.3445104288131802],[124.27335533687938,-8.3444056173253216],[124.27392943619463,-8.3443245839123961],[124.27427391520905,-8.344275961166602],[124.27431849280424,-8.3442608039928814],[124.274461773692,-8.3442120850196488],[124.27483050922069,-8.3438616174196341],[124.27496896164837,-8.3436909449810628],[124.27514813357959,-8.3432472581544062],[124.27530480627183,-8.3429830859006415],[124.27556508715907,-8.3426998354290163],[124.27569316590689,-8.3425463823096493],[124.27586228971302,-8.3421160387241571],[124.27593492975325,-8.3418233363778427],[124.27614498530284,-8.3409530750243448],[124.27619249378859,-8.340756242206794],[124.27623049104443,-8.3406006738819656],[124.27623813438242,-8.3405693819713633],[124.27655954308852,-8.3401459047096864],[124.27665711323527,-8.340017350220478],[124.27693697686004,-8.3397996783124313],[124.27695692472241,-8.3397841632084919],[124.27715204073411,-8.339617599772339],[124.27767106826525,-8.3393616913888877],[124.27775232740805,-8.3393216256924347],[124.27783732593196,-8.3392797172850806],[124.27868441355486,-8.338899002786718],[124.2789651899916,-8.3388038248365888],[124.27987414377674,-8.3388704502110613],[124.28072599061204,-8.3391274323850553],[124.28086439177832,-8.3392320756996696],[124.28092110662385,-8.3392749580727923],[124.28121140058568,-8.3392987532348002],[124.28144890614215,-8.3393376875841909],[124.28150169634625,-8.3393463417602334],[124.28199186463291,-8.3393273058104569],[124.2823059537568,-8.3392701988605609],[124.28297220300487,-8.3389418338984456],[124.28320063080457,-8.3387800296745809],[124.28334815739163,-8.3386467798249555],[124.28352423835292,-8.3384992541372185],[124.28373591538025,-8.3383681006072834],[124.28391480582366,-8.3382683666917501],[124.28423218107037,-8.338193350642598],[124.28441109939274,-8.3381607367285824],[124.2846425839881,-8.338118539638856],[124.28506612779961,-8.338075710325711],[124.28510768457204,-8.3380732938474011],[124.28547539577301,-8.3380519151637031],[124.28590845710971,-8.3380471559514149],[124.28637483203295,-8.338085227850911],[124.28664609004511,-8.3381042629013677],[124.286960179169,-8.3380804686386796],[124.28740275893028,-8.3380376384262149],[124.28777902538172,-8.3377913509900168],[124.28781678521648,-8.3376854783021486],[124.28795479427845,-8.3375855411397879],[124.28810827797474,-8.3375387467157225],[124.28834502630195,-8.3374665680276507],[124.28851634715181,-8.337471327239939],[124.28893513175103,-8.3375665051900114],[124.28902134975556,-8.3375439555890125],[124.28924446166263,-8.3374856030780506],[124.28947289036171,-8.3374665680276507],[124.28963008735866,-8.3377712259612622],[124.2897591490655,-8.3378270225989581],[124.28990119338539,-8.3377568619895328],[124.29002016559821,-8.3376902366150603],[124.29029142540901,-8.3376521656148839],[124.29044371030909,-8.3379377012638543],[124.29056744173408,-8.338166129063552],[124.29063406710861,-8.3384183520252577],[124.29082918312042,-8.3385801553498595],[124.29106237013229,-8.3386087088247791],[124.29138121756921,-8.3387229227246848],[124.29170482511768,-8.3388799677362613],[124.29187614596742,-8.3389513514237024],[124.29204385334117,-8.3391143346587455],[124.29206823396191,-8.3390580676756372],[124.29209177371649,-8.3390037423287708],[124.292147874325,-8.3389374272204577],[124.29219877505352,-8.3388772580789237],[124.29223347629397,-8.3388436108439237],[124.29226774406118,-8.3388103826929409],[124.29229940019718,-8.3386982570189048],[124.29237465007009,-8.3385065233572959],[124.29261113399673,-8.3382352410635008],[124.29276082075535,-8.3380866173034747],[124.29288697765196,-8.3378473823507875],[124.29297761942166,-8.3375598349184088],[124.29295750878202,-8.3368508507861065],[124.29291205614652,-8.3364861172404972],[124.29284969715582,-8.3361981804016523],[124.29287547802096,-8.3360095377099697],[124.29308205499285,-8.3355531479593878],[124.29323379130653,-8.3353467418585865],[124.29507722793176,-8.3340608822039144],[124.29559591461987,-8.3338082095811501],[124.29588932203467,-8.3336646157293899],[124.29644686842835,-8.3333161949863666],[124.29676469693322,-8.333130742189951],[124.2968845819579,-8.3330200941020394],[124.29712968138972,-8.3327938822318401],[124.29739008728279,-8.3325602734378208],[124.29761261822784,-8.3324281792170609],[124.29794607065469,-8.3323494291827842],[124.29831514972443,-8.3323711010454531],[124.29854494809092,-8.3323923664145241],[124.29881680595088,-8.3324175240494469],[124.29908693081723,-8.3324754286980465],[124.29920040007846,-8.3324989756471837],[124.29946633140617,-8.3323475001369616],[124.29955472756865,-8.3322971479949501],[124.29974043127595,-8.3321359921822591],[124.29994707120045,-8.3318020226452063],[124.30004507212243,-8.3315982731417648],[124.30066789940406,-8.3312304603174425],[124.30091216606365,-8.3311124773588858],[124.30115524292023,-8.3308767416682485],[124.301343478219,-8.3305874135782005],[124.30149269733022,-8.3302586169415918],[124.3015651799891,-8.3300834919595559],[124.30171875901362,-8.3292863508843311],[124.30175179021296,-8.3288073980429544],[124.30168322769885,-8.3283673363833941],[124.30164680605537,-8.3281761324225272],[124.30160157195508,-8.3277226007173795],[124.30162777460214,-8.3272778976568134],[124.3018291022313,-8.3263640083922041],[124.302027337092,-8.325809663585062],[124.30226310335956,-8.3251982424048947],[124.30227752488793,-8.3251531791758566],[124.30237913388999,-8.3248571952033217],[124.3025440866403,-8.3244789142704576],[124.30260436909646,-8.3243507878585206],[124.3027816029886,-8.3240372104488642],[124.30297889985638,-8.3238471171507058],[124.30307482604246,-8.3237926928784418],[124.30314221224342,-8.323754460899579],[124.30332403987256,-8.3236910541987186],[124.30350963386263,-8.3236533977860176],[124.30361589865481,-8.3236158043258683],[124.30377714979568,-8.323446914343549],[124.30385054076987,-8.3233254447134755],[124.303850878915,-8.3233248187852951],[124.30389750876304,-8.3232384919627975],[124.30399910337599,-8.3229995852626075],[124.30397382073534,-8.3220565390779484],[124.3039510561963,-8.3218163508438465],[124.30394764866514,-8.3216329907698423],[124.3041000091082,-8.3210543984416745],[124.30424114960942,-8.320752022987449],[124.30447849328789,-8.320360085849245],[124.30467104083596,-8.3199760699396279],[124.30522213369454,-8.3186297263807205],[124.30532150878071,-8.3183566949055034],[124.30537986938555,-8.3182251951366197],[124.30579221214089,-8.3174670387727474],[124.30601497690975,-8.3170616315889561],[124.30611741598602,-8.3168027095773596],[124.30616018144724,-8.3167343359208417],[124.30634541480913,-8.3165535227268492],[124.30667643097263,-8.3158225393786438],[124.3068783215773,-8.3152852879856027],[124.30702824395837,-8.3145915536572375],[124.30712029136839,-8.3141605697544492],[124.30716141466758,-8.3140395848589037],[124.30753182203603,-8.3133068037659541],[124.3076968062627,-8.3130363200700685],[124.30840491535457,-8.312448398174979],[124.30860319608075,-8.3122972104478663],[124.30898450862821,-8.311993007571175],[124.30922482096878,-8.3117855069954771],[124.30937630637152,-8.3115678818522269],[124.30947874274989,-8.3112904293097927],[124.30949388373585,-8.3112151011958986],[124.30952418099616,-8.3109117877487506],[124.30952082202839,-8.3106665381301923],[124.30925499322348,-8.3102481006692415],[124.30900432069291,-8.3096383351410168],[124.3086488690501,-8.3085645383227416],[124.30850110234405,-8.3080260386706755],[124.30843807155986,-8.3077137257078562],[124.30838611862453,-8.3073173513146799],[124.30836164987033,-8.306918179130605],[124.30846057169811,-8.3062276158117925],[124.3084830403601,-8.3061034293297666],[124.30873068127596,-8.3052372104288565],[124.30876496073438,-8.3050781644257086],[124.30867552495556,-8.304715054156361],[124.30864758661687,-8.3044295697687858],[124.30872922797153,-8.3039655699550394],[124.30888080600448,-8.3035879446279068],[124.30891903978193,-8.3031645231242237],[124.30890785311499,-8.3030432261639362],[124.30884316577954,-8.3029192096537372],[124.30877790017996,-8.3027718035758085],[124.30865410310446,-8.3019193353090373],[124.30860607121326,-8.3016356010021468],[124.30859685316227,-8.3016079126749673],[124.30850344687667,-8.301480381614283],[124.30839983688304,-8.3014061155997183],[124.30819785274878,-8.3012613040658607],[124.30795677418587,-8.3010463822846532],[124.30771252461341,-8.3007359920723047],[124.30754122804535,-8.3002563512495726],[124.307467445866,-8.2999953976694201],[124.30745678979906,-8.2996921327856512],[124.30745704070989,-8.2996628508598178],[124.30733719705404,-8.2993308202611047],[124.30702971165192,-8.2987461638043669],[124.30671183728157,-8.2981928523182091],[124.30668611757028,-8.2981449139565484],[124.3064644931419,-8.2977171631165447],[124.30592699263661,-8.2966887568805987],[124.30585585176618,-8.296555553795713],[124.30539471179657,-8.2955593199066584],[124.30527611819832,-8.2952511483217677],[124.30515480594954,-8.2948644920026595],[124.30496813367245,-8.2940391949528589],[124.30483838398425,-8.2934360700185721],[124.30465388356993,-8.2927502578181134],[124.30457829015597,-8.2923829917816079],[124.30460243065772,-8.2922124443487633],[124.30461805637822,-8.2921727096028235],[124.30462680678181,-8.2921505071401498],[124.30476377532807,-8.291802975826613],[124.30475904039747,-8.2915928042644396],[124.30470224371368,-8.2913979760357392],[124.30445324302286,-8.2912269924316888],[124.30434014967818,-8.2911562580547979],[124.30426285294834,-8.2909597408992681],[124.30421555580335,-8.2906647731606995],[124.3041655705847,-8.2904283818642739],[124.30409591539421,-8.290212726236291],[124.30392175898203,-8.2899565075867372],[124.30366960167089,-8.2896906014400429],[124.30356807180908,-8.2895436953851913],[124.30333449269278,-8.2890931638183929],[124.30317972656314,-8.2887007887104005],[124.30316932140715,-8.2886743981049449],[124.30306810271088,-8.288335756589845],[124.30302625815534,-8.2881782727090467],[124.30293947807456,-8.2874267731270379],[124.30292860257305,-8.2870693672574589],[124.30298615019069,-8.2867930073913385],[124.30326522780808,-8.2861844136796776],[124.30333155640631,-8.2860596327458325],[124.30411463388327,-8.2850067892318862],[124.30428675872702,-8.2847937569263195],[124.30444497825317,-8.2845975068693747],[124.30459869667254,-8.2843496006535133],[124.30467957090559,-8.2840173200432332],[124.30470938433064,-8.2837140065960853],[124.30464808743932,-8.2831938818920889],[124.30451329075584,-8.282612757073025],[124.30429563413622,-8.2819342734479164],[124.30425557203705,-8.2818279286159395],[124.3040183839413,-8.2813442894074001],[124.30374433713155,-8.2808333198018431],[124.30356605642839,-8.2804079143936633],[124.30352894680357,-8.2803103667300206],[124.30336444731142,-8.2797848200133899],[124.30328889886368,-8.279341882321944],[124.30323699269309,-8.2790255071213892],[124.30319822831564,-8.2788948203396444],[124.30310843100938,-8.2786667405775916],[124.30297952488525,-8.278413835030392],[124.30290682189241,-8.2783270072854975],[124.3026178526319,-8.2777045846987676],[124.30254008735517,-8.2774822111350659],[124.30238856058372,-8.2771973904471565],[124.3023251646747,-8.2770782257794622],[124.30202655558116,-8.2766588035609061],[124.30197560179261,-8.2765731332434598],[124.30170428982115,-8.2758241014010991],[124.30162118077294,-8.2755905699488039],[124.30152996163849,-8.2753903349959046],[124.30127495527506,-8.2747501579933669],[124.30120429014596,-8.2745727577265598],[124.30117328961569,-8.2744765851262514],[124.30083771209081,-8.273904976033748],[124.30056111840099,-8.2735472104353676],[124.30033958660272,-8.2732623672644081],[124.30006783666136,-8.2729875065681426],[124.30000864957958,-8.2729268347056291],[124.29955241541165,-8.2722417113858455],[124.29929436933969,-8.2715173830207505],[124.29916390019389,-8.2709576629657136],[124.29914282098446,-8.2707281793619245],[124.29909271165934,-8.2701825381935237],[124.29902016514859,-8.2695679127289168],[124.29876039957287,-8.268686023141413],[124.29873499282576,-8.2685982421151607],[124.29872266491907,-8.2685750234185775],[124.29866235278541,-8.2683784136328313],[124.29865129022494,-8.2682196787951057],[124.29867174440551,-8.2680351010390609],[124.29882689364626,-8.2675740635921215],[124.29895718382704,-8.2676422358005084],[124.29887152340211,-8.2678078468546232],[124.29890995682911,-8.2678270635680633],[124.29896406364071,-8.2678541169738651],[124.29896670225162,-8.2678554362793193],[124.29898007606971,-8.2678285789257302],[124.29901723695593,-8.2677539576789627],[124.2992027437117,-8.2673814467962643],[124.29908852981191,-8.2673395689658946],[124.29898954413227,-8.2675622860705857],[124.29890388370734,-8.2675280219006595],[124.29884763201267,-8.2675124411462093],[124.29895838442201,-8.2671833360420806],[124.29921150940368,-8.2660503827189586],[124.29925605642188,-8.2658359924370757],[124.29942894568933,-8.2649814764139364],[124.29948866516986,-8.2647041641657779],[124.29976943081465,-8.2638765540596637],[124.29983991517997,-8.2637358668167735],[124.300334837283,-8.2633800392573562],[124.30046822742679,-8.263248632118632],[124.30055785296258,-8.2630660850317668],[124.30056660156743,-8.2630393823615691],[124.30051399302647,-8.2619964448799692],[124.30051768114618,-8.2618245376722257],[124.3005816193463,-8.2616864125978395],[124.30082935289238,-8.2614332102743901],[124.30136652424574,-8.2611183980955616],[124.30158057098663,-8.2609917888399309],[124.30191619617563,-8.260632789371698],[124.3023164295596,-8.2600646948297367],[124.30249019566611,-8.2597895850212808],[124.3026698361441,-8.2595235700566718],[124.30284418141389,-8.2591459762057866],[124.30316135161513,-8.258410600568709],[124.30325729039168,-8.2581129447565331],[124.30328993038609,-8.257305117037447],[124.30328355599136,-8.2569448198474902],[124.30320615044354,-8.2561874917593059],[124.30324388419797,-8.2558183506363321],[124.30328689877138,-8.255651726046267],[124.30336735302103,-8.2553973833825012],[124.30370336761644,-8.2546613827166198],[124.303864900245,-8.2543271011147681],[124.30414164861827,-8.253909616935232],[124.304629898651,-8.2534523521442793],[124.30477646206418,-8.2533454758130347],[124.30510024318176,-8.253179539204325],[124.30640068084676,-8.2526435225804562],[124.30670647822149,-8.2525055072233613],[124.30715541529025,-8.252276225967023],[124.30734494561284,-8.2521804139948358],[124.30823513414418,-8.2512079132145573],[124.30860985286245,-8.2506786945660338],[124.30893047825907,-8.25011517937196],[124.30898181965529,-8.2500048604359222],[124.30898383773399,-8.2500005230056672],[124.30898396184045,-8.2500002568063451],[124.30898408594692,-8.2499999906070229],[124.30919982071521,-8.2495364143739494],[124.30929030600294,-8.2493333834288478],[124.30949025856864,-8.2490123047739985],[124.30956552462931,-8.2488655381140461],[124.3099417748931,-8.2481946007002307],[124.31067538426169,-8.2474452891686951],[124.31165244640329,-8.2465963984050177],[124.31235641501655,-8.2459847730787601],[124.31278855634685,-8.2456602257387885],[124.31335408692166,-8.2453672733809071],[124.31375735192034,-8.245098647684415],[124.31379350916313,-8.2450716005738514],[124.31433682108752,-8.2438705856589536],[124.31514463441738,-8.2427766008593721],[124.31537816497041,-8.2424406950819389],[124.31589410333027,-8.2416008982627886],[124.31607408734931,-8.2414257732807528],[124.31626283706032,-8.2413124137368641],[124.31631851408827,-8.2412813817303459],[124.31639428107133,-8.2412391531643152],[124.31646061866263,-8.2412021793370513],[124.3164751031436,-8.2411832423127294],[124.31671004833015,-8.2408760626801154],[124.31716850832004,-8.2402766492479032],[124.31720986904031,-8.2402225730132841],[124.31726025175931,-8.2401567021699975],[124.31746824336483,-8.2398847732636114],[124.3178766183114,-8.2393718818068464],[124.31815554124535,-8.2390098983880762],[124.31837644621612,-8.238611819779635],[124.31859065033825,-8.2382959446021005],[124.31876993108756,-8.2381112733165764],[124.31892744734387,-8.238063522913194],[124.31932404027225,-8.238021522775],[124.31947602479875,-8.2379497730635194],[124.3197342120643,-8.2377438364088675],[124.32000635321072,-8.2374063981866925],[124.32043908719413,-8.2367450853174091],[124.32075775836392,-8.2362026007693885],[124.32091564873826,-8.2359614448647562],[124.32117564903706,-8.2357148039949379],[124.32185619570691,-8.2351964761364229],[124.32270835280826,-8.2343996947900564],[124.32307277518851,-8.2339670075713229],[124.32342090005454,-8.2334305538769286],[124.32395927380151,-8.2324383345614365],[124.32418675911174,-8.2319560227522288],[124.32486488390737,-8.2304458820717628],[124.32507263359525,-8.2300492882440039],[124.32549066636125,-8.2291638823072617],[124.3258689149186,-8.2284908989357746],[124.32596716495277,-8.2283160698307256],[124.32612157225287,-8.2279390227676572],[124.32613007174552,-8.2277941329928126],[124.32602877480815,-8.2274226005725382],[124.32593386935264,-8.227217022747368],[124.32584150897856,-8.227089194910377],[124.32584654068535,-8.2265517258813929],[124.32593952428965,-8.2260543198509595],[124.32600491489495,-8.2256397269917443],[124.32569027538591,-8.2244379287673723],[124.32561669735276,-8.2242123041544914],[124.32560543064619,-8.2239490851820847],[124.32573704013237,-8.2232231011651606],[124.3258904779633,-8.2229518359584404],[124.32601136842993,-8.222691132389798],[124.32605646313527,-8.2224554920272794],[124.32603779141095,-8.2222619597216067],[124.32593336932962,-8.2221005071326658],[124.32580771155665,-8.2219772262679385],[124.32577247791755,-8.2218067579754575],[124.32577772815966,-8.2214994128675585],[124.32583177471668,-8.2214100697188996],[124.32609521222435,-8.2211661483989928],[124.32632788392482,-8.2208402727603129],[124.32652632113286,-8.2204256322370952],[124.32676125912485,-8.2197442725800443],[124.32707499301659,-8.2188989449303449],[124.32722647841933,-8.2184747886805098],[124.32734546232325,-8.2177222260997951],[124.32745468138853,-8.2170538976192233],[124.32762679004441,-8.2165008820100525],[124.32792618064877,-8.2158556166433527],[124.32813644663975,-8.2154740702720801],[124.32845933742851,-8.2148308193867479],[124.32875586818886,-8.2140582100183224],[124.32887141578328,-8.2136230073958245],[124.32893124408167,-8.2133833506610472]]]]},"properties":{"OBJECTID":427,"nama_kawasan":"Kawasan Perbatasan PKSN dan Wilayah Pendukung PKSN Kalabahi, Kec. Pantai Timur - Kab. Alor","delineasi_asal":"Pantar Timur","Shape_Length":0.76750551415563373,"Shape_Area":0.013281040236176548}}]}