{"type":"FeatureCollection","features":[{"type":"Feature","id":467,"geometry":{"type":"Polygon","coordinates":[[[109.36984125497003,0.0093484923390860786],[109.36959169130358,0.0095053610835975633],[109.36936882131414,0.0096934084240842822],[109.36936351891131,0.0096978816519595057],[109.36957409067179,0.010008726021908387],[109.36966299585066,0.010139965886764912],[109.36960595275258,0.010361008453799059],[109.36961308257776,0.010660483594506331],[109.36972716877386,0.010795961964106482],[109.36974082138187,0.011007558052426702],[109.36974143022286,0.011017003631877742],[109.36974939641755,0.011041940932898342],[109.36990542879255,0.011530392413703794],[109.3699838631648,0.011922563375662776],[109.36993395079128,0.012164997216871143],[109.36986318403876,0.012317416115934066],[109.36984125497003,0.012364647610468182],[109.36984757990194,0.01242579341567307],[109.36984857545144,0.012435408067688059],[109.3698626462442,0.012571429627826092],[109.36996247189063,0.012692645649110545],[109.37014786263381,0.013063426236158193],[109.37021203645639,0.013206034430993441],[109.37025481810542,0.013384294449679146],[109.37038197684683,0.013601771204832858],[109.3704948750385,0.013863219412087346],[109.37053760182891,0.013924258198017014],[109.37061965687172,0.014041479430773052],[109.37064936597551,0.014207854009328003],[109.37041168684993,0.014356404024852054],[109.37025719501361,0.014457417675714623],[109.37024530957342,0.014641620414522549],[109.37032255684056,0.014813937713086034],[109.370393859589,0.014956545008601552],[109.37036771629715,0.015377237969232738],[109.3703534548481,0.015667207275839701],[109.37023936865199,0.015862104752386585],[109.37022510810232,0.01609503096096887],[109.3703534548481,0.016332710985864196],[109.37064817797108,0.01686511323441664],[109.37073255416408,0.01715389543596757],[109.37075038142501,0.0174509936684899],[109.37073849598488,0.017843166429031498],[109.37072067142191,0.018211569208574474],[109.37064342415476,0.018342292862598697],[109.37057806232775,0.018455191054272291],[109.37053646868316,0.018615624711344481],[109.37051864232154,0.018752290186114351],[109.37056243570788,0.01884960942197722],[109.37057212140633,0.018871130198533592],[109.3706909614188,0.019031563855662625],[109.37071556686999,0.019063005053681081],[109.37079791599109,0.019168230229695382],[109.37079791599109,0.019356374696997136],[109.37079791599109,0.019358373889872382],[109.37079843939654,0.01935942070076635],[109.37084545235581,0.019453445719989304],[109.37089298782121,0.019673299383327958],[109.37089298782121,0.019776683647080517],[109.37089298782121,0.019893153046609768],[109.37092269782431,0.019994166697472338],[109.37093458236512,0.020196194898517206],[109.37093569122925,0.020221712262241454],[109.37094052418593,0.020332860373230233],[109.37098243708988,0.020471173405951504],[109.37099994419214,0.020528945854209724],[109.37103559601599,0.020879524070835487],[109.37104000269403,0.020967664825946031],[109.37104153783679,0.020998363183934998],[109.37095240782742,0.021105320454239518],[109.3707860323496,0.02112314591647646],[109.37073002616984,0.021148760407015743],[109.37062384411519,0.021197322898160564],[109.37052458504161,0.021265753211991978],[109.37048245180375,0.021368742673359975],[109.37047110685614,0.021396476865959357],[109.37046073857226,0.021510527089219522],[109.37045328139391,0.021592563246258578],[109.37044345630051,0.021614945573332989],[109.37040351920712,0.02170593538068033],[109.37037824825762,0.02176351177666902],[109.37035815290648,0.021809295362743342],[109.37033892719978,0.021814776730593621],[109.37027745314202,0.021826502091471411],[109.37027253295111,0.021827440084337013],[109.37026961914768,0.021828298936895862],[109.37012997511835,0.021869481591352269],[109.36962681072879,0.022017869728927053],[109.3686980358857,0.022291776244514949],[109.36554286970772,0.023105552079584868],[109.36190281426354,0.024049895985967851],[109.35806169918811,0.025467449663096886],[109.35710581967788,0.025820215030933014],[109.35218194424141,0.026991110751225733],[109.34846188510795,0.02797872014184577],[109.33361194403602,0.03192111147018295],[109.32139823514052,0.034924862392529121],[109.31950276104362,0.03539102057919763],[109.31505304596135,0.036485351617727702],[109.31333992289916,0.036906665110564063],[109.30984211502164,0.037766890030013656],[109.30975944394322,0.037787221902817691],[109.30929141606606,0.037938751372337265],[109.30874151480913,0.038116787459841817],[109.30843178290053,0.03773328416377808],[109.30750415379373,0.036584715012622837],[109.30736601163221,0.036489134166231452],[109.3072658298542,0.036419818020249295],[109.30710699519176,0.036309919067548435],[109.3069515851476,0.036202389828474679],[109.30682634016352,0.036077423634253591],[109.30659150739223,0.035843112469706284],[109.30645060790931,0.035702525051533485],[109.30628579635248,0.035629961453594206],[109.30606586444816,0.035533127851635982],[109.30589802397469,0.035459231458389695],[109.30486193033386,0.035003054847152271],[109.30424027396953,0.03472934977969544],[109.30397236413336,0.034421494756202264],[109.30356513402376,0.033953546918723987],[109.30347003341535,0.033844266699588843],[109.30233956761703,0.03339551579045974],[109.30133549613629,0.032996938957637667],[109.30094344838147,0.032841311277536533],[109.29942785241354,0.032239678318546794],[109.29924000831977,0.032019363303049886],[109.29910294264675,0.031858597796087906],[109.29908232658818,0.031834433912024451],[109.29906810470931,0.031817754186079128],[109.29878068767863,0.031480652310278856],[109.29832883230983,0.030950683627168019],[109.29790836058243,0.030232467054759127],[109.29767186136735,0.029705330336753377],[109.29735853936518,0.028777628384887066],[109.29725148766607,0.028460686611424535],[109.29715425296644,0.028172782148203623],[109.29681180012454,0.027158816326334545],[109.29627731864338,0.025735622101308309],[109.29610832523906,0.025285634624367503],[109.29607756842512,0.02520373786228447],[109.29584198022326,0.024539907790540383],[109.29567237977659,0.024062017947812819],[109.29551653535987,0.023530831582661449],[109.2954545846614,0.023319668068268129],[109.29541064198759,0.023169939940828499],[109.29534710938168,0.022953370601612733],[109.29510345336172,0.022122905148023619],[109.29484020471176,0.021170964668328907],[109.29465884383063,0.020515141260830205],[109.29428329773606,0.01915714428685078],[109.29418183262555,0.018790220892014986],[109.29365146914006,0.017322249422306868],[109.29349256343113,0.016882446767567671],[109.2934746759156,0.016832941786901756],[109.29307045313897,0.015714123108352851],[109.29275460044454,0.014839925422279521],[109.29256863863185,0.014299095626824965],[109.29230623624386,0.01353595522022033],[109.29202943930721,0.012730939681148357],[109.29166735246639,0.011733781289024137],[109.29160927245005,0.01157385664822641],[109.29158272536256,0.011500765148241499],[109.29124397592881,0.010567875906815516],[109.29119326945386,0.010428221085589939],[109.29098792725108,0.0098627624565779115],[109.29060296975132,0.008802677601522646],[109.29048922170028,0.0084894419342731453],[109.28723718235017,0.0059045808317819137],[109.28722703170223,0.0057963564167380355],[109.28718113030499,0.0053069309701641032],[109.28705398415411,0.0039512011870215247],[109.28705064497137,0.0039155979265501628],[109.28694418142891,0.002780390902387353],[109.28692991997991,0.0014826592973236075],[109.28695844107926,0.00051292663033564168],[109.28685861633215,-0.00017159054641524563],[109.28680157323407,-0.00049958858511445214],[109.2867801819599,-0.00097732554309004627],[109.28668748703797,-0.0016119303462573953],[109.28665183431474,-0.0022037526010763031],[109.28659479121671,-0.0025032295403661919],[109.28658766139154,-0.0031093123448613369],[109.286626878128,-0.0036374572028421426],[109.28668629813421,-0.0042257145450435019],[109.28682296360893,-0.0048258564280558858],[109.28692397815911,-0.0054557074149101936],[109.28697191022553,-0.0058657038391061178],[109.28700162022864,-0.0060023702131388745],[109.28711451842037,-0.0062103402349862336],[109.28710857570024,-0.0066797575647115082],[109.28706698205565,-0.0072383049038080571],[109.28703727205254,-0.0080048213653753919],[109.28695725307483,-0.0085742630917025053],[109.28696438379933,-0.0088309565833242232],[109.2867433412323,-0.0095582572077432815],[109.28650090829035,-0.010185731286412647],[109.28627986572326,-0.010841727363754217],[109.28592334658526,-0.011604678912760846],[109.28576885474888,-0.012068630163128091],[109.28570705783449,-0.012268280556668287],[109.28572607220053,-0.012691351324747302],[109.28583065076396,-0.013147696109228946],[109.28596850514248,-0.013630185984254695],[109.28598038968329,-0.013891633292189454],[109.28574865057982,-0.015103799800499473],[109.28561792782517,-0.015626695315688721],[109.28552499458289,-0.0160994401369976],[109.28540615457041,-0.016650857650915896],[109.28540140165342,-0.016850508044456092],[109.28551548784952,-0.017373403559702183],[109.28564858841168,-0.01773024015841429],[109.28572464587575,-0.018376730401712393],[109.2856831781362,-0.018436627048629362],[109.2856818633274,-0.018438526416787226],[109.28492128868658,-0.018733248640444344],[109.28402285876797,-0.019127797409851155],[109.28316958920522,-0.019496913351815692],[109.28246367985503,-0.019874824663361323],[109.28197881307182,-0.020195691977562547],[109.28160280382639,-0.020471756866015767],[109.28156499003234,-0.020504455316313397],[109.28109773467276,-0.020908493731951694],[109.28061643370154,-0.021368997880927054],[109.27998598826281,-0.022168195705603466],[109.27925868763839,-0.023128421639285079],[109.27884155959038,-0.023757084621706781],[109.27802750676409,-0.02483258565524693],[109.27741548123953,-0.025657334118648123],[109.27689852844441,-0.026366806582814206],[109.27535479808552,-0.028434621360645451],[109.27480812089811,-0.029118592648899266],[109.27466077327614,-0.029302944675123399],[109.27416764711927,-0.029870774816345147],[109.27537737736412,-0.031860694815179613],[109.2801108924038,-0.039646982821977872],[109.28177777772231,-0.042388888936045532],[109.28201747942319,-0.042614378650625895],[109.28238825911092,-0.043246606545608302],[109.28443230480707,-0.041359429593967434],[109.28476422838651,-0.041069331684241206],[109.28477679101616,-0.041083811668499948],[109.28546538302106,-0.041877442689781219],[109.28643051025989,-0.042892674757069926],[109.29055940119548,-0.047235919102320167],[109.29123387024697,-0.047945404157019311],[109.29287861425672,-0.049485567804651964],[109.29545407204785,-0.051981798920849087],[109.29695620786276,-0.053626541131905014],[109.2967850794679,-0.05375013496069414],[109.29763121830615,-0.054662824529657428],[109.29883220714072,-0.055936263647595297],[109.29938054087933,-0.056517676249711712],[109.30104905307138,-0.058385837936043572],[109.3020900902855,-0.059669308092054507],[109.30222794376465,-0.059826176836565992],[109.30225738846775,-0.059948123107346873],[109.30220118893379,-0.06000465089385898],[109.30217623994156,-0.060029747374869658],[109.30214472769711,-0.060040873787272631],[109.30209088708483,-0.060104799396924591],[109.30277080692724,-0.061000676140224641],[109.30285506890635,-0.061140066560767536],[109.30298973159091,-0.061293176139145089],[109.30301528582686,-0.061316911945880292],[109.30301761776889,-0.061319078412680028],[109.30316027542642,-0.061487077166816562],[109.30308440502131,-0.061555175630815029],[109.30301771669434,-0.061550741973121603],[109.30281579641195,-0.061714171271944451],[109.30279432959469,-0.0617137737716007],[109.30265665957722,-0.061815371082445836],[109.30273974794108,-0.061922183561875954],[109.30307931126129,-0.062333610807456807],[109.30331752008755,-0.062623120560544976],[109.30354891924731,-0.062901402277873331],[109.30353979382647,-0.062910187754937397],[109.30350570862163,-0.062943004915723577],[109.30380281944463,-0.063297026636405462],[109.30381361310782,-0.06330988874032073],[109.3038141625936,-0.063309324865429062],[109.30390095796292,-0.063220190359459139],[109.30394180606953,-0.063260006943721692],[109.30400543490293,-0.063322031386576327],[109.30449462832451,-0.063643763848574508],[109.30453613023826,-0.063723362842893039],[109.30493509557829,-0.064017847645516213],[109.30532546609743,-0.064295332563517604],[109.30528459820573,-0.064365571413929956],[109.30550874793045,-0.064513621406433685],[109.30548437630296,-0.064544449266861648],[109.30529975627877,-0.064777977121877939],[109.30530138405169,-0.064779173220244957],[109.30595908704231,-0.06526240773388281],[109.30617829499238,-0.065423165146910378],[109.30614910030079,-0.06546231353490839],[109.30583313519111,-0.06588600573451231],[109.30547970432497,-0.066385351602662013],[109.30574001758782,-0.06658357207413701],[109.30549826003676,-0.066830895529335521],[109.30543715739896,-0.066893405606151646],[109.30535539913245,-0.066830023186980725],[109.30525783258298,-0.066967377542368922],[109.30530894195419,-0.067006679714438633],[109.3051529797263,-0.067167599904792041],[109.30509946826589,-0.067125120427931506],[109.30498601699117,-0.067242896542381914],[109.30504823568759,-0.067293310737625234],[109.30473804872202,-0.067611549333491894],[109.3050456987001,-0.067999069901134135],[109.30555046388287,-0.068634879795808956],[109.30559342809431,-0.068706288664259318],[109.30548840346711,-0.068828591066562694],[109.30520427705579,-0.069158780753070914],[109.30667751315679,-0.07015588158861874],[109.30786467671351,-0.070973500226784836],[109.30729885745637,-0.071627956664826797],[109.30787426528519,-0.072173085219674249],[109.30780285731606,-0.072334813900511108],[109.30751472082778,-0.073032605070636691],[109.30712441505977,-0.07416640735374358],[109.30694778191469,-0.074642696403259379],[109.30670338575271,-0.075297776970785435],[109.30649315213731,-0.075829509224433878],[109.30658011298186,-0.076290571852382527],[109.30659416758681,-0.076761099844816272],[109.3066127682647,-0.077219190213384081],[109.30789219416948,-0.077961460053302289],[109.31076624216843,-0.079682057380978222],[109.31083333339166,-0.079722222002885701],[109.32027777789722,-0.08527777764726352],[109.32247249870693,-0.088021180233226914],[109.32249999997509,-0.088055555919140716],[109.32221297235083,-0.090811969896435585],[109.32208724982678,-0.092203598816979593],[109.32194444468041,-0.094166666858143344],[109.32956907505286,-0.094892820846951054],[109.33233107022278,-0.095155868048834691],[109.33361111126385,-0.095277776548073234],[109.33585405641963,-0.09507714319556726],[109.3372230916724,-0.09507714319556726],[109.33800133529343,-0.095006028405464349],[109.33825496659347,-0.095168437873041967],[109.34283002288731,-0.098098022605597635],[109.34289155630034,-0.098163300795647501],[109.34301052941248,-0.098016117749580189],[109.34340270037438,-0.097623946787678051],[109.3438020029601,-0.097139080903787089],[109.34394411113186,-0.096957398065399047],[109.34436530321625,-0.096418911903185744],[109.34442612616488,-0.096334129216643305],[109.34483590944973,-0.095762916725163905],[109.34576286046769,-0.094322579623280944],[109.34639746527085,-0.093359978580110692],[109.34689659260374,-0.092575635756929842],[109.34754545795658,-0.091384862321490345],[109.34837971405261,-0.090001568317688907],[109.3497344887557,-0.087898105313286123],[109.35053309212856,-0.086657418604943359],[109.35223725614452,-0.084054828267653647],[109.35334246718116,-0.082436231147084982],[109.3536935759978,-0.081939951967171964],[109.3543312142142,-0.081038675694287576],[109.35513932521974,-0.079954856831136567],[109.35550059907342,-0.07934639711845648],[109.35624215934826,-0.078015392396366678],[109.35712632781781,-0.076513256581506539],[109.35804852501946,-0.07503964456390122],[109.35880910145892,-0.073879768236679411],[109.35951263300166,-0.072662849710695809],[109.36012109271434,-0.071721638143060318],[109.36080560989103,-0.070675848011944709],[109.36099392612886,-0.07036198821515427],[109.36147202011767,-0.069565166399286227],[109.36151864906645,-0.069487450585313582],[109.36260246882892,-0.067519464151928332],[109.36330130321261,-0.066121796283823642],[109.36333452237039,-0.066055357968366479],[109.36337155735157,-0.065971186820775074],[109.36427573393803,-0.063916241341416935],[109.36475518230588,-0.062910187754937397],[109.36485567345062,-0.062699321916113604],[109.36561445574262,-0.061068644202521227],[109.36567678325702,-0.060934699176982576],[109.3659996794417,-0.060256619347455853],[109.36603330329439,-0.060186009077028757],[109.36688181994009,-0.059458709351929429],[109.36701342403035,-0.059347723118889917],[109.36835478444578,-0.05821650998387895],[109.36888706168861,-0.057767622377809857],[109.36902093746636,-0.057654720588857344],[109.37116005499263,-0.060599571313105116],[109.3712818861502,-0.060765222836721478],[109.37215117893385,-0.061947214392375827],[109.37274537809679,-0.062636485385439755],[109.37282143646019,-0.062707789033197514],[109.37289274010794,-0.062783845597948584],[109.3730139840082,-0.062672475354418111],[109.37338155491489,-0.062334834784735449],[109.37383433478681,-0.061899880375108296],[109.3747818685884,-0.061124519081261042],[109.37558099896398,-0.060518013595412867],[109.37714246395359,-0.059361810099403556],[109.37894671621802,-0.058055549324080857],[109.38143442086192,-0.05619950870033108],[109.38494985185423,-0.053373643678639837],[109.38499999985015,-0.05333333336659507],[109.38417465783425,-0.052195714360664169],[109.3832860152375,-0.050970842230526614],[109.38279393769011,-0.050292581637279454],[109.38534749698948,-0.048338842263717652],[109.38531196657408,-0.048291832901725229],[109.38324147181652,-0.045552408916478271],[109.38260897142698,-0.044587017276967345],[109.38150621194217,-0.042903865021287402],[109.38077415840075,-0.041782017426100992],[109.37993098912392,-0.040468242815109079],[109.37960150540522,-0.039851067772531223],[109.37939115937456,-0.039833242310237438],[109.37927350736652,-0.039708459577695976],[109.37921294791926,-0.039646982821977872],[109.37880290203236,-0.039230724418359841],[109.37853551200436,-0.038959768578422427],[109.37854188460034,-0.038937315204861989],[109.37858724010908,-0.038777522764405603],[109.37861645368645,-0.038674600752187871],[109.37864723658078,-0.038566143412765541],[109.37861047859076,-0.038528181230503833],[109.37854971589672,-0.038492338750359067],[109.37853296602361,-0.038482458798398511],[109.37808428166431,-0.03821779101821221],[109.37789895657164,-0.038040889875105677],[109.37762258231641,-0.037767626374829888],[109.37723485940131,-0.037384266970320823],[109.37709354712956,-0.037244544699944981],[109.37668389514573,-0.036839503540193164],[109.37614945773134,-0.036309837928627076],[109.37586610563631,-0.036121464134225789],[109.37556989233673,-0.035817696529420573],[109.37551339602646,-0.035759761303893356],[109.37479296892042,-0.035020963746433154],[109.37539019700006,-0.034473274821721134],[109.37521532292885,-0.034302366760755376],[109.37476322564243,-0.033880011853000269],[109.37498332571994,-0.033630167598118987],[109.3747453785964,-0.033421965551212907],[109.37450148515546,-0.033653963659446617],[109.37438846105869,-0.033558784809997633],[109.37410887442508,-0.033267301045043496],[109.37434787465475,-0.033011735303318801],[109.37449672594323,-0.033148327932963184],[109.37492502896697,-0.032734301646655695],[109.3747644154455,-0.032591534271830369],[109.37488837889561,-0.032461438344682847],[109.37516178538817,-0.032211415124663745],[109.37556807840417,-0.032593913877974501],[109.37609631859027,-0.032219148394915464],[109.37658529797318,-0.032736681252799826],[109.37694578671875,-0.033061477704961817],[109.37747605397675,-0.032612332892824725],[109.37758348159247,-0.032521340387518194],[109.37782618702897,-0.032749768187215977],[109.37827352600249,-0.033220901423419491],[109.3783562105707,-0.033145353874942884],[109.37848113359752,-0.033020431747502244],[109.37863282404567,-0.032880637531377488],[109.3787285056161,-0.032815294590136546],[109.37875477121577,-0.032797357611912048],[109.37897189723532,-0.032725973924527807],[109.37938830312777,-0.032604025855050622],[109.37953107140186,-0.032541565240990167],[109.37969549714956,-0.03241136858974869],[109.37972095695665,-0.032391209386730679],[109.37976232307284,-0.032353365015751478],[109.38036111057687,-0.031805555581854605],[109.38061111131378,-0.031555555744262165],[109.38102542268518,-0.031324224932973266],[109.38127777784723,-0.030999999550317625],[109.38158397002428,-0.030783503955490232],[109.38186111140124,-0.030416666895632716],[109.38201704664942,-0.03003796597931796],[109.38205555561944,-0.029944444580394247],[109.38211874918102,-0.029921914764486246],[109.38216666685827,-0.029555555244655807],[109.38232338361735,-0.029118592648899266],[109.38250794968218,-0.028603980789057459],[109.38235940146529,-0.028568328965150158],[109.38284902026612,-0.026790485292622179],[109.38289655663084,-0.026606282553871097],[109.38315206211803,-0.025102958734521508],[109.38191612742742,-0.024855771976262986],[109.38110502167945,-0.024700105625299784],[109.37956309805861,-0.024404181008094383],[109.37807035386379,-0.023833426271551161],[109.37794687604753,-0.023786213662788214],[109.37606920582925,-0.023096942669724285],[109.37615496068292,-0.022960183665475142],[109.37678205794566,-0.0219601069733244],[109.37697962101277,-0.021136405320817175],[109.37700666542531,-0.02102364922200195],[109.37697695542221,-0.020589883716127133],[109.37703518742404,-0.020189393125917832],[109.37700018221273,-0.019792661701956149],[109.37699240487564,-0.019704526342763984],[109.37702690736592,-0.019623279790494053],[109.37713976598747,-0.019357513938075499],[109.37741072092808,-0.018696764943683775],[109.37771970460074,-0.01827369507492449],[109.37793361644333,-0.017855378123158516],[109.37795738462569,-0.017465584069384477],[109.37802868827339,-0.016937934737825344],[109.37810823510705,-0.016659519920835919],[109.37813326683687,-0.016571907967147581],[109.37864609084448,-0.016224998085135667],[109.37877975618085,-0.016134577548655216],[109.37882253872925,-0.015944433888478216],[109.37861813362002,-0.015682985681223727],[109.37837094686176,-0.015526116936712242],[109.37790984826097,-0.01546907383863072],[109.37773914164814,-0.015421981738995783],[109.3776341404033,-0.01539301637455992],[109.37755332912292,-0.015207626530695961],[109.37768670307895,-0.015101933707228454],[109.37780526879817,-0.015007975237836035],[109.37795086903742,-0.014902084563516382],[109.377962138442,-0.014893889041672992],[109.37834965541231,-0.014722659922767889],[109.37857535107167,-0.014622934101055307],[109.37874648126518,-0.01441852989120207],[109.37896039310772,-0.014076270403506896],[109.37899842183975,-0.013605665069349016],[109.37889384237701,-0.013453550141150572],[109.37865140943507,-0.013425028142478368],[109.37851658577188,-0.013462364396559678],[109.37834242576241,-0.013510593239232094],[109.37822459478929,-0.013582198159895142],[109.37782825277174,-0.013823050992982644],[109.37772445841711,-0.013886126743329896],[109.37770570485446,-0.013839966341322452],[109.37760086458832,-0.013581896886989853],[109.37806552810173,-0.013186160113150436],[109.37819877615266,-0.013035113579576318],[109.37845056923845,-0.012687032780263507],[109.37844894326417,-0.012522794091637479],[109.37844749445634,-0.012376483387924964],[109.37844700432584,-0.012326947830331392],[109.3783317301253,-0.012176021805942128],[109.37819240085867,-0.012188573643697964],[109.3779038740646,-0.01221456674880983],[109.37780408079374,-0.01222355727128388],[109.37754602392994,-0.012288930789452479],[109.37744756165569,-0.012313875285087761],[109.37737625710866,-0.012023906877743684],[109.37744354798144,-0.011851765846245144],[109.37758066221784,-0.011501011362554436],[109.37771756511358,-0.01127854157141428],[109.3779918637336,-0.011056913545701264],[109.37791721640644,-0.010798430403212933],[109.3779067707809,-0.010745254389917136],[109.37786492712473,-0.01053222837958856],[109.37786474995829,-0.010517853616022421],[109.37786017330842,-0.010147187242864675],[109.37782214457638,-0.0095624948132240206],[109.37780788402671,-0.0089635427332837025],[109.37772231892995,-0.0087638905410472034],[109.37757495781813,-0.0083218072056183701],[109.37745136398934,-0.0079557795355640337],[109.37744367208785,-0.0078891172888688743],[109.37742284288993,-0.0077085936766252416],[109.37728974142851,-0.0075041885673954312],[109.37723269833043,-0.0072522479928238681],[109.37704532817941,-0.0066746862876811974],[109.37690866180537,-0.0062706307849111909],[109.3767006926829,-0.0060923716655452154],[109.37656758942279,-0.0059972971375259476],[109.37649272266106,-0.0059438216500211638],[109.37644652988348,-0.0058123497601059171],[109.37644311425839,-0.0058026280887588655],[109.37641547629323,-0.0057239679866825099],[109.37641504192072,-0.0057188517435520225],[109.37638576629013,-0.0053733897700567468],[109.37627286899777,-0.0051416515659070683],[109.37604707261437,-0.004713828780154472],[109.37570837983793,-0.0041731078026145951],[109.37570837983793,-0.0040661505323669189],[109.37580345166805,-0.0039176014161057537],[109.37587543880051,-0.0037047696593504043],[109.37587715110971,-0.0036997055768779319],[109.37594011714276,-0.0035135459133925906],[109.37575000136155,-0.0031036088444125198],[109.37574997707986,-0.0031035476905003634],[109.37578562530643,-0.002975201844037656],[109.37602330533133,-0.0027707967348078455],[109.37604231969738,-0.00266146435507153],[109.37583791458815,-0.0023524806823616018],[109.37534354107163,-0.0021718437555477976],[109.37502504976629,-0.0021480755731886347],[109.37472557372632,-0.0020102220940430016],[109.37451166188373,-0.0018771215318906798],[109.37421218584376,-0.0015491225938717434],[109.37396499818618,-0.0013352116506553102],[109.37377960834232,-0.0011022845427532957],[109.37353242158406,-0.00097869161328389964],[109.37339456720559,-0.00080280940210286644],[109.37315213426365,-0.00041301354968936721],[109.37307607679958,-0.00014206040771114203],[109.37301427988518,0.00037608219048479441],[109.37296389716619,0.00041260995402581102],[109.37282413622495,0.00051393746826988718],[109.37280169813994,0.00054634723619528813],[109.37265300693076,0.00076112332720867926],[109.37261497819873,0.0011651788299786858],[109.3725008911033,0.0013933521215676592],[109.37235828380778,0.0015074383176738593],[109.37215863341424,0.0025627360814723943],[109.3720885168716,0.003109399779020805],[109.37194590957614,0.0035609907471894076],[109.37183895320521,0.0037511344073664077],[109.37152997043182,0.0055456164370752958],[109.37126852222457,0.0069170285980248991],[109.37101182783363,0.007164215356283421],[109.37085020617212,0.0072878091850725468],[109.37069809034466,0.0082480351187541601],[109.37056498978251,0.0088469880980710514],[109.37043188922036,0.0092082610524357733],[109.37027026845817,0.0092938261491894991],[109.37005160189995,0.0092462897844711733],[109.36984125497003,0.0093484923390860786]]]},"properties":{"OBJECTID":467,"nama_kawasan":"Kawasan Pengembangan Pelabuhan Kijing, Kota Pontianak","delineasi_asal":"Kota Pontianak","Shape_Length":0.43973461683351261,"Shape_Area":0.0096033869389550563}}]}