{"type":"FeatureCollection","features":[{"type":"Feature","id":483,"geometry":{"type":"MultiPolygon","coordinates":[[[[111.41430489215713,-2.9106304870073245],[111.41441702232777,-2.9106023580123406],[111.41445439275606,-2.9105742568963819],[111.41450056844656,-2.9105742398092502],[111.41457531919571,-2.9105461252034956],[111.41465007534077,-2.9105366292619692],[111.41468744576906,-2.9105085281460106],[111.41475265740928,-2.9104523286120525],[111.4148273910713,-2.9103771902550761],[111.41487353168822,-2.9102837578890899],[111.4149387442277,-2.9102272435923737],[111.41505087439839,-2.9101991136980701],[111.41516301536092,-2.9101990732286254],[111.41521871936845,-2.910199051644895],[111.41533086033098,-2.9101990111753935],[111.41537702612891,-2.9101709055627794],[111.4154143920606,-2.9101336520463406],[111.41547008167896,-2.910096075673323],[111.4154891248233,-2.910058513689421],[111.41549863875122,-2.910020955302798],[111.41549860907361,-2.9099366924243668],[111.41552642330583,-2.9098337991904373],[111.41558210303168,-2.909768135191257],[111.41566636770875,-2.9097024612995028],[111.41574037831589,-2.9096557262307101],[111.41580558995605,-2.909599526696752],[111.41588033980588,-2.9095714120909406],[111.41595508695775,-2.9095338294226281],[111.41602030219525,-2.9094870970518514],[111.41611335234938,-2.9093933310373359],[111.41617855679505,-2.909318197177015],[111.4161997610102,-2.9091783822764796],[111.41621140543208,-2.9089524141225525],[111.41614228533825,-2.9083449256777385],[111.41611877975794,-2.9082057591883768],[111.41609013635076,-2.9080438722268696],[111.41602629078074,-2.9078296078500898],[111.41595149506549,-2.9077314882175642],[111.41578140628695,-2.9076075229687603],[111.41570810344626,-2.9075832493674056],[111.41563480510223,-2.9075750709327508],[111.41552925167366,-2.9075504942598513],[111.41546475319586,-2.9075505176422212],[111.4153430866142,-2.9075587680226818],[111.41525367062047,-2.9075670058126093],[111.41515620659374,-2.9076159604081795],[111.4150829217395,-2.90764060183227],[111.41496933196913,-2.9076895609244389],[111.41487993486118,-2.9077467164377708],[111.41479053865248,-2.9078117608040657],[111.41474217940811,-2.9078528058622624],[111.41469603159663,-2.9079323508972266],[111.41459349629287,-2.908138471013558],[111.41456495630774,-2.9082603003724898],[111.4145371303843,-2.9083351059803135],[111.4144719259387,-2.9084102398406344],[111.41441624171625,-2.9084664357773136],[111.41434151255083,-2.9085507256354504],[111.41430416010894,-2.9086258514018937],[111.41425800870019,-2.9086911952423975],[111.41419280425458,-2.9087663300020949],[111.41412759531232,-2.9088319966992344],[111.41399641929939,-2.9088882214142586],[111.41388501398228,-2.9088974142841835],[111.41382858422185,-2.9089163710935964],[111.41372671891298,-2.9089539627551062],[111.41363292412024,-2.9090193245821183],[111.41359555908787,-2.9090568937605781],[111.41353988205998,-2.9091320258222595],[111.41351205074062,-2.9091882118664216],[111.41344683190584,-2.9092254752754343],[111.41338160587645,-2.9092444338834866],[111.41329732501163,-2.9092630858227153],[111.41322331440449,-2.9093101356542093],[111.41316689004003,-2.9093473972645256],[111.41314857264859,-2.9093663387854463],[111.41307386057025,-2.9094973358333505],[111.41302697261676,-2.9095535290720704],[111.41299913500217,-2.9095910946532513],[111.41299916917637,-2.9096848246948639],[111.4129991997533,-2.9097690893719346],[111.41302708233405,-2.9098533405591525],[111.4130645067217,-2.909975144737075],[111.41309239289967,-2.9100688657854903],[111.41311147291623,-2.9101345019057021],[111.41316720660137,-2.9102187440997227],[111.41328891814914,-2.910331051436799],[111.41345679729341,-2.9104247194252366],[111.4135125147908,-2.910462254429433],[111.41362467284046,-2.9105089202504359],[111.4136899150576,-2.9105369835948522],[111.41376395714099,-2.9105745123038673],[111.41383872677591,-2.9106025720510047],[111.41393182639274,-2.9106400926660854],[111.41401611355286,-2.9106400620891577],[111.41409087779186,-2.9106491866106126],[111.41420228580688,-2.910649146141111],[111.41430489215713,-2.9106304870073245]]],[[[111.72796390900726,-2.116255415255182],[111.72781223744488,-2.1161645747353077],[111.72753117502378,-2.1159962396346828],[111.72707544357689,-2.1157232917964279],[111.72648112120686,-2.1151174599028195],[111.72598266386888,-2.1149201819208088],[111.72559073842189,-2.1147650668543179],[111.72481896362433,-2.1144668966299491],[111.72434401366536,-2.1143495162171462],[111.72375036758547,-2.1139879347953183],[111.72309714861456,-2.1136263821517787],[111.72268185518351,-2.1136899021672093],[111.72119678490378,-2.1143690818676077],[111.72094966379603,-2.1145985789611927],[111.72061082263144,-2.1150116249864368],[111.72032888067338,-2.1153671638634819],[111.72024916656585,-2.1154279616310987],[111.7197744333435,-2.1157809958962162],[111.71959652675838,-2.1163238671526869],[111.7185881340352,-2.11721993904888],[111.71728208190262,-2.117338151334593],[111.71708515915282,-2.1174337123958367],[111.71612516344561,-2.1178995702089765],[111.71599238304208,-2.117904517379543],[111.71468612316613,-2.117953176997446],[111.71440375762739,-2.1179636945688003],[111.71303888263839,-2.1184980699299558],[111.71226724273913,-2.118498426960798],[111.7117325831922,-2.1180825345812764],[111.71090165998368,-2.1174858505914926],[111.70971450721879,-2.1170702585854997],[111.70828978324698,-2.1170075893287503],[111.70745854797366,-2.1169536911598925],[111.70674634606706,-2.1166554840633012],[111.70585601094621,-2.116411635588463],[111.70478766042226,-2.1164754496821843],[111.70407508529701,-2.1165933795807632],[111.70336315318701,-2.1168922395851268],[111.70253237117203,-2.1178515491096732],[111.70146444512812,-2.1188652442355647],[111.70070340194053,-2.1195206269753157],[111.70063411367346,-2.1195802960937158],[111.69932826658629,-2.1201779594452432],[111.69861646577732,-2.120775352100793],[111.69719200800483,-2.1213187890308518],[111.69612367456801,-2.121436878109364],[111.69487699837481,-2.1211389066351671],[111.69410508867895,-2.1205421839745782],[111.6938079706614,-2.1197009914075693],[111.6937002246857,-2.1195206269753157],[111.69327309797518,-2.1188056263785029],[111.69262057777752,-2.1187516409754039],[111.69137424872264,-2.1192316667080036],[111.69079649096534,-2.1195206269753157],[111.69030609964682,-2.1197658918823663],[111.68983149143025,-2.1204265005824823],[111.68965370085766,-2.1212588609076306],[111.6887637362575,-2.1218563309049046],[111.68769534796201,-2.1218568093442514],[111.68656735799726,-2.1217939881020129],[111.68532083918547,-2.1218578696449413],[111.68383723030399,-2.1221027874136666],[111.682294041337,-2.1223386813849743],[111.68069091435427,-2.1217423202518262],[111.68055608709381,-2.1214900253443716],[111.6788688905869,-2.1243487210165881],[111.67824195070551,-2.1258712894284031],[111.67720326791652,-2.1283938050300435],[111.67506175369704,-2.135651161272051],[111.66982693856244,-2.1360080797090859],[111.66506801677559,-2.1373167839423672],[111.66149882611001,-2.1365077673195856],[111.6609965313649,-2.1384611379710918],[111.66021391703867,-2.1415046353305911],[111.65500289706608,-2.142504008752951],[111.65120587395199,-2.1472175552459021],[111.65086263510261,-2.1476436450381584],[111.64938227007576,-2.1502526592327627],[111.65066892383186,-2.1532842477697614],[111.65131418919856,-2.1546963452601062],[111.65400522426177,-2.1583127026690363],[111.65568739355842,-2.1632327451949891],[111.65698422764007,-2.1658525152813013],[111.65824531367036,-2.1694788299839729],[111.65873169131459,-2.171624610587287],[111.65925658512339,-2.1739403189905033],[111.66018706957766,-2.1764427293484232],[111.66026785567703,-2.178639755120571],[111.66029333976587,-2.1802171713853227],[111.66029917007069,-2.18057803604745],[111.65607064684292,-2.182006488608522],[111.65262133940337,-2.1826411356798303],[111.65130073803869,-2.1858534079083825],[111.64926953376204,-2.1860727732398573],[111.64768705971011,-2.1862436768041675],[111.64381812230857,-2.1879089055714758],[111.6411435529327,-2.1876596449765771],[111.63766954021719,-2.1867078609789701],[111.63612600501119,-2.1887882779566326],[111.6343858843012,-2.1911336576920917],[111.63243472598185,-2.1927516918370884],[111.62990178364049,-2.1939796063736594],[111.62638199093618,-2.1957202432945451],[111.62412055212184,-2.196469491873529],[111.62147935029185,-2.1963624167920557],[111.62044453458765,-2.1954643178239621],[111.61919506779822,-2.1941138256924546],[111.61808861839506,-2.1932429429074318],[111.61663714678696,-2.1936712459312275],[111.6148525510045,-2.1938616027307489],[111.61223514433652,-2.1915297308123627],[111.61175925188803,-2.1927194619335637],[111.61067897725303,-2.1950656096900616],[111.60930540402126,-2.1950175022558938],[111.60930072125137,-2.1950173376799285],[111.60927751784322,-2.1950165246927895],[111.60927679119101,-2.195017299908443],[111.6092709815706,-2.1950234962372974],[111.60926864513192,-2.1950259891580117],[111.60729460895908,-2.1971316276224684],[111.60723836535834,-2.1972300089577175],[111.60710994576743,-2.1973952198134725],[111.60704929728729,-2.1974757208278106],[111.60700292104804,-2.1975072852329731],[111.6069187121289,-2.1975590214316298],[111.60685104174223,-2.1976047663468421],[111.60678105739993,-2.1976794172712175],[111.60673342660641,-2.1977302226715665],[111.60268411308141,-2.2020494901917687],[111.60232620089351,-2.20261889504593],[111.59944589271385,-2.2072012016740814],[111.59694363344198,-2.2120585308764475],[111.59646062915476,-2.2185902421459218],[111.59521752776675,-2.2215058676016497],[111.59426378504571,-2.2237428223733104],[111.59428612510465,-2.2237547617727955],[111.59437495024383,-2.2238022396815609],[111.5948747062028,-2.2241130094078017],[111.59535306639094,-2.2244557967975425],[111.59580291357366,-2.2248249765913215],[111.59580798305205,-2.2248291368551349],[111.59623750735511,-2.2252314305860068],[111.59636428028739,-2.2253607836731817],[111.59712328381255,-2.2248558692029405],[111.59760778816894,-2.2245552690104091],[111.59812679861295,-2.2242778506422383],[111.59866284311579,-2.2240349734352094],[111.59921362211105,-2.2238276743076995],[111.59977678207292,-2.2236568417897615],[111.59987973106479,-2.2236299079938249],[111.6015029192244,-2.2232154976970264],[111.60197309558197,-2.223108796733527],[111.60255373566645,-2.223012931701362],[111.6031394020618,-2.2229552500846808],[111.60372758565961,-2.222935993801002],[111.60431577105606,-2.2229552500846808],[111.6049014365521,-2.223012931701362],[111.60548207573726,-2.223108796733527],[111.60605520378471,-2.2232424323922828],[111.6066183628472,-2.2234132631115813],[111.60701333519734,-2.2235619201464374],[111.60716914184246,-2.2236205622390912],[111.60770518724468,-2.2238634412447595],[111.60822419678931,-2.2241408569149712],[111.60872395184896,-2.2244516257418923],[111.6089892131817,-2.224639906906134],[111.60819500389636,-2.2284955343413912],[111.60695365708568,-2.2345218670904501],[111.60692358465576,-2.2346726663104732],[111.60553250701963,-2.2416482460696443],[111.60551733635606,-2.2417243224194863],[111.60539772742322,-2.2423185899309601],[111.60515987562781,-2.2435003413676213],[111.60509863179647,-2.2434952781844686],[111.60508347822002,-2.2434940254289018],[111.60465062282805,-2.2434476662767224],[111.60406998364289,-2.2433518012445575],[111.60405361058571,-2.2433485277123282],[111.60397526344769,-2.2433880628087763],[111.60390634570138,-2.2434228386929931],[111.60382674221046,-2.2434616075670988],[111.60318312080443,-2.2437711668058569],[111.60232337072705,-2.2441846759819555],[111.60183123472376,-2.2444213757458442],[111.60156113503842,-2.2445421582939389],[111.60137479461116,-2.2446254840787674],[111.60082401471658,-2.2448327832063342],[111.60026085565403,-2.2450036157242153],[111.59968773030459,-2.2451372486850119],[111.59926732602634,-2.2452105497270622],[111.59745308679061,-2.245482691772736],[111.59729285008501,-2.2455052557629074],[111.59728271202761,-2.2455065840615589],[111.59692460288818,-2.2455533164323356],[111.59693290363066,-2.2456114701931256],[111.59666150982088,-2.2469248841759963],[111.59664951826073,-2.2469829210249372],[111.59668020672621,-2.2472591298049451],[111.59692755536247,-2.2480423979382635],[111.59741342039308,-2.249580968886562],[111.59741676407248,-2.2495915584036652],[111.597425511778,-2.2498364977561209],[111.59743608420797,-2.2501325177015019],[111.59744118426329,-2.250275338136305],[111.59745463991976,-2.2506520956176814],[111.59748884743243,-2.2516099041736766],[111.59752572143498,-2.2526423726473581],[111.5975395233304,-2.2530288212230971],[111.59749602222371,-2.2549428843066153],[111.59749043563517,-2.2551886816123101],[111.59748405134798,-2.255469595645252],[111.59744170227282,-2.257332963945089],[111.59741971744609,-2.2583002990195382],[111.59737600140141,-2.2602237726089811],[111.59736285331309,-2.2608022848974656],[111.59735703290079,-2.2610583920311456],[111.59733648788864,-2.2619623446864239],[111.59729400391524,-2.2638316467130721],[111.5972964024071,-2.2638551450988302],[111.59764328620878,-2.2672545977214327],[111.59785070404683,-2.2692872939733775],[111.59788516426897,-2.2696250055894893],[111.59790780110421,-2.269846855747744],[111.59787645793227,-2.2710755131244014],[111.59786068022629,-2.2716939876873425],[111.5978399535511,-2.2725064262305636],[111.5977983733963,-2.2741363943790702],[111.59778926776056,-2.2744933281045405],[111.59776353366021,-2.2755021183280633],[111.59769805222339,-2.2780690037814679],[111.59762945823297,-2.2807578957602459],[111.59762777110484,-2.2808240148164032],[111.59762583756242,-2.2808997889940201],[111.59763155095538,-2.2809529865909894],[111.59762253615116,-2.2810292383086335],[111.59762110532984,-2.2810853407158334],[111.59761723914431,-2.2812368737826318],[111.59760867400115,-2.2815726455610843],[111.59760090295936,-2.2818772756157273],[111.59759325692335,-2.2822400252568968],[111.59757694861736,-2.2830137443887679],[111.59756020503949,-2.2838081803032537],[111.59747074857626,-2.2880523427413664],[111.59746986634133,-2.2880942583432784],[111.59735393473636,-2.2935945596411784],[111.59732837330586,-2.2948073322925211],[111.59732568882953,-2.2949346780928863],[111.59732469417935,-2.2949818403396307],[111.59730325703975,-2.2953626034013723],[111.59726915384846,-2.2953845486579212],[111.59680755702323,-2.2956815992263842],[111.59662036224,-2.2958001487577917],[111.59439507707123,-2.2958010813547958],[111.59407434555465,-2.2958012153537766],[111.59308070171306,-2.2956142319112018],[111.59259918670318,-2.2956516931710667],[111.59065895784471,-2.2958026380812271],[111.58960324189616,-2.2956781440310579],[111.58824544457167,-2.2957188779238322],[111.58749193500483,-2.2957414841820878],[111.58554200965608,-2.2955302469233061],[111.58553675311873,-2.2955296776524392],[111.58553116832883,-2.295529073308046],[111.5855297357088,-2.2955289168260151],[111.58550359691355,-2.2955260857602298],[111.58547973789962,-2.2955235011086188],[111.58542896667353,-2.2955180008549974],[111.58540877779291,-2.295515813703787],[111.58534357694458,-2.295508751327759],[111.58528380170617,-2.2955022753097296],[111.58527786528134,-2.2956665319848071],[111.58527513404027,-2.2957420939224562],[111.5852323550892,-2.2969256287147459],[111.58521492802657,-2.2974077489683964],[111.58511289184656,-2.3002307280656282],[111.58509034314488,-2.3008545976614982],[111.58499838476769,-2.3033987986156035],[111.5849747568796,-2.3040525068176976],[111.58497074140666,-2.3041636612239245],[111.58496999317072,-2.3041843069601669],[111.58496973686391,-2.3041914008124422],[111.5848962055955,-2.3062257769979624],[111.5848922368873,-2.3063355896157418],[111.58487498878975,-2.3068128166581232],[111.5848660783069,-2.3070593406160356],[111.58486015806989,-2.3071439380422589],[111.58222077107177,-2.3070700587362012],[111.58124704181756,-2.3070428029829486],[111.57788421228662,-2.3069486736423528],[111.57644711993868,-2.3069084478665332],[111.57466771144578,-2.3068586398143225],[111.57452013809393,-2.3068539804268084],[111.56955064094939,-2.3066970100589401],[111.55463192961992,-2.3062257769979624],[111.55340404206294,-2.3061869919361015],[111.55343268457079,-2.3048524402878456],[111.55343342561218,-2.3048179288043116],[111.55340613028875,-2.3048156274392113],[111.55336380459596,-2.3048264220017245],[111.55334154727467,-2.3048257394162874],[111.55191269541461,-2.304781910057045],[111.55161573118113,-2.3047728008240256],[111.5483481713311,-2.3046725686840546],[111.54637005763209,-2.3046118914256226],[111.54369587496473,-2.3045298606645019],[111.54296241578294,-2.3045073623248413],[111.54104943818106,-2.3044486815613823],[111.54067898404793,-2.3044373177280022],[111.54060895294089,-2.3044351701469168],[111.54048532583715,-2.3044313768065194],[111.54032785274825,-2.3044265456485391],[111.5400691061044,-2.3044186100307797],[111.53903019758559,-2.3046420762707385],[111.53861369006978,-2.3047316649343657],[111.53753199180801,-2.3049643348361428],[111.53649080260851,-2.3051882912066048],[111.5368233377269,-2.3056235702715071],[111.53699896273201,-2.305853457670878],[111.53671490916577,-2.3062657662520678],[111.53512021512591,-2.3061851905940216],[111.5348589620715,-2.306171991244355],[111.53247703838468,-2.3060516403708675],[111.53231258925467,-2.3060433306351342],[111.53214588912152,-2.3060349075848876],[111.53055884471496,-2.3059547186352916],[111.5294035603261,-2.3058963463392388],[111.5287789523868,-2.3058647873300515],[111.52788402083098,-2.3058195694175652],[111.52756542700291,-2.3058034706535864],[111.52543305888861,-2.305695729174488],[111.52307595918825,-2.3055766328552636],[111.52173349800262,-2.3055088023892836],[111.52173300697274,-2.3062852509635263],[111.52173262566021,-2.3068874711797775],[111.52169618872819,-2.3069396030801954],[111.52161429106673,-2.3070567766488921],[111.52152343705706,-2.3071867646573878],[111.52138303220124,-2.3073876480215176],[111.52123467823787,-2.3075999033128483],[111.52086163585585,-2.3081336266654944],[111.52078198829821,-2.3081629841343556],[111.51987976773717,-2.3084955246487198],[111.51880444117211,-2.308891870263551],[111.51848183366974,-2.3090107759265379],[111.51705415812296,-2.3095369899401135],[111.51685856367186,-2.3096090831925835],[111.51628913003935,-2.3097511787738085],[111.51549780937648,-2.3099486456134741],[111.51519222873844,-2.3100249000290773],[111.5141839430346,-2.3102765078544962],[111.51359204163947,-2.3104242107087316],[111.51286536694317,-2.310605544610155],[111.51249398021309,-2.3106982197469961],[111.51192047085311,-2.3107624358377166],[111.51191447507301,-2.3107631067319403],[111.51117805532306,-2.3108455628723732],[111.51064150989782,-2.3109056402830106],[111.50999586501723,-2.3109779322857094],[111.50879147944329,-2.3111127856265057],[111.50873699761439,-2.3111188857279217],[111.50809835395592,-2.311190395320466],[111.50745303193196,-2.3112853862115799],[111.50702810676177,-2.3113479349592012],[111.50599561310713,-2.3114999176870015],[111.50541859279389,-2.3115848559563119],[111.5050081359168,-2.3116452751092993],[111.50495524408933,-2.3116530614395856],[111.5035073068168,-2.3118661971672054],[111.50341984594917,-2.3118790718616538],[111.50305103038079,-2.3119333612355604],[111.50261348502437,-2.3119977679825752],[111.50247993120394,-2.3120014453103863],[111.50196242622508,-2.3120156923702666],[111.5007132094471,-2.3120500842439355],[111.49962016174112,-2.3120801773582684],[111.49926173783899,-2.3120900447197528],[111.49819504026897,-2.312119412081131],[111.49769129401807,-2.312133279627119],[111.49748305599832,-2.3121390128051758],[111.4963216427297,-2.3120623204197273],[111.49615654069186,-2.3120514179385623],[111.4949839227699,-2.3119739854110435],[111.49487758063589,-2.3119669626051973],[111.49364620191074,-2.3118856504024166],[111.49318816370283,-2.3118554044033317],[111.49261576590493,-2.3118176058977724],[111.49253036358544,-2.3118079498769362],[111.49240595227292,-2.3117938826815134],[111.49177215326233,-2.3117222193049543],[111.49153443816385,-2.311694777392006],[111.49073847879782,-2.3116028918599341],[111.49033281081063,-2.3115560623623423],[111.48888815336562,-2.3113892911828202],[111.48872072568099,-2.3113699629533926],[111.48813712592766,-2.3113025929402511],[111.48746239967005,-2.311209283781352],[111.48737038193764,-2.3111965583744336],[111.48722638339092,-2.3111766437870074],[111.48641264892467,-2.3110641116194302],[111.48633487195684,-2.3110533557277222],[111.48535973706225,-2.3109185032862456],[111.48469355256543,-2.3108263749372213],[111.48353350087041,-2.3106659493740267],[111.48346628374208,-2.3106566539813684],[111.48297941776599,-2.3105843835624],[111.48249248703871,-2.3105121041502343],[111.4813781802589,-2.3103466972422098],[111.48135629435757,-2.3103460011669767],[111.47975610635928,-2.3102950797540984],[111.4797355892261,-2.3102944268462693],[111.47920275080639,-2.3102774719277477],[111.47810832983561,-2.3102426447821927],[111.47810109478974,-2.3102424145557166],[111.47684721502702,-2.3102025152338683],[111.47603192293496,-2.3101765706921356],[111.47593082115054,-2.3101733538171629],[111.47543114972785,-2.3102479399904041],[111.4751696952253,-2.3102869561780608],[111.47400970828147,-2.3104601197387069],[111.47286161756966,-2.3106314972457653],[111.47278666537238,-2.3106426848120236],[111.47227375233189,-2.31071924769509],[111.47193957685005,-2.3107691312903285],[111.47114007775247,-2.3108884731244643],[111.47076593370093,-2.3109443219228751],[111.47055354081334,-2.3109760257229368],[111.46999002202193,-2.3110601429112307],[111.46953091541945,-2.3111286739490993],[111.46911277743277,-2.3111910886977398],[111.46863212577205,-2.3112628357112612],[111.46832313040818,-2.3113089592410461],[111.46822607737164,-2.3113119755671505],[111.46771948476646,-2.3113277199982463],[111.46667260825433,-2.3113602556712181],[111.46554877495606,-2.3113951826414905],[111.46482996573042,-2.3115245438225998],[111.46315028485782,-2.3118268302440015],[111.46302557227239,-2.3118531659907831],[111.46177190924629,-2.3121179102133169],[111.46158913642955,-2.3126512522534313],[111.46149005542179,-2.3129403752980124],[111.46119808872089,-2.3137901959607348],[111.46101158281834,-2.3143330564253688],[111.46101094070241,-2.3143331319683966],[111.46089893733614,-2.3143463591970885],[111.46042542809107,-2.3144022781425519],[111.45931000974923,-2.3138625608085022],[111.45930638278338,-2.3138608062311619],[111.45927950924204,-2.3138478020343882],[111.45819459230665,-2.3133228416757561],[111.45817639182707,-2.3133140337156419],[111.45802432905958,-2.3132404565817524],[111.45760451923326,-2.3129922392004119],[111.45715392561323,-2.3127473861828776],[111.45708601870484,-2.3127186420516637],[111.45699050530766,-2.3126782121297538],[111.45598506415945,-2.3123395948963434],[111.45516747879617,-2.3120220298927165],[111.45177869932758,-2.3107057488711575],[111.44838991895966,-2.3093894687489183],[111.44785319906595,-2.3091809933081322],[111.4427859923797,-2.307212740675368],[111.44002482818331,-2.3061402128005284],[111.43846600720053,-2.3061455880484232],[111.43745173470984,-2.3061490846125139],[111.43211135985143,-2.3061674838422732],[111.4298372262071,-2.3061753133399634],[111.41901162178897,-2.3062125299842364],[111.41901105521606,-2.3060620563188081],[111.41900975479643,-2.305717738282965],[111.41900974580318,-2.3057153991463224],[111.41900917743163,-2.3055644191625788],[111.41900320503396,-2.3039819747882575],[111.41900062397968,-2.3032978928833927],[111.4189976517203,-2.3025103250913617],[111.41899660760743,-2.3022336045971201],[111.4189937279782,-2.3014703841508322],[111.41898478961639,-2.2991019988581343],[111.41898448924286,-2.2990221165773619],[111.41898319961501,-2.2986806952578149],[111.4189828192018,-2.298579688801567],[111.41898050434685,-2.2979660435979667],[111.41897603201835,-2.296780987152772],[111.41896778073857,-2.2945944321872389],[111.41896367623275,-2.2935066176362398],[111.41896307278762,-2.2933469259198205],[111.41895915893809,-2.2923097953607225],[111.41894992469935,-2.2898626087723528],[111.40172405841861,-2.2896817721959906],[111.39791644758606,-2.2896417712506718],[111.3975395453138,-2.2896378106364068],[111.39750914822866,-2.2896260043365828],[111.39626433902811,-2.2891424883351306],[111.39617092464852,-2.2891062042878616],[111.39530429475747,-2.2887695817507279],[111.39524778225939,-2.2887476310982606],[111.39503676983111,-2.2886656677862902],[111.39500977488126,-2.2886551816912402],[111.39480961277349,-2.2885774344010201],[111.39464125069321,-2.2885120383998014],[111.39457001089733,-2.2884843671597537],[111.39441613689525,-2.2884245982165794],[111.39423453319722,-2.2883540580932618],[111.39412100278213,-2.288309959836738],[111.39385429983611,-2.28820636603092],[111.39382082617027,-2.2881933636327858],[111.39380511591344,-2.2881872617326735],[111.39345700993312,-2.288052047763756],[111.39339461586889,-2.2880278128332634],[111.39302701078799,-2.2878850247740274],[111.39301627468137,-2.287880854617697],[111.3929666455943,-2.2878615776496645],[111.39290852330976,-2.2878390010690168],[111.39275318880868,-2.2877786646536151],[111.39252343271033,-2.2876894222289934],[111.39250242994325,-2.2876812635794295],[111.3924877593027,-2.2876755645755793],[111.39248710009963,-2.2876753091681508],[111.39248520972473,-2.2876745753213186],[111.39248045141176,-2.2876720401325201],[111.39246116185319,-2.2876617635794787],[111.39244589855946,-2.2876536328088832],[111.39243458688674,-2.2876476073511753],[111.39242185698316,-2.2876408246642654],[111.39237170179268,-2.2876141067056324],[111.39230186583848,-2.2875769035512121],[111.39228549997591,-2.2875681846239786],[111.39224172097869,-2.287544863404662],[111.3922149040946,-2.2875305767746568],[111.39217176271671,-2.2875075945997878],[111.39161178635493,-2.2872092849804631],[111.39142865201075,-2.2871117256256071],[111.39085690891926,-2.2868071477316221],[111.390681802823,-2.2867138655524286],[111.39001206690341,-2.2863570847116534],[111.39001165861123,-2.2863568679750301],[111.38951726171234,-2.2860934934199122],[111.38931335932415,-2.2859848697059419],[111.38910499360065,-2.2858738699830496],[111.38880720289018,-2.2857152313727624],[111.38824901438056,-2.2854178732362129],[111.38762015444661,-2.28508286678084],[111.3872101885994,-2.2848644709185351],[111.38675385910335,-2.2846213751763003],[111.38645394239558,-2.2844616034201977],[111.38636881886595,-2.284416256005386],[111.38585733394888,-2.2841437776132238],[111.38581060787334,-2.2841188861776232],[111.38501132641164,-2.2836930940609932],[111.38484763810806,-2.2836058939967643],[111.38427616391391,-2.2833014590950143],[111.38395774275568,-2.2831318280713617],[111.38344626593249,-2.2828593505785193],[111.38330489430547,-2.2827840386524372],[111.38316309819851,-2.2827085009964776],[111.38251413122225,-2.282362780018218],[111.38199999960034,-2.2820888887911224],[111.38199026533852,-2.2820843849863195],[111.38198437477911,-2.2820816591412267],[111.38165373812956,-2.2821634875548398],[111.38139555086406,-2.2822273870842196],[111.38090012334209,-2.2823499997526255],[111.38088863540224,-2.282352843408944],[111.3805353906958,-2.282440267404354],[111.38042530558346,-2.2824675123657698],[111.37996015733546,-2.2825826309835975],[111.37983955375245,-2.282612478582962],[111.37920282924722,-2.2827700622884777],[111.37919028730198,-2.2827731658488801],[111.37899254886707,-2.2828221042566383],[111.37887875225266,-2.2828502683251486],[111.37865371399778,-2.2829059633394877],[111.37855054736991,-2.2829314959917042],[111.3782563440551,-2.2830043078025142],[111.3780765506923,-2.2830488053580211],[111.37787372569193,-2.2830990019173782],[111.37770249207642,-2.2831413806701448],[111.37741544196911,-2.2832124226151791],[111.37732325966078,-2.2832352366168038],[111.37704043906507,-2.283305231751001],[111.37693687673556,-2.2833308633286151],[111.37667923715713,-2.2833946261609981],[111.3765617856979,-2.2834236940481674],[111.37632660129168,-2.2834818999696722],[111.37619660698789,-2.2835140723165637],[111.37598110334528,-2.283567406610473],[111.37589544112177,-2.2835886072284097],[111.37553186140633,-2.2836785888957252],[111.37539478763938,-2.2837125131219409],[111.37515447799683,-2.2837719870875048],[111.3749845268145,-2.2838140483795542],[111.3746328999884,-2.2839010721767181],[111.37458352720807,-2.2839132912653213],[111.37431172330747,-2.2839805596550491],[111.37430596314977,-2.2839819859798354],[111.3741409744265,-2.2840228187980074],[111.37412655109949,-2.2840263891065433],[111.3739856030532,-2.2840612720100353],[111.37377391883138,-2.2841136620158409],[111.37369890997678,-2.2839805605543688],[111.368786823753,-2.2752642881163752],[111.36274903813768,-2.2782215989475958],[111.35567856191614,-2.2817252020564069],[111.35173892880857,-2.2839805605543688],[111.34836247634729,-2.2859135111995101],[111.35143459732888,-2.296211827813579],[111.35148448721935,-2.2963790684391938],[111.35248879612112,-2.2997456958071893],[111.34757820097326,-2.3053754284332513],[111.34688396482318,-2.3061713329406075],[111.33693938844209,-2.3058387402655853],[111.3365118921102,-2.3058244428436865],[111.33540665769118,-2.3057874789089965],[111.33476140761292,-2.3057658987771674],[111.33114800897351,-2.3056450487799225],[111.32353166225647,-2.3053903221056089],[111.32127099236249,-2.3053147152019164],[111.31850703667044,-2.3052222747880933],[111.31686926690321,-2.3051674997802252],[111.31674602021275,-2.3118169520906235],[111.31668501739972,-2.3151082243650194],[111.31662760378094,-2.3182058042544327],[111.31648954885367,-2.3256541917874642],[111.31645494114269,-2.3275213938971433],[111.31645061000773,-2.3277550683416735],[111.31643425673565,-2.3286373608254962],[111.31640417081587,-2.3302605750654379],[111.31638839041193,-2.3311120010179707],[111.31636919618154,-2.3321475667567597],[111.31636460963909,-2.3323950062244876],[111.31636319500552,-2.3324713730553981],[111.31636280469974,-2.3324924135939682],[111.31631627377709,-2.3324948876289113],[111.31622969784235,-2.3324994912584884],[111.31603289740036,-2.3325099539711687],[111.31186551458188,-2.332731512749092],[111.31149897339895,-2.3327510001585097],[111.30768700085446,-2.3329536632808754],[111.30662463082211,-2.3330101443026479],[111.30633426671312,-2.3338870048813192],[111.3056002148781,-2.3361037437927052],[111.30138620940608,-2.3360935535745853],[111.29513935569679,-2.3360784467628832],[111.28257374478255,-2.3360480595702597],[111.27923392530545,-2.3360399836582815],[111.27575988561028,-2.3360315830910281],[111.27481477638088,-2.3360292979137398],[111.27469204859921,-2.336196904563451],[111.27469198384802,-2.3361969935963316],[111.27438412522724,-2.3366174347467563],[111.27187641336582,-2.3400421996877299],[111.27187647901633,-2.3403831029977482],[111.27187697094553,-2.3429394286117144],[111.27187702310619,-2.3432098259726217],[111.27149421138881,-2.3432484068883923],[111.26767831780018,-2.3436329893709171],[111.2661278838948,-2.3467535910053812],[111.2659994400222,-2.3470121137180513],[111.2658752706273,-2.3500486898950612],[111.26577990381958,-2.3523809233408883],[111.26574955170054,-2.3531231850868721],[111.26544110222517,-2.3606664124249619],[111.26495457799143,-2.3725645069463894],[111.2649719753764,-2.3725647003006429],[111.28363960418443,-2.372771956260749],[111.28365365159482,-2.3732490600959864],[111.2838381502105,-2.3795149911238695],[111.28385101321373,-2.3799518556935482],[111.28388584485589,-2.383494689927943],[111.2839074150952,-2.3856885473884972],[111.2839560702165,-2.3906372701937926],[111.28396355707258,-2.3913988107065052],[111.28412039074351,-2.4002085307990342],[111.28795186688524,-2.4001179321967925],[111.28813790963687,-2.4001135327133056],[111.288244506279,-2.4001110119136229],[111.2882445107756,-2.4001485963805749],[111.28824456923155,-2.400615159262145],[111.28824482913564,-2.4026985278147777],[111.28901351296332,-2.404233155235886],[111.28901409572399,-2.4042343180593093],[111.29073087363099,-2.4041337621633261],[111.29316480601108,-2.4052141366230444],[111.2955466541548,-2.4083434553861025],[111.29527237172266,-2.408622552788529],[111.29472821263698,-2.4087931622745486],[111.29442290179554,-2.409250828163124],[111.2939223220576,-2.4095492798753071],[111.29323835886322,-2.409879210557051],[111.29314497056401,-2.410438094242636],[111.29236092991306,-2.4104558963225031],[111.29231336566937,-2.4108293676811172],[111.29214067785006,-2.4112868501080129],[111.2913987587458,-2.4111379421622701],[111.29105175083771,-2.4117787549855052],[111.29094288970265,-2.4123292911638146],[111.29069337010299,-2.4130400163836043],[111.29027977369265,-2.4133375705723665],[111.29006783316402,-2.4138396458828879],[111.28983748890903,-2.4141691970507395],[111.28953819273346,-2.4148780516807165],[111.28935674821543,-2.4157857428177181],[111.28953163307847,-2.4163521592247434],[111.28959521784509,-2.4171705953466471],[111.28885343184049,-2.4180925560265791],[111.28857286584514,-2.4188678022072736],[111.28839161288266,-2.4190011590761742],[111.28776820823629,-2.419459831306142],[111.28691608710778,-2.4200153740102337],[111.28588184607042,-2.4211053190551866],[111.28575535102868,-2.4222073563843196],[111.28473357099756,-2.4229788326069865],[111.28410883625384,-2.423085130674167],[111.28394709498252,-2.423738253417639],[111.2832355459837,-2.4240735692397948],[111.28284078497433,-2.425046171643487],[111.28215111108494,-2.4257812442090199],[111.2817422541018,-2.4265796497310248],[111.28177259183173,-2.4273996039085546],[111.28168720839801,-2.428022808905439],[111.28117343020972,-2.4284409082212619],[111.28037459571107,-2.4287881562483449],[111.28020374790469,-2.4288624222629096],[111.27971230527874,-2.4292057969099687],[111.27954355469137,-2.42911278272868],[111.27897353739888,-2.4288545451011032],[111.27837853334267,-2.4288640230561782],[111.27752731423425,-2.4288687768724913],[111.27654453060569,-2.4290978243050745],[111.27625755064548,-2.4292360186273072],[111.27548484684826,-2.4296081140232104],[111.27516510638463,-2.4299298572770454],[111.2751333414306,-2.4306640619968221],[111.27512263320301,-2.4309115536252648],[111.27502908662314,-2.4372062269857224],[111.27502875837058,-2.4376778089836648],[111.27502689137799,-2.4403560601840013],[111.27502325092235,-2.4455788073160534],[111.27502277338237,-2.4462642615863501],[111.2750226645644,-2.4464188568447298],[111.27508780425882,-2.4480376581113887],[111.27509265879922,-2.4481583129557407],[111.27511334140763,-2.4486722773037286],[111.27513307073468,-2.4491625957771248],[111.27513385584285,-2.4491983654122009],[111.27513482800998,-2.4492426129561977],[111.2753844132601,-2.4606114393664029],[111.27555720540079,-2.465391586952137],[111.27555835833164,-2.4654234877037311],[111.27560109321593,-2.4666057085865418],[111.27561670994328,-2.4670377312062897],[111.27568729593202,-2.4670798437597341],[111.27650037209457,-2.4675649335747494],[111.27659140956598,-2.4676863105747202],[111.27668008631701,-2.4678045390481884],[111.27701599569173,-2.4682523924338966],[111.27769742459651,-2.4686004156765762],[111.27824861727993,-2.4692513431749035],[111.27862710235894,-2.4693628761957598],[111.27908402720612,-2.4699756877277537],[111.27908418818481,-2.4699758397131859],[111.27941666484725,-2.4702894791760741],[111.27979471465443,-2.4704289946023437],[111.28014708432056,-2.4709024148145318],[111.2803991939677,-2.4712026957477633],[111.28058698680007,-2.471312189106186],[111.28058409727834,-2.472602418566737],[111.28058206301188,-2.4735107419271571],[111.28057067040015,-2.4785974845862029],[111.28057066860151,-2.4785977327990736],[111.28057066770219,-2.4785982633990784],[111.28062258826191,-2.4852431282677117],[111.28064143355539,-2.4876550641298536],[111.28064652731547,-2.4883068621718962],[111.28076472790991,-2.5034346685750393],[111.28079379489776,-2.5071547690772604],[111.28546160726745,-2.5072131791448555],[111.2866737692791,-2.5072283471104697],[111.28664706211231,-2.5144836106300659],[111.28664694879768,-2.5145142451362403],[111.28664402869902,-2.5153075281198767],[111.28664214012275,-2.5158205697634344],[111.28663863456541,-2.5167728447909212],[111.28682117805499,-2.5171639059894346],[111.28722522366519,-2.5180294908682868],[111.2866420861634,-2.5178751069505552],[111.28616410279119,-2.5177485633454921],[111.28594002771018,-2.517689239566721],[111.28536171686977,-2.5176651206487577],[111.28470243197171,-2.5175611347385143],[111.28395069766663,-2.5171444131840985],[111.28356743718751,-2.5168558063503497],[111.2830629552912,-2.5163078467297169],[111.2830369828705,-2.5162490706380254],[111.28276803701533,-2.5156404220678041],[111.28230752567185,-2.5150172719295369],[111.28185284373382,-2.5147237952668888],[111.28137594314535,-2.514430141437856],[111.28094641974155,-2.5140109953111391],[111.2806433446147,-2.5138900113149134],[111.2798933217195,-2.513890897147121],[111.27941781058354,-2.5137838823202401],[111.27892229942466,-2.5135308526666904],[111.27854210923101,-2.5132889260430602],[111.27799703013886,-2.5130989019926915],[111.27740522856851,-2.5132893694088239],[111.27698442319263,-2.513463631941022],[111.27670735825802,-2.5135583494382558],[111.27639533127956,-2.5136650180261313],[111.27561644824056,-2.5136915282413952],[111.27535812967403,-2.5136848876474005],[111.2745883315863,-2.5132783509151295],[111.27439595940604,-2.5129724663062234],[111.27427149503353,-2.5126011380320392],[111.27393906513583,-2.5123316426910947],[111.2733642814365,-2.5119983080754196],[111.27298178538115,-2.5115596709420061],[111.27276811905352,-2.5112329760210059],[111.27276492376228,-2.5112280900042947],[111.27252567172241,-2.5108622763729045],[111.27243532762833,-2.510753497975486],[111.27233886724497,-2.5106373550298713],[111.27224262090027,-2.5105214701896443],[111.27174221023489,-2.5102257551144476],[111.2715516438933,-2.510043472428265],[111.27140546988659,-2.5099036512324915],[111.2712827861717,-2.5095349148044193],[111.27124023384977,-2.5094070222162372],[111.27111620295045,-2.5090342370403391],[111.27087225195294,-2.5082431879727096],[111.27069464574134,-2.5076519457806512],[111.2704365960721,-2.5070604230000981],[111.27004413283055,-2.5065682096550859],[111.26922911503169,-2.5065276043653739],[111.26883798278675,-2.5064237515548484],[111.26865058565608,-2.5063367853143177],[111.26837901467985,-2.5057775796715305],[111.2680549223968,-2.5051362704224971],[111.26762069284075,-2.5045446361260133],[111.26737292691911,-2.5043905408907108],[111.26718532744098,-2.5043629137174435],[111.26712993729683,-2.5043678024321139],[111.26682705192695,-2.5043945311826405],[111.2666210748028,-2.5044127082798013],[111.26610802776332,-2.5043631520377971],[111.26576588338889,-2.5041557656759892],[111.26570517015756,-2.5041189663172077],[111.26555204888803,-2.50402615358405],[111.26534710688355,-2.504003171409181],[111.26474007259634,-2.504207007247544],[111.2646069387593,-2.5042517116471004],[111.26453637165628,-2.5042754078837106],[111.26424410727981,-2.5042571840217533],[111.26410236693073,-2.5042483463840313],[111.26398882032788,-2.5042724608053959],[111.26394296299742,-2.5042821995638178],[111.26365930962947,-2.50434244334906],[111.26339335132218,-2.5043945311826405],[111.26326918912184,-2.5044188479513991],[111.26326713507029,-2.5044192499483984],[111.2630902366252,-2.5045157463046053],[111.26294877956258,-2.5046469358073864],[111.26293959478653,-2.5046554541858086],[111.2628209679134,-2.5048411228195278],[111.26267560239717,-2.5050051213892175],[111.26247692237212,-2.5050772389233771],[111.26227835206436,-2.5051196914205889],[111.26206111183092,-2.5051324186261468],[111.26167498431312,-2.5051310579519281],[111.26124877491111,-2.5050918070411967],[111.26101532259912,-2.5051395313642502],[111.2607848668282,-2.505095564408748],[111.26031051761635,-2.5050210843555192],[111.26018585809095,-2.5049448928924676],[111.26012856767932,-2.5049098777885774],[111.25969470774464,-2.5047546260251465],[111.25946700929512,-2.5046917948903911],[111.25927176737821,-2.5045454787907602],[111.25914356632256,-2.5043993947162448],[111.25895640031769,-2.504247713261293],[111.25877169305926,-2.5041580670410895],[111.25856783923444,-2.5041762279504951],[111.25837451107486,-2.5042510587393281],[111.258178554197,-2.5043123996974259],[111.25795046274374,-2.5043601411075542],[111.25776019137982,-2.5043298078742851],[111.25740701412246,-2.5041074199214677],[111.25709692338438,-2.5038312390204283],[111.25682703414037,-2.503563300405915],[111.25649817904781,-2.50328705925034],[111.25641848472537,-2.5030710313030227],[111.2564964550474,-2.502240659378856],[111.25644635021894,-2.5019977650847522],[111.25575791379674,-2.5010271609746724],[111.255442590803,-2.5007159038158875],[111.25515136784139,-2.5004128313869955],[111.25457180424542,-2.5005213642695026],[111.25406641763112,-2.5008890529873611],[111.25303553915887,-2.5012360267211875],[111.25244251091323,-2.5013606916425601],[111.25202004808682,-2.5014756618722345],[111.25109895165536,-2.5010064792655839],[111.25061772982446,-2.500874249247147],[111.24999972830489,-2.5014158470636403],[111.24937969521682,-2.5018142224483881],[111.24919287095429,-2.5019872187351098],[111.24879256922173,-2.5026631383930749],[111.24852886191752,-2.5031185083124683],[111.24830120034017,-2.5035843481390998],[111.24768591926983,-2.5044416097924227],[111.24711501794377,-2.504995518428359],[111.24709203756754,-2.5050178144205688],[111.24709190806516,-2.5050179403256152],[111.24686369610276,-2.5051671594368372],[111.24648507702477,-2.5052599209085997],[111.24588622566881,-2.5054725916867255],[111.24511293821161,-2.5054377888228601],[111.24488421903152,-2.5053040713257815],[111.24464594275611,-2.5052968956351833],[111.24423577905804,-2.5055832937339915],[111.24373236016038,-2.505669679012442],[111.24278309336512,-2.5059478267307895],[111.24267019697209,-2.5059136506943673],[111.23082479013203,-2.505547625722329],[111.2259778561932,-2.5053978553266916],[111.22589513385338,-2.5053952985541628],[111.2175561396042,-2.5051376221035184],[111.2175550586191,-2.5051375888286316],[111.21791328197247,-2.5069269159443479],[111.21807994883062,-2.507759416563772],[111.2183690179159,-2.5092033221755514],[111.21883451869815,-2.5103144165769891],[111.21996432889074,-2.5130111398521535],[111.22045088100344,-2.5141724820743434],[111.22033395744626,-2.5252721800670201],[111.22014852983085,-2.5428750277602603],[111.22095375581125,-2.545743005335396],[111.22279762321182,-2.5523103180667022],[111.22289354400192,-2.5526519588207748],[111.22382340972263,-2.5559638678381589],[111.22509578224464,-2.5604956820300799],[111.22517614206538,-2.5607819002644305],[111.22551699231542,-2.5619959085842652],[111.22866652783807,-2.561572997895496],[111.22870838318539,-2.5615840667512089],[111.22896841136316,-2.5616528370087508],[111.23265622530459,-2.5626281508684201],[111.23664619796375,-2.5651615158911909],[111.24105562161969,-2.5649495142086494],[111.24217058400529,-2.5657901851688507],[111.24219725519924,-2.5658102940097933],[111.24273565592586,-2.5662162443841225],[111.24643710718681,-2.5674563168554982],[111.24644110197534,-2.5674576550467236],[111.24685234935652,-2.5675954329827846],[111.24903529983925,-2.5683267733618322],[111.25344564530036,-2.5727605704439043],[111.25533563533139,-2.5738160651592352],[111.2593251277525,-2.5736040805638254],[111.26289523033068,-2.5761374401906778],[111.26625501835446,-2.5769814368437665],[111.26940523466391,-2.5797260382260561],[111.27245738799814,-2.5807689496272701],[111.27697928176849,-2.5823140694387234],[111.27990483214234,-2.583313720751562],[111.28044724474461,-2.5833710210557115],[111.28168026922913,-2.5835012752635862],[111.28189404887132,-2.5835238581394719],[111.28233550537931,-2.583570491584851],[111.28389448284418,-2.5837351790352159],[111.28784143913117,-2.5849555716422969],[111.28824472841154,-2.585080268039917],[111.28935425979131,-2.5854233333201364],[111.29145402838077,-2.585422850384191],[111.29649312855508,-2.5839434602224856],[111.30831648132062,-2.5842211214075519],[111.30833889602332,-2.5890304762754113],[111.31516848164017,-2.5932647066009054],[111.31948927530988,-2.5959435279713716],[111.32007039563229,-2.5963038125708522],[111.33009413843382,-2.6025183680281998],[111.33175645699498,-2.6053457645953131],[111.33383835965265,-2.6088868199707349],[111.33448033799726,-2.6099787444234721],[111.33757614442356,-2.6152443217679888],[111.34029752441126,-2.6198730469035354],[111.34374907835735,-2.6257437079057695],[111.34395645482658,-2.6258653897758677],[111.34628125087909,-2.6272295003411159],[111.34848601801536,-2.6285231813996575],[111.36794116065607,-2.6399387860461161],[111.37161469066552,-2.6420942856227612],[111.37756217625349,-2.6455840643530451],[111.38017852172146,-2.6459121208476404],[111.39772152223054,-2.6481117897272384],[111.39982306518237,-2.6533903937516357],[111.3968402990406,-2.6625967202623997],[111.39364901788792,-2.6724466277096326],[111.39311854198718,-2.6740839451178999],[111.38675609391868,-2.6937216771136718],[111.38363617756761,-2.7033513163101475],[111.38073255985984,-2.7123133509803097],[111.37929716273391,-2.7169644872212757],[111.37903561200397,-2.7178119948276276],[111.37894523103762,-2.7181048563539889],[111.37891984677356,-2.7181871074490118],[111.37891606602369,-2.7181993571145995],[111.37891579173049,-2.7182002456447663],[111.37891505788366,-2.7182026252509104],[111.37891406143484,-2.7182058574143184],[111.37794703302922,-2.7213393310452716],[111.37769497914002,-2.7221560647505498],[111.37401938428724,-2.7340661418389232],[111.37003570958041,-2.7428002694168754],[111.3622671256274,-2.7598327382901857],[111.38242765241426,-2.7600375669800883],[111.37928754718263,-2.7912919452670053],[111.37928844470599,-2.7912989294020463],[111.37928849596739,-2.791299324204374],[111.37935545409101,-2.791819784355539],[111.37942323689293,-2.7923466530755263],[111.37947329495665,-2.792735739362854],[111.37955005479125,-2.7933323918763335],[111.37975882431033,-2.7949551141871325],[111.37982609809603,-2.7954780240914943],[111.38054367884774,-2.801055658092082],[111.3826562187096,-2.8174760798571583],[111.38253058072178,-2.8202263478676173],[111.38221964911759,-2.827032812814025],[111.38217805097634,-2.827943389875486],[111.38170456511364,-2.8383083219714536],[111.38167227405626,-2.8390151917976141],[111.38135227638651,-2.8460201227304083],[111.38097961711571,-2.8541778460307228],[111.38009838043598,-2.8734686357688588],[111.37994546421186,-2.8768160599132102],[111.3617746406872,-2.9079555552046372],[111.36169667036512,-2.9080891737763181],[111.36147425633192,-2.9086284423486859],[111.36175604540523,-2.9087245070303425],[111.36258605939918,-2.9089806519355079],[111.36349977239666,-2.9092852226348782],[111.36466094914357,-2.9096278652337446],[111.36568887604085,-2.9099514718828914],[111.36635512528886,-2.9102179706827656],[111.36698330173806,-2.9104654353315027],[111.36763051593562,-2.9107890419806495],[111.36888687063265,-2.9113601132785334],[111.37020033407822,-2.9120453966776836],[111.37111404707565,-2.9124641821762225],[111.37187547427379,-2.9128068247750889],[111.37278918727122,-2.9132636812738042],[111.37309375797059,-2.9133588601232532],[111.37343640056952,-2.9135301809729981],[111.37376000721861,-2.9137205377725763],[111.37404554286758,-2.9138537876221449],[111.37438818456712,-2.914044145320986],[111.37467372021609,-2.9142345012211877],[111.37495925586501,-2.9144629299202052],[111.3756635761132,-2.9147865356700322],[111.37676764591021,-2.9153956779680925],[111.37743389515822,-2.9157002486675196],[111.37825243020558,-2.9161951770657311],[111.37903289335338,-2.9166901045646227],[111.38055574774961,-2.9175847834109732],[111.38127563706104,-2.9179650266646036],[111.38221185289478,-2.9184984964084606],[111.38285906619302,-2.9187649952083348],[111.38343013659158,-2.9190124589577522],[111.3838869930903,-2.9192789586569461],[111.38428674263912,-2.919488351406244],[111.38468649218794,-2.9196787082057654],[111.38526810983547,-2.9200345537516341],[111.38619031243303,-2.9202878496045059],[111.38687559583212,-2.9203449565544588],[111.38790352362878,-2.9203449565544588],[111.38856977287679,-2.920268814554106],[111.389064701275,-2.920173635704657],[111.3895215568744,-2.9200974928049845],[111.38995937832271,-2.9199261719552396],[111.39037816292193,-2.9197167801052615],[111.39062562667141,-2.9195264233057401],[111.39083502031997,-2.9191647447570972],[111.39106344811972,-2.9189363160580797],[111.39127283996964,-2.9187459592585583],[111.39159644661879,-2.9185556033583566],[111.39195812516738,-2.9184604236095879],[111.39244847241912,-2.9181220473945473],[111.39264458487975,-2.9179375577720066],[111.39285336339208,-2.917778500976965],[111.39299650668352,-2.9177012312267721],[111.39313616240401,-2.9176169602544633],[111.39337513925136,-2.9175045800722614],[111.39430392578561,-2.9169262035813972],[111.39465345629202,-2.9167743827315462],[111.39505855770631,-2.9164947978965756],[111.39568606685856,-2.9160634362785345],[111.39628179037237,-2.9156161179894298],[111.39680604116592,-2.9152646341555055],[111.398172290319,-2.9144098537317404],[111.3992366901212,-2.9137388146945113],[111.4004533397499,-2.9128354169209274],[111.40142292133083,-2.9122512640845457],[111.40172760534477,-2.9119448659627665],[111.40191530015102,-2.9117561162516949],[111.40240772034008,-2.9113800098795082],[111.40374174408629,-2.9107216548804331],[111.40474161843099,-2.9099530789713981],[111.40530607881254,-2.9095191929563384],[111.40622347543308,-2.9087069270829602],[111.40732038123065,-2.907794357123862],[111.40857687082598,-2.9068516571782084],[111.4095840926318,-2.9061997377276612],[111.41022230821301,-2.905718357616081],[111.41081066268202,-2.9052770926636526],[111.41102001136449,-2.9048949770215131],[111.41154389883195,-2.9043148360607915],[111.41169063041832,-2.9040359850725963],[111.41181575669185,-2.9037981899344913],[111.41209857728757,-2.9034525193182503],[111.41235123192388,-2.9036895203550444],[111.42330355801283,-2.9139632432090821],[111.42337494170027,-2.9141202873213388],[111.42347487886263,-2.9143344392829249],[111.42347487886263,-2.9144772057583737],[111.42367475408668,-2.9148198492566166],[111.42371758429914,-2.9149768933688733],[111.42378896798652,-2.9151482142186751],[111.42394601299816,-2.9152909815935004],[111.42406744575607,-2.9153535105560309],[111.42408878037298,-2.9155336870300061],[111.42392228438598,-2.9156246660454599],[111.42385490268168,-2.915791521761264],[111.42390318188637,-2.915904883103849],[111.42398884321062,-2.9160333737411861],[111.42401739578622,-2.916204694590931],[111.42410305711047,-2.91660444503907],[111.42416016406037,-2.9167614891513836],[111.42424582538462,-2.9168614263137442],[111.42433148491017,-2.9168757030512324],[111.42445997644683,-2.9169613643754246],[111.4244885299218,-2.9170613006384656],[111.4245456368717,-2.9172040689126106],[111.4247169577215,-2.9173182828124595],[111.42481689488386,-2.9173325604492675],[111.42503104684539,-2.9174182199748202],[111.4252737522819,-2.9176038175621102],[111.42528802901938,-2.9177465858361984],[111.42532629607177,-2.9179410732219253],[111.42557669161107,-2.9180695971341493],[111.42581626920554,-2.918103505172553],[111.42603042026775,-2.918103505172553],[111.42610180395513,-2.9181320586475294],[111.42631595591672,-2.9182177190724019],[111.42672998220297,-2.9183747640840352],[111.42752948130061,-2.9187459592585583],[111.42842493536256,-2.9191710561992181],[111.42875598120361,-2.9192901273374332],[111.42990289380356,-2.9195555217698939],[111.43091416525658,-2.9198232112721598],[111.43168748958601,-2.9199719267629689],[111.43237158498073,-2.9199719267629689],[111.43308542275412,-2.9201206440524174],[111.43400746437305,-2.920299102821275],[111.43460232993363,-2.9202693604426031],[111.43498899164871,-2.9201801297091947],[111.43534591098506,-2.9201503873304659],[111.43570283032142,-2.9202098729871864],[111.43611923621387,-2.920299102821275],[111.4364761546509,-2.920299102821275],[111.43704127693343,-2.920299102821275],[111.43739819626978,-2.920299102821275],[111.43787408781895,-2.920299102821275],[111.43936125172047,-2.9203883326553637],[111.44049149628557,-2.9204775633887721],[111.44215711805663,-2.9206560221576296],[111.44284121255197,-2.9207452519917183],[111.44388222818236,-2.920893968381904],[111.44498272767083,-2.9210129405946645],[111.44626168862607,-2.9212508868189389],[111.4470052696775,-2.9213996041083874],[111.44837345956756,-2.921578062877245],[111.44953344741072,-2.9219349831129193],[111.451109840247,-2.9224703612181315],[111.45262674742651,-2.9229759969446718],[111.45405442297329,-2.9236006048839727],[111.45577953309902,-2.9243144435566819],[111.45702874987694,-2.9249390523953025],[111.45786156076247,-2.9254744313998344],[111.45976512965706,-2.926664160722396],[111.46086563004485,-2.9274672292291939],[111.46193638805391,-2.9283297842920888],[111.46327483466592,-2.9294600279578731],[111.46476199766812,-2.930738988013843],[111.46580301239919,-2.9316610287334584],[111.46660786606026,-2.9322512546916073],[111.46836840317934,-2.9302025810841883],[111.46969222141894,-2.9286621026738544],[111.47016269904941,-2.9281146250898473],[111.47241826619012,-2.9254899042356328],[111.47242170789559,-2.9254858986552676],[111.47260753570924,-2.9252696548706467],[111.47462602537081,-2.9229207866649176],[111.49988192201317,-2.8935300932391783],[111.50437259581872,-2.8883039044015959],[111.50564974194208,-2.8868175786682855],[111.52421995798471,-2.8652057988085176],[111.5242199885617,-2.8652057628356147],[111.52422002543386,-2.8652057205675305],[111.52780015365425,-2.8610390212338075],[111.52874949059657,-2.8599341438456349],[111.52890624692583,-2.8599326887425605],[111.52924612410942,-2.8599295348201395],[111.52952863174102,-2.8599269132963627],[111.52968818316316,-2.8599254321129592],[111.53154232441881,-2.8599082199883128],[111.53454085117937,-2.8598803823737171],[111.53763167805954,-2.8598516769133084],[111.53951378373421,-2.8606711031887926],[111.54024313571222,-2.8609886448100497],[111.54294194361586,-2.8621636333449487],[111.5443310508374,-2.8627684049378672],[111.54792382082775,-2.8643325795848114],[111.54921007798276,-2.8648925739331048],[111.54918678464247,-2.8649972981867222],[111.54883542581433,-2.8665770059240572],[111.54868501690009,-2.8672532439420024],[111.54972853714236,-2.8677732211571652],[111.55136935381267,-2.8685908263055353],[111.55137291243005,-2.8685925988692702],[111.5645958576128,-2.8751813298544562],[111.56515620899194,-2.8757022585523373],[111.56633145743086,-2.87679482512101],[111.56869352318762,-2.87899071504944],[111.57220885525453,-2.8822587416475471],[111.57889204203417,-2.8914120863986454],[111.58339214433204,-2.8923145920447269],[111.58536892613512,-2.8927110365850126],[111.58783798513497,-2.892709754151781],[111.5897395737224,-2.8911622952036851],[111.59443367777209,-2.8889622252264644],[111.59860276570515,-2.889041417727185],[111.59908824582595,-2.888593498690966],[111.59787300273695,-2.8867628009624582],[111.59730330290517,-2.8809435056382426],[111.59952771033562,-2.8775645242833434],[111.59960600531298,-2.8724774236940789],[111.60065694586143,-2.8697502062070157],[111.59926351290085,-2.8668223283876841],[111.59846888093415,-2.8651526560701654],[111.60049040041173,-2.8608377673490395],[111.60048389831331,-2.8608283793262217],[111.5998423111738,-2.8599020893099123],[111.6002481590254,-2.8591261308661728],[111.601408268277,-2.8591255211258613],[111.61113594526773,-2.8591203581179911],[111.61663350543199,-2.8620318332024794],[111.61704696604471,-2.8622507992349711],[111.62750458856596,-2.8621366959517331],[111.62882512967604,-2.8621222807186086],[111.63570139370444,-2.8539792298575435],[111.64310603101859,-2.8499868712970056],[111.64755528384933,-2.8447345670466007],[111.64904566102848,-2.8435815228689307],[111.65384573219484,-2.8398679028813376],[111.65534558642975,-2.8390719740922918],[111.65804032490115,-2.8373706591285668],[111.65930143970974,-2.8366092310311615],[111.6600033812511,-2.8363593876755431],[111.65994984281105,-2.8357526249836269],[111.65984871584561,-2.835056633356885],[111.65977138314287,-2.8347710977079714],[111.65965241003079,-2.8343784869775277],[111.6595512830653,-2.8341940791933666],[111.65942289315205,-2.8339560115606446],[111.6590694416015,-2.8334029078179128],[111.658926675126,-2.8328913239753888],[111.6592657483157,-2.8317253880161957],[111.65929549069438,-2.8313506234324564],[111.6598249206836,-2.8303512491108336],[111.65989630527031,-2.8301073538712558],[111.66026512173806,-2.8298932028089894],[111.66061609205906,-2.8297682806815487],[111.66063393820576,-2.8295362843719545],[111.6610622412295,-2.8287689072591888],[111.66194035366448,-2.8285136068174666],[111.66294704217233,-2.8283917208012213],[111.66402493810045,-2.8283131991947243],[111.6644889334176,-2.8282203999514763],[111.66465311634829,-2.8281347386272273],[111.66481729927898,-2.8281204627890588],[111.66501717270444,-2.8280348023641864],[111.66517421771601,-2.8279634177774824],[111.66574528901396,-2.8277421278968404],[111.66637346636242,-2.827435177591326],[111.6664091577565,-2.8272852722974449],[111.6663877430999,-2.8271353661041871],[111.66627352920005,-2.826971183173498],[111.66627352920005,-2.8267070630804483],[111.66623069898765,-2.8264001118756141],[111.66899514211218,-2.8248219536701527],[111.66531476376542,-2.8153667883465801],[111.66421231724473,-2.8125345183532886],[111.66425067332995,-2.8087904644083324],[111.66466088379281,-2.8071365787900504],[111.66663299541648,-2.7989406702756696],[111.66517442635876,-2.7961741748982263],[111.66480875482023,-2.7936512303199947],[111.66525166013605,-2.789581377178763],[111.66613809219928,-2.7860394305752152],[111.66638234087242,-2.7850634763982498],[111.66691138505246,-2.7825384184132531],[111.66759325012845,-2.7792839571888521],[111.66921019789237,-2.7758645737910115],[111.67066625874094,-2.7742359051628682],[111.67353852158556,-2.7720773802668646],[111.67924214880617,-2.7670685099037655],[111.67863415314372,-2.7654410220854402],[111.67932160930491,-2.7644639248701992],[111.67940299705072,-2.7627243473506837],[111.67946677337295,-2.7613612152478595],[111.67948155013352,-2.7610453769425476],[111.67834785217173,-2.7601507160826486],[111.67834739081951,-2.7593367972553438],[111.67664707770052,-2.7584017649294879],[111.67686825426659,-2.7577199574100746],[111.67696942080221,-2.7558784327434296],[111.67645776681258,-2.7553234071494899],[111.67595702699526,-2.754780221130261],[111.67510695632103,-2.7544551368949897],[111.67316526696357,-2.7560840789170697],[111.67066088079508,-2.7543292246139686],[111.66984589357321,-2.7537581551147241],[111.66968339777065,-2.7536442919504793],[111.66822449596378,-2.7501452582969819],[111.6662796526839,-2.7483805726052992],[111.6648519762378,-2.7473455068895873],[111.66160401171584,-2.7448827647277767],[111.65996218420747,-2.742955401570498],[111.6586772751362,-2.7402785083464209],[111.65743983408112,-2.7372649071497221],[111.66225439062771,-2.7339610389707332],[111.66266788181736,-2.7336772911739899],[111.66473612916911,-2.7322579964093734],[111.66473618222909,-2.7322579604364705],[111.66825877272424,-2.7298406331386786],[111.66892237077087,-2.729385247930793],[111.66917189576645,-2.7292140143152892],[111.66997157832571,-2.7286652417075175],[111.67062636571427,-2.7282159017424306],[111.6712811746865,-2.7277665455895317],[111.6834432373156,-2.7275751248920415],[111.69329938335994,-2.7274199972350175],[111.69339533382765,-2.72346968557747],[111.6935162692605,-2.718490741954156],[111.69361570010454,-2.7143971521068124],[111.7021415563878,-2.7149348162886895],[111.70283098116494,-2.7011182466097239],[111.70309877318988,-2.695751488340477],[111.70343167523168,-2.6869838637143175],[111.7034974417536,-2.6852517505677724],[111.70365875674628,-2.6842749591220354],[111.7036967602973,-2.679961187358856],[111.70364747025462,-2.6799046038143501],[111.70355821703816,-2.6798021458523067],[111.70344458320102,-2.6796716991894982],[111.70633220107027,-2.6797238122041449],[111.70673392103367,-2.6798333820049152],[111.70939712657616,-2.6805597770120357],[111.71153871274146,-2.679601118596679],[111.71222321193176,-2.6799597511415527],[111.71398015895721,-2.6787292258730417],[111.71400623120269,-2.6787109660381816],[111.71896825138373,-2.6750913602780315],[111.71703689613594,-2.6638858489527024],[111.71610766713519,-2.6609826692147749],[111.71586920739804,-2.6602049094289555],[111.71576107561322,-2.6592348440128148],[111.71575531725415,-2.6591831752633084],[111.71546550802685,-2.6565832388253625],[111.71518488897152,-2.6540657432394141],[111.7151171691221,-2.6534582107278197],[111.71511474365059,-2.6534364561275083],[111.71494213227362,-2.6518879161943119],[111.71458869421292,-2.6487057289861582],[111.71440383317042,-2.6470413204005467],[111.71403750602616,-2.6438159540430206],[111.71381760290012,-2.6418797964154237],[111.71380728767622,-2.6417889720833614],[111.71380580199622,-2.6417758869475847],[111.71392236942188,-2.6391878854125252],[111.71395269456127,-2.638514609761387],[111.71397348328969,-2.6350714150137264],[111.7140070675722,-2.6295088986167343],[111.71405394203583,-2.6259521329844802],[111.71409263266895,-2.623016381600678],[111.71339752507578,-2.6229337204148351],[111.70797470217082,-2.6222888426559052],[111.70737213481624,-2.6222171855745842],[111.70761446433613,-2.6214415418936028],[111.70742292133082,-2.6212543534056181],[111.70445680433812,-2.6183556630833209],[111.70121344704302,-2.615212375150918],[111.70000757488975,-2.6136400013849084],[111.70129209905122,-2.6123946382019199],[111.70155387641034,-2.6123466198006327],[111.70207744102117,-2.6122745202528677],[111.70241027291581,-2.6116041413180255],[111.70200534956729,-2.6110299178963601],[111.70309958797566,-2.6100000799397094],[111.70278972026944,-2.6091625143384931],[111.70295620186727,-2.6089470017027452],[111.70321745941828,-2.6079655023060582],[111.70302683192284,-2.6075587065690229],[111.70333607370088,-2.6072713084241173],[111.70471584416094,-2.6061216331068522],[111.70581042341234,-2.6057141143148783],[111.70342944221505,-2.6039681668973458],[111.70342924256556,-2.6036091359528086],[111.70319101575285,-2.6032023671954221],[111.70295231319875,-2.601933922912167],[111.70249891998924,-2.5997799881558876],[111.70221024031042,-2.5942031932227678],[111.70149271171931,-2.5877888938423439],[111.70128220560935,-2.5842383182437629],[111.70115640124698,-2.5821163813658359],[111.70567758904957,-2.5807495458548146],[111.71010404766372,-2.5791587701610865],[111.7101506721159,-2.578497116448716],[111.70934285159137,-2.5757071910339846],[111.70852920525869,-2.5728971378925394],[111.70781503473614,-2.5725624408039494],[111.70664793865149,-2.5708876108744789],[111.70643334872011,-2.57016966769595],[111.70595634830687,-2.5683269046628538],[111.70488428538152,-2.5663408589434198],[111.71245011268263,-2.5620522088423172],[111.70906914202732,-2.5593733281165783],[111.70830118665049,-2.5558751434230658],[111.70820801238995,-2.5554507137793507],[111.70639601876132,-2.547196732443183],[111.70611269814259,-2.5459061531464044],[111.7054256421797,-2.5427764791511436],[111.70542356834306,-2.5427670290750939],[111.70542309170236,-2.5427669490354106],[111.6954274841911,-2.5431696438639051],[111.69408224410034,-2.5432238397083893],[111.69381666620626,-2.5432345389427837],[111.69424016235365,-2.5417181488734286],[111.69422614372161,-2.5406552482410802],[111.69463505106683,-2.5366569883292982],[111.69482862294268,-2.5366139719571947],[111.69498090874202,-2.5364902396328262],[111.69512367701617,-2.5362713293583283],[111.69531403381569,-2.5360143471843344],[111.69557697040091,-2.5358287459997655],[111.69563763956546,-2.5357859193846366],[111.69576137188989,-2.5355574906856191],[111.69590414016398,-2.5353100269361448],[111.69594221116415,-2.5350530447621509],[111.69637051418795,-2.534624741738412],[111.69636076913423,-2.5344817747140951],[111.69642762113784,-2.5344058323632339],[111.69644665708762,-2.5342630640890889],[111.69666556736212,-2.5341012607645439],[111.69670363926161,-2.5339013864397657],[111.69669412083709,-2.5337110287409246],[111.69668460331184,-2.533511155315523],[111.69695110301103,-2.5331304408171604],[111.69720808428571,-2.5329020130174627],[111.69727470876086,-2.5326735843183883],[111.69736037008505,-2.5325022625693236],[111.69729374471063,-2.5324070846191944],[111.69718904923531,-2.5325022625693236],[111.69717953081079,-2.5324261196696511],[111.69730326313515,-2.5321501033445202],[111.69732229908487,-2.531959745645679],[111.69735085166053,-2.5316932459464851],[111.69723663776068,-2.5315409610464599],[111.69713194228535,-2.5314172287220913],[111.69711290633563,-2.5312839788724659],[111.69709387038586,-2.5311602474474171],[111.69697965558669,-2.5311031395981445],[111.69692254863679,-2.5309794081730956],[111.69688447763662,-2.5308556758487271],[111.69677026373677,-2.5308080873233507],[111.6967546308216,-2.530764314621365],[111.69672267431201,-2.5306748365744056],[111.69672862062941,-2.5304728011788029],[111.69673635659763,-2.5302100075857084],[111.69668323004709,-2.5300364303369633],[111.69673219183727,-2.5299419628512396],[111.69674859097478,-2.5297943751102707],[111.69675230787277,-2.5296681048990877],[111.69668460331184,-2.5295326957772204],[111.69668460331184,-2.5294184818773715],[111.69676004743832,-2.529405168313815],[111.69677638542191,-2.5288501346259409],[111.69677026373677,-2.5288378930542876],[111.69667508488732,-2.5287236791544387],[111.69665604983692,-2.5284762154049645],[111.69660274971721,-2.5282439798756968],[111.69679310561742,-2.5282820508758732],[111.69682199633814,-2.5247300732342524],[111.69700640412231,-2.5208262700163004],[111.69715345496803,-2.5171856938646329],[111.69716282140712,-2.5161505840821405],[111.69721056191798,-2.5157151872060695],[111.69730336116123,-2.513302414075099],[111.69739616040454,-2.5110252703998412],[111.69746754409192,-2.5095476240235826],[111.69754606569842,-2.5059427410645867],[111.69761745028518,-2.5040724848572609],[111.69771738744754,-2.5021094294065733],[111.69777449439744,-2.5001106816625907],[111.69788157037823,-2.4980762434238386],[111.69787443155985,-2.4957990988492611],[111.6978220982113,-2.4941385537512133],[111.69782153703437,-2.4941207696577408],[111.69775664915011,-2.4909555076905008],[111.697673367432,-2.4867914505649651],[111.69754190183738,-2.4832597364476214],[111.69757335472661,-2.4832073140662487],[111.6974646123021,-2.4827956377084774],[111.69750012293241,-2.4802202167895189],[111.69753008564498,-2.4780129072698287],[111.69757579278865,-2.4746457609930417],[111.69764337144449,-2.4712179968130386],[111.69773369935081,-2.466636291831378],[111.69776153426744,-2.465391586952137],[111.69783429571623,-2.4621378487826746],[111.69794252282924,-2.4572982110435646],[111.69790069086423,-2.450083355862148],[111.69785492526466,-2.4421899657942276],[111.69774779622389,-2.4407208890577294],[111.69770575291824,-2.4376770742375129],[111.6976665577655,-2.434839401117415],[111.69966871843667,-2.4349022871107877],[111.69970424525479,-2.4334475509636491],[111.69981663622883,-2.4288454286735259],[111.70069109921491,-2.4287104620181594],[111.70176185722397,-2.4287342571801673],[111.70288020375847,-2.4290673813545141],[111.70426029077987,-2.4291149698798904],[111.70680631376041,-2.4283297484191166],[111.70744391870193,-2.4283460971946056],[111.70745965593841,-2.4283465000908677],[111.70773430439471,-2.4283535417824851],[111.7077972317569,-2.4283647797107619],[111.7084005527434,-2.4284725148946222],[111.70887644519183,-2.4282107753069795],[111.70933021611665,-2.4282251797482104],[111.71037550622469,-2.4282583638323558],[111.71230287028129,-2.4294005064281805],[111.71611000717115,-2.4295194786409979],[111.71674134563665,-2.4295227971393274],[111.73086515070622,-2.4295970235837103],[111.73972923391705,-2.42964360936503],[111.74047876488316,-2.4296578861025182],[111.74569585168229,-2.4296652218724262],[111.74586717343135,-2.4300649723205652],[111.74588620938113,-2.430826398619331],[111.74767945664166,-2.4307778577119166],[111.75389451571937,-2.4308725041626644],[111.75426088782979,-2.4308780835566495],[111.75705453373979,-2.4309206268853814],[111.75706116713923,-2.4289709830243851],[111.75710446409983,-2.416245653414137],[111.7571283276103,-2.4092320503187921],[111.7571520930947,-2.4056491638777402],[111.75958238591846,-2.4056298401449681],[111.75980519115672,-2.4056372658470764],[111.76064990007291,-2.4057681369898773],[111.76105440793464,-2.4059703909207428],[111.76153030038313,-2.4058990072333586],[111.7648064379668,-2.4059474231350464],[111.77395861719651,-2.406064567925398],[111.78184773278667,-2.4061623521108118],[111.78495216191283,-2.4062008314032255],[111.7931494050211,-2.4063768386201332],[111.79402578805974,-2.4063956569339666],[111.79940359270171,-2.4065111271867181],[111.7687961857954,-2.3215973311518496],[111.75829514220709,-2.2937924158872534],[111.76199549989246,-2.2938739043571559],[111.7961063039628,-2.2946250747873478],[111.79612355925491,-2.2933043070480608],[111.82304567571742,-2.2922670272014898],[111.82304036072412,-2.2918972601503924],[111.82304864977544,-2.2910891122726866],[111.82311174531088,-2.2849373357893796],[111.82360429410295,-2.2849194896426752],[111.82381490183633,-2.2719578613661611],[111.82385059592832,-2.2706631793622023],[111.8239449402069,-2.2672412050175694],[111.82412503214459,-2.2607090000203129],[111.82427341038965,-2.2556946294035924],[111.82427718934088,-2.2555669265723282],[111.82423722976438,-2.2538966732927861],[111.82443279183991,-2.2508412958890744],[111.8242126917624,-2.2503455751880779],[111.82426028118709,-2.2455866534012898],[111.81528446620518,-2.245537430807758],[111.81301837429862,-2.2455164478257643],[111.81012790737708,-2.2454896840016545],[111.80633818136204,-2.2454545933547365],[111.80641628028718,-2.2394428790855727],[111.80647730108666,-2.2347456615829628],[111.80428340585456,-2.2299667073975797],[111.80317253808221,-2.2275469069641645],[111.80078776804112,-2.2223521701164941],[111.79915728637974,-2.2188004973450006],[111.79901451900491,-2.2150528461119166],[111.79907158998196,-2.2126653484270378],[111.79915149924238,-2.2091256887994746],[111.79916965025922,-2.206362504725746],[111.79919378806295,-2.2026877471417947],[111.79930319868373,-2.2020882069051595],[111.79967223188805,-2.2017168363628343],[111.79927674062913,-2.2010270275752077],[111.79929385562701,-2.2006625791146917],[111.79954989711013,-2.1952105210486366],[111.7943273514262,-2.1950183736989288],[111.79375353000148,-2.1949972621139295],[111.7930905452925,-2.1851815513874158],[111.79279837984143,-2.1808559661299114],[111.79246343543923,-2.1758969973485023],[111.7921231157892,-2.1758098395524144],[111.79188409037852,-2.1755989026671614],[111.79172025728411,-2.1752991613271888],[111.79155798541274,-2.1750022744353714],[111.79139863184145,-2.174856795604569],[111.79128813214163,-2.1747007452431717],[111.7911524208476,-2.1745090898226067],[111.79096468826981,-2.1743919108579348],[111.79073134927239,-2.1743614409277257],[111.79030013694182,-2.1742239939421211],[111.78997042929194,-2.1741986726306095],[111.78954424327225,-2.1739745408922886],[111.78916937436719,-2.1739309210751117],[111.78843132864296,-2.1738776560289352],[111.78790883512471,-2.1737759499001186],[111.78745175019816,-2.1738937520949548],[111.78700723509587,-2.1740018011421398],[111.7865699325564,-2.1741029892614847],[111.78630589610026,-2.1741220872644931],[111.78607287096628,-2.1741389423582405],[111.78588516626746,-2.1740778523109725],[111.78570997563492,-2.1738904785626687],[111.78547196196155,-2.173635911068402],[111.78526093514409,-2.173410209113797],[111.78496452219503,-2.1731412830437193],[111.78459216329776,-2.1728034518177992],[111.78443989908214,-2.1727197321299059],[111.78415234175725,-2.1725922730149136],[111.7839928982537,-2.1723425123969946],[111.78385261390707,-2.1721760218059103],[111.78248882889642,-2.1720998573225074],[111.78158397691908,-2.1722220491082567],[111.78121080863195,-2.1721150306840968],[111.78082087338464,-2.1718975215533192],[111.78068000357933,-2.1717016546076024],[111.78067990915054,-2.1715165993115875],[111.78082044260941,-2.1710593318226756],[111.78082024835584,-2.1706783376351382],[111.78051666691073,-2.169927389337488],[111.78015910096178,-2.1694812662473737],[111.77976896426634,-2.1689826452328589],[111.77959445531991,-2.1689369776593708],[111.77919235494329,-2.1688914269977317],[111.77895134472885,-2.1686560933040369],[111.77856256690899,-2.1681839258474724],[111.77820553785534,-2.1677403469394108],[111.7781521999641,-2.1672827889694872],[111.77829622369183,-2.1670539223006244],[111.778516169086,-2.1669394107251492],[111.77858032402281,-2.1668033927623469],[111.77865983668215,-2.1663865920675107],[111.77875913172863,-2.1660035402311451],[111.77894124174497,-2.1658200812317432],[111.77934361281751,-2.1655515436687551],[111.77981331073579,-2.1654072231647774],[111.78013587507064,-2.1650319162898768],[111.78026912492027,-2.1647844516410828],[111.78033581684451,-2.1646802462962569],[111.78057369561964,-2.1643085600919107],[111.78021201797031,-2.1637755606935229],[111.78007876812069,-2.1633377401445273],[111.78028753584118,-2.1627592692248641],[111.78066887356971,-2.1613389932998643],[111.7796976633166,-2.1607375042323724],[111.77731859317862,-2.1592641026561523],[111.77686173667985,-2.1591498887563034],[111.77634777323124,-2.1591879597564798],[111.77596705873282,-2.1589785670072388],[111.77551020313342,-2.1589214600572859],[111.77532811560013,-2.1589287436665359],[111.77402541883805,-2.158959531956782],[111.77353049133916,-2.1594925313551698],[111.77303556294095,-2.1596638522049716],[111.77248352759278,-2.1596448162551951],[111.77137945779577,-2.1593402446565051],[111.77117006594585,-2.158959531956782],[111.77092260219638,-2.1586168893579156],[111.77050381669784,-2.1584646035585706],[111.76979949644965,-2.1583694247091216],[111.76943781790106,-2.1581600328592003],[111.76869542575338,-2.1577222123102047],[111.7682766411541,-2.15785546215983],[111.76778171275589,-2.1579316050595025],[111.76713450035697,-2.1577412482599243],[111.76647771557418,-2.1577311425781431],[111.76589717981108,-2.1577222123102047],[111.76530707436206,-2.1580458189593514],[111.76494539581341,-2.1584455676087941],[111.76483148408579,-2.1578987905966756],[111.76475503901389,-2.1575318546113635],[111.76483118191356,-2.1565419987142036],[111.76504057376354,-2.1556473216664926],[111.76494539581341,-2.1546955376688857],[111.76481214596384,-2.1538770026215275],[111.76483118191356,-2.1534201461228122],[111.76485021696402,-2.1526206479244934],[111.76494539581341,-2.1518592198270881],[111.76490732481324,-2.1512310415792513],[111.76482389560636,-2.1507096119589733],[111.76475503901389,-2.1502792575816443],[111.76456468221437,-2.1496320451826705],[111.76456468221437,-2.1492703657347647],[111.76462178916432,-2.1487183312859202],[111.76477407496367,-2.1483947246367734],[111.76479319005375,-2.1483214505744286],[111.76488828886352,-2.1479569040877777],[111.76492635986369,-2.1471383690404764],[111.76481214596384,-2.1466434406422081],[111.76479311001407,-2.1461675490930929],[111.76549743116158,-2.1455774427447523],[111.76561592763301,-2.1452371797519731],[111.76556833910763,-2.1448088767282343],[111.76553264681428,-2.1443091900170543],[111.76567541508842,-2.1435239676569608],[111.76568731221977,-2.1430004866830927],[111.76553264681428,-2.1423342383343993],[111.76586577098863,-2.1417988593298674],[111.76610371811216,-2.1413943505687598],[111.76632976630572,-2.1407994850081877],[111.76649632884255,-2.1402641069029755],[111.76661530195469,-2.140002366416013],[111.76672237703616,-2.1395740633922742],[111.76656771163067,-2.1391814517625676],[111.76637735573047,-2.1387531487387719],[111.76599664213137,-2.1384200236651054],[111.76555644197629,-2.1380393100660626],[111.76546126312684,-2.1373016780299849],[111.76554454394562,-2.1370518337750468],[111.76587766901929,-2.1368138875508293],[111.76618699893089,-2.136623530751308],[111.76627647607859,-2.1363930210210356],[111.76621699042181,-2.136006359306009],[111.76591955674223,-2.1357386689044233],[111.76559238068387,-2.1352330340772028],[111.76577084125137,-2.134638167617311],[111.76606827313236,-2.1342515059022276],[111.76627647607859,-2.1336863836196471],[111.76651442230281,-2.1330022891243061],[111.7661277596884,-2.1325858832318545],[111.76586007108546,-2.1323776802856855],[111.76544366519306,-2.1317233290683362],[111.76502725930061,-2.1314556386667505],[111.76472982741967,-2.1309500038395299],[111.76446213701809,-2.1304443681130465],[111.76294523073784,-2.1298792458304661],[111.76193396018419,-2.129462840837391],[111.760446797182,-2.1286597732299128],[111.75904886401395,-2.1274105555526717],[111.75785913289275,-2.1266074879451935],[111.75717503839735,-2.1259233916511562],[111.75651077665106,-2.1253568169634605],[111.75591246398909,-2.1248873186947321],[111.7549145501664,-2.1241982833240627],[111.75399250944679,-2.1239008514430679],[111.753159697662,-2.1237521341536194],[111.75137510187949,-2.1235439312073936],[111.74664592337075,-2.1222054845953835],[111.74523520004453,-2.1212731817118993],[111.74521878381989,-2.1212420193036792],[111.74519107211034,-2.1214681718186057],[111.74516208696082,-2.1218311193106842],[111.74499559097382,-2.1219269411753316],[111.74473392333198,-2.1220108416270023],[111.74443656159809,-2.1220827918872942],[111.74407969172444,-2.1220949318355906],[111.74369119089579,-2.1219780298621345],[111.74302243523726,-2.1217767993597363],[111.74236932688297,-2.12165951067783],[111.74165709619808,-2.12130704388494],[111.74052883373872,-2.1206471969105678],[111.73963527544765,-2.1199056564208831],[111.73888893437686,-2.1192862879318],[111.73848063677201,-2.1189474530624466],[111.73758977015183,-2.1187669501346136],[111.73735723424903,-2.1186711579475173],[111.73658077218494,-2.1183512969747085],[111.73604649934651,-2.1175735578733565],[111.73600593002971,-2.1175253317286433],[111.73586834274988,-2.1175736433089583],[111.73503719111352,-2.1176916442539095],[111.73461048708435,-2.117629918386001],[111.73379057607428,-2.1175113085999442],[111.73295978866338,-2.1172131716505191],[111.73224685920525,-2.1165621659112048],[111.73177156930257,-2.1157210731689702],[111.73105903284812,-2.1147082081172357],[111.7290024685891,-2.11404008738009],[111.72886238029469,-2.1139945762886327],[111.7288011931206,-2.1139803562084012],[111.72884051417844,-2.1142554147555188],[111.72889245812053,-2.114618766942499],[111.72866517425842,-2.1150230580676066],[111.72803273862007,-2.1161480254110074],[111.72796709710389,-2.1162609487836903],[111.72796390900726,-2.116255415255182]]]]},"properties":{"OBJECTID":483,"nama_kawasan":"Kawasan Transmigrasi Arut Selatan dan Kotawaringin Lama","delineasi_asal":"Arut Selatan","Shape_Length":3.1430449608349189,"Shape_Area":0.25755848851776447}}]}