{"type":"FeatureCollection","features":[{"type":"Feature","id":482,"geometry":{"type":"Polygon","coordinates":[[[111.04487337630536,-2.846599781654561],[111.04203606381333,-2.8424951328440784],[111.03471317397384,-2.8319013538643389],[111.02802624331656,-2.8222275948276092],[111.02470285805055,-2.8174197634112943],[111.0138460804323,-2.8017136236847477],[111.0130432430513,-2.8005521879330786],[111.01131547542889,-2.7980526823853324],[111.01125927679425,-2.7979713818737082],[111.01072222235274,-2.7971944440682819],[111.01027874326945,-2.7966796541426788],[111.01023813977838,-2.7966325215735424],[111.01022062907884,-2.7966121959959764],[111.01022039795305,-2.7966119531790241],[111.01002014861103,-2.7968014736090936],[111.00939261157981,-2.7973953930828657],[111.00929940224569,-2.7975107958864669],[111.00897646739014,-2.7979106200789943],[111.00881069805536,-2.7981158579604539],[111.00859311338155,-2.7983852489800256],[111.00785072213318,-2.7993941408269052],[111.00688106231127,-2.8010044677819224],[111.00678472333635,-2.8011644598718703],[111.00633738436284,-2.8020377222630373],[111.00625467821089,-2.8022181712315728],[111.00618034025058,-2.8023803639625839],[111.00605898843162,-2.8027158677430748],[111.00601155189167,-2.8028360387521616],[111.00595191155156,-2.8029871266545001],[111.00585197438915,-2.8032940769600145],[111.00568779235778,-2.8037009653272662],[111.00558071637704,-2.8040578837643011],[111.00545936275944,-2.8044362186565195],[111.00522570000612,-2.8051538641594789],[111.00475932598215,-2.8067147895558264],[111.00383133624723,-2.8099841696336512],[111.00368856797309,-2.8105124098198075],[111.00353152386077,-2.8109835430560111],[111.00336020301103,-2.8116402747788243],[111.00294617672472,-2.8134534240362541],[111.0024179356393,-2.815851921329056],[111.00188969635246,-2.8182218642475618],[111.00153991493517,-2.8198018255937427],[111.00124248305423,-2.8211938106458092],[111.00113540707343,-2.821669703094301],[111.00086176855581,-2.8223716437363464],[111.00035018471334,-2.8234780931394425],[110.99988619029551,-2.8245726454111946],[110.99931511899763,-2.8255244303081781],[110.99866076688096,-2.8264524191437772],[110.9977327780453,-2.8276302531336341],[110.99674530085503,-2.8287723939307625],[110.99597310337606,-2.8296325648909146],[110.99581312837324,-2.8298107646550079],[110.99580541398871,-2.8298193567778185],[110.99569996578083,-2.8299420602778014],[110.99515106187209,-2.8305807839759609],[110.99443722409865,-2.8312470332239741],[110.99390184509411,-2.8316991314097208],[110.99327128813951,-2.8322583037776781],[110.99275375528163,-2.8326806586853763],[110.99214104357435,-2.8332041396592444],[110.99163540874719,-2.8336443398143842],[110.99122495187009,-2.8339953110347551],[110.99092460798431,-2.834241953703156],[110.98985241105999,-2.8349519846463522],[110.98927017827617,-2.835307245632805],[110.9890283397861,-2.8354548081928215],[110.98872930531326,-2.835637269844085],[110.98835849055195,-2.8358286096026291],[110.98813329131838,-2.8359448128028362],[110.98634984397017,-2.8368650719654624],[110.98461759682471,-2.8377311964375167],[110.98250463518082,-2.8386924979603805],[110.98116023955345,-2.8393230549149848],[110.98037694444048,-2.8396580173036341],[110.98007520480689,-2.8397870502321325],[110.9792114608403,-2.8401796609625194],[110.9785118998044,-2.8405080268239544],[110.97780519995007,-2.8408435306043884],[110.97743400387623,-2.8409934367976462],[110.97720557517721,-2.841143342990847],[110.97699856203405,-2.8413003871031606],[110.9768650972465,-2.8413963150878203],[110.97677013423436,-2.8414645700338497],[110.97625617078569,-2.8419000118760209],[110.97579217636792,-2.8423568683747362],[110.97552091655712,-2.842606710830978],[110.97534959570731,-2.8428351404293153],[110.97527418665447,-2.8429585373066288],[110.97519255069574,-2.8430921217039895],[110.97494984615855,-2.8435846695967939],[110.97483749385532,-2.8439180320914375],[110.97477998670706,-2.8440886622619246],[110.9745929268222,-2.8447625026872743],[110.97425042361823,-2.8457138711981429],[110.9742456733992,-2.8457284114369941],[110.97409839232699,-2.8461791759281709],[110.9739361959987,-2.8466755900064413],[110.9736363836123,-2.8476249952972239],[110.97344364810596,-2.8483174184140694],[110.97320808058851,-2.8490098406315951],[110.97302924320508,-2.8496810208623629],[110.97300963438715,-2.8497546123854249],[110.97268840734421,-2.850896754081873],[110.97258133136341,-2.8512179811248757],[110.97241476882658,-2.8516938726740477],[110.97212923317761,-2.8524434027407892],[110.97197456777212,-2.8528598086332408],[110.97179610900326,-2.8533475982130199],[110.97164144359783,-2.8536450309933343],[110.97143918966691,-2.8540138483603528],[110.97114175688665,-2.8543350754033554],[110.97049930280065,-2.855025118014737],[110.96992823240208,-2.8556794701314061],[110.96963079872245,-2.8559531077496558],[110.9690359340612,-2.8562624376613144],[110.96809051186767,-2.8566661019589787],[110.96797707408274,-2.856714535847118],[110.96717503170242,-2.8571201660627707],[110.96694200836703,-2.8572380168209861],[110.96600212060144,-2.8577377044314858],[110.96591226843651,-2.8577857291280679],[110.96586229041242,-2.8578124407914629],[110.96583252105404,-2.8578283515971066],[110.96545126066718,-2.8580321289795165],[110.96531207799006,-2.8581065199998648],[110.96494044304706,-2.8582768533940452],[110.96447575705059,-2.8584898353375934],[110.96445547194253,-2.8584991316295714],[110.96443201312695,-2.8585078901269867],[110.96434727630583,-2.8585395246792586],[110.96430578608323,-2.8585550146021887],[110.96356317360164,-2.8588322558039181],[110.96239723764245,-2.859260558827657],[110.96145735077619,-2.8596412733260763],[110.96066023128469,-2.8599268080756701],[110.95974413868112,-2.8602361379873287],[110.95891132779559,-2.8604978793736109],[110.95834025739703,-2.8606882361731323],[110.95773349380573,-2.8608666949419899],[110.95754313700621,-2.8609499757607182],[110.95726949938796,-2.8610451546101672],[110.95678170980813,-2.8612236142783445],[110.95617494711615,-2.8614258691085297],[110.95542541704941,-2.8616757115647715],[110.95474727067005,-2.8618898626270379],[110.95411671371545,-2.8621040145885672],[110.95298647004961,-2.8625442147436502],[110.95224883711421,-2.8627702638365804],[110.95166586868493,-2.8630320052228058],[110.95090444058752,-2.8633294371038005],[110.95034526821962,-2.8634841016099699],[110.94976229979034,-2.863662562177467],[110.94916743512908,-2.8638053295522923],[110.94833462334424,-2.8640194806145018],[110.9475850932775,-2.8642455297073752],[110.9468474603421,-2.8643763999508565],[110.94597895716322,-2.8645905519123858],[110.94520563193441,-2.864757114449219],[110.94447989702968,-2.8649117789553884],[110.94387313433776,-2.8650188549361815],[110.94311587010139,-2.8651873995787582],[110.94224974742798,-2.8653111319031837],[110.94154542628047,-2.8654063098532561],[110.94152066884385,-2.865409220059405],[110.94053933222449,-2.8655245787962258],[110.93944198306116,-2.8656442560775304],[110.93939137641098,-2.8656495144135192],[110.93870910933799,-2.8657203989772029],[110.93797623471551,-2.8658060603013951],[110.93672939664441,-2.8658917198269478],[110.9358252020715,-2.8660249696765732],[110.93511136429811,-2.8661296660512221],[110.93451173862587,-2.8662724343253103],[110.93393115070211,-2.8664247201247122],[110.93341718725344,-2.8665770050247374],[110.93266527758055,-2.8667959152991784],[110.93213227818217,-2.8669767545734999],[110.93169445763317,-2.8671575938478213],[110.93111059707644,-2.8674128897930018],[110.9304919381525,-2.8677103225732594],[110.92986138029852,-2.8679423197821734],[110.92943902629008,-2.868114831334367],[110.92914754162581,-2.8682219073151032],[110.92867165007664,-2.8683170852652324],[110.92828498656291,-2.86833493141188],[110.92798755468198,-2.8683289823965765],[110.92742838141476,-2.868358725674625],[110.9268632600315,-2.8683527766592647],[110.92625649733952,-2.8682813929718805],[110.92584009144713,-2.8681743169910874],[110.92544747981742,-2.8680731900256546],[110.92507271523368,-2.8679780120755254],[110.92461466893189,-2.8678233466700931],[110.92413282836742,-2.8676389388858752],[110.92348442526605,-2.867472376349042],[110.92265691768267,-2.8670940423561433],[110.92198591012169,-2.8668727515761816],[110.92138628624815,-2.8666871539888916],[110.92080807703121,-2.866508695220034],[110.92031552823909,-2.8663230967334812],[110.91979442597204,-2.8661482055752003],[110.9193661229483,-2.8659840244431507],[110.91888785179299,-2.8658769475630379],[110.91848096432511,-2.8658840863814135],[110.91803124574545,-2.8658912251998458],[110.91748159000343,-2.8659340554122537],[110.91696762565545,-2.8659483321497419],[110.91651790797511,-2.8659840244431507],[110.91602536008236,-2.8660696839687034],[110.91543287412787,-2.8661767599494397],[110.91506167805409,-2.8662481436368807],[110.91460482155532,-2.8663123894052092],[110.91404088907581,-2.8663587890268332],[110.91355547910211,-2.866415895976786],[110.91298440870355,-2.8664872796641703],[110.91238478483001,-2.8665729400890427],[110.91172805310725,-2.8666443237764838],[110.91111415159691,-2.866729985100676],[110.91029561834819,-2.8668422951357684],[110.90916299417688,-2.8669850634099134],[110.90849674492887,-2.8670326519352898],[110.90747833555679,-2.8671944552598347],[110.90688823010777,-2.8672991516344837],[110.90603162406029,-2.867441919009309],[110.90530826786232,-2.8676417942333501],[110.90434696544014,-2.8678035966586322],[110.90349987691786,-2.8679749193070165],[110.90284314609437,-2.8681081682573222],[110.90194846904666,-2.8682414181068907],[110.9012917373239,-2.8683556320067396],[110.90057789865114,-2.8684412933309886],[110.89994972130268,-2.8685174362306611],[110.89930250800438,-2.86864116765571],[110.89874095513102,-2.8687077930301825],[110.8981032602573,-2.8688220069300314],[110.89736086810962,-2.8689742918300567],[110.89670413728618,-2.8691170601042018],[110.89590463818854,-2.8692978993785232],[110.89523838894058,-2.8694406667533485],[110.89450135135633,-2.8696171434164057],[110.89395407432113,-2.8698431916099594],[110.89280648003506,-2.8705131586552852],[110.8926773292954,-2.8705931092845276],[110.89232998504082,-2.8708081317898291],[110.89218187209576,-2.8708998212696883],[110.89170597964733,-2.8711972540500028],[110.89075791344703,-2.8717683253478867],[110.89012735559305,-2.8721252437849216],[110.88938972265765,-2.8725654439400614],[110.88859260406548,-2.8730651306511845],[110.88789066342343,-2.8735291259683322],[110.88711733819468,-2.8740407098108562],[110.88654626689674,-2.8744928079966598],[110.88612986100435,-2.8749687004450948],[110.88546361175634,-2.875599257399756],[110.88499961733851,-2.8760275604235517],[110.88444044407129,-2.8766462202468119],[110.88377419482327,-2.8773124685955054],[110.8829056916444,-2.8781095880869998],[110.88237344497855,-2.8785701866647173],[110.88228703182114,-2.8786449670915317],[110.88207962207696,-2.8788375623036018],[110.88162078257312,-2.879263626914792],[110.88100212274981,-2.879810903050668],[110.88051433317003,-2.8802867945998401],[110.8800027493275,-2.8808935581911328],[110.87970531744651,-2.8812147852340786],[110.87934839811015,-2.8815360122770812],[110.87909855385521,-2.8818096498953878],[110.87872973828684,-2.881976212432221],[110.87811107756426,-2.8821784672624062],[110.87754000716563,-2.8824283097186481],[110.87693324537304,-2.8826305636495704],[110.8760766393255,-2.8829636887232368],[110.87491070336631,-2.8833444023222796],[110.8743872205938,-2.8835228619904569],[110.8734592317582,-2.8838083967400507],[110.87307851815916,-2.8839511650141958],[110.87251934399256,-2.8841534189450613],[110.87206724670614,-2.8843437757445827],[110.87154857890386,-2.8845544851013756],[110.87130581860868,-2.8846531056562412],[110.87076381070136,-2.8848879761990815],[110.8698781430619,-2.8852717663788781],[110.86884293615265,-2.8857011458911188],[110.86817777958095,-2.885977038109786],[110.86734496869542,-2.8864053411335249],[110.86639318379844,-2.8867741576012236],[110.86573883168182,-2.8870477961188499],[110.86496550825166,-2.8873571260305084],[110.86383526368655,-2.8878211204482795],[110.86320470583257,-2.888082860935242],[110.86271691715206,-2.8882970128967713],[110.86232430642167,-2.8884754716656289],[110.86168185143634,-2.8887848015772875],[110.86131303496865,-2.8889156718207687],[110.86076575883277,-2.8890108506701608],[110.8602898672836,-2.8890108506701608],[110.85993294794724,-2.8889275698514325],[110.85954033631754,-2.8886420342024621],[110.85946838605724,-2.8885726739896427],[110.85916784701857,-2.8882829519965867],[110.85896396891212,-2.8880864123580068],[110.85894493296234,-2.8874011271602171],[110.85889161395687,-2.8866191099838829],[110.85888782601245,-2.886563557062459],[110.8588307190625,-2.8859353788146223],[110.85867843416247,-2.885535629265803],[110.85837386256378,-2.8852691295666091],[110.85793604201479,-2.8852120226167131],[110.85744111361657,-2.8851739507172169],[110.85704136496707,-2.8851358797170406],[110.85650836466937,-2.8848884159675663],[110.8558040453205,-2.8845267383182431],[110.85521393897216,-2.884279273669506],[110.8546016238659,-2.8841238159612885],[110.85414476736719,-2.8840857440617924],[110.85348803564438,-2.8840405351425602],[110.85273850557763,-2.8841261946681129],[110.85211746704755,-2.8842189939114178],[110.8513322446874,-2.8843474854480746],[110.85057557580222,-2.8844688381662991],[110.84986887594795,-2.8846544357535322],[110.84933349694342,-2.8848114798658457],[110.84891947065711,-2.8849756627965348],[110.84834126233943,-2.8851826759396886],[110.84784157472893,-2.8854039658203305],[110.84734902683618,-2.8856181168825401],[110.84689930915584,-2.8858322688440694],[110.84647814405116,-2.886046419906279],[110.84631902430357,-2.8861525003375732],[110.84602842637082,-2.8863462322927376],[110.84561440008457,-2.8866817360732284],[110.84527889630408,-2.8869744096412546],[110.84502191413009,-2.8872528073711123],[110.8447506552186,-2.8875668955956826],[110.8445079497821,-2.8878238777696765],[110.84422955295156,-2.888202211762632],[110.8440510941827,-2.888551993179874],[110.84377269735216,-2.8889874341227255],[110.84355854539064,-2.8893086611657282],[110.84335867106586,-2.8896370270271063],[110.84308027423532,-2.8901724060316383],[110.84294464388029,-2.8905079098121291],[110.84287992686717,-2.8906373438383071],[110.84278046184892,-2.8908362747741876],[110.84269480142399,-2.8910718422916375],[110.84255203314984,-2.8914787297595126],[110.84235929674423,-2.8920212466831572],[110.8422138862619,-2.8924574817273765],[110.84216656123789,-2.8925994559000969],[110.84204520762029,-2.8929135450240437],[110.8419738239329,-2.8930777279547328],[110.84185961003305,-2.8932419099861022],[110.84181778166533,-2.893281124024611],[110.84174539613321,-2.8933489859668953],[110.84143511383951,-2.8935291912191587],[110.84118765009003,-2.8937005120689037],[110.84087356186546,-2.8938242443933291],[110.84042622289195,-2.8939670108688347],[110.83997888391843,-2.8941573676683561],[110.83957913526893,-2.8943667613169168],[110.83920793919509,-2.8945856706920949],[110.83881770717153,-2.894785545916136],[110.8384941014217,-2.8949568667659378],[110.83805627997339,-2.8951948129901552],[110.83759942257535,-2.8954422767396295],[110.83727581682552,-2.8957182948633431],[110.83699979870181,-2.8959562410876174],[110.83666667542678,-2.8962893652619641],[110.83636210382809,-2.8965749009108777],[110.83613367512908,-2.8967842927608558],[110.83585765790463,-2.8971364537842419],[110.83550549778056,-2.8975362033330612],[110.83527706908154,-2.8977551127082393],[110.83506767723156,-2.8979740238820568],[110.83489635638182,-2.8981548631563783],[110.834677445208,-2.8984023269057957],[110.83446805335802,-2.8986783441302464],[110.8342872140837,-2.8989638797791599],[110.83401119595999,-2.8993350758530028],[110.83373517873559,-2.899687235977126],[110.83348771498612,-2.9000203601514727],[110.83317362586223,-2.900467699124988],[110.83295471468841,-2.9007627522991584],[110.83269773431306,-2.9011149124232247],[110.83245026966426,-2.9013885500415313],[110.83222897978368,-2.9016955012463654],[110.83200055198392,-2.9020095903702554],[110.83175070772904,-2.9022522949074414],[110.831329544423,-2.9026163521628519],[110.83095834834916,-2.9029804103176389],[110.83070850409428,-2.9032088381173367],[110.83039441497033,-2.9034800970288188],[110.83011601813979,-2.9037013860100842],[110.82979479109679,-2.9040011992958625],[110.8294807019729,-2.9042010727212642],[110.82920944396074,-2.9044009479453621],[110.8287597262804,-2.9046722068567874],[110.82840280604472,-2.904850665625645],[110.82800305739522,-2.9050719564056067],[110.82773893730217,-2.9052575539928966],[110.82740343262236,-2.9054074601860975],[110.82705365210444,-2.9055145361668906],[110.82671101040489,-2.9056358879857953],[110.82639692128095,-2.9057215493099875],[110.82612566236946,-2.9057643786231324],[110.82576160511405,-2.9058286252907806],[110.82547606856576,-2.9058714546039255],[110.82514056478527,-2.9059285615538215],[110.82476223079237,-2.9059428391906295],[110.82451952625519,-2.9059713917662862],[110.82419829921218,-2.9059856694030941],[110.82362008999525,-2.9060427763529901],[110.82334883108376,-2.9060641910095342],[110.82295622035332,-2.906099883302943],[110.8224993638546,-2.906156990252839],[110.82196398485007,-2.9061998213646234],[110.82168558801953,-2.9062212360211674],[110.82139291355219,-2.9062426506777115],[110.82102171837766,-2.9062926188092888],[110.8206790757788,-2.9063283111026408],[110.82035070991736,-2.906378280133481],[110.81987005915596,-2.9064692942225179],[110.81924545121666,-2.9065882682339179],[110.81844238270986,-2.9066774971686868],[110.81749059781288,-2.9068262135588725],[110.81639009832446,-2.9069451866709528],[110.81514088064716,-2.9070939030611385],[110.81435070122393,-2.9071474406018751],[110.81391050106885,-2.9072188251885791],[110.8132085604268,-2.9073140031387084],[110.81226867266116,-2.9074924628068857],[110.81144775890704,-2.9075995378883022],[110.81076961162836,-2.9076947167377512],[110.81039071196187,-2.9077661040224143],[110.81003030685326,-2.9078340064342001],[110.80994869787418,-2.9078493821432403],[110.80971708557507,-2.9078740874191453],[110.80905640043261,-2.9079445600933127],[110.80828307610312,-2.9080040466494097],[110.80827586264098,-2.9080043650093899],[110.80799915114,-2.9080165733061563],[110.80747405858102,-2.9080397389427617],[110.80674832277691,-2.9080992245994821],[110.80603448500352,-2.9081944043482508],[110.80542772231161,-2.9083490688544202],[110.80485665191304,-2.9084918362291887],[110.80419058073079,-2.9086139848474772],[110.80377179613157,-2.908785305697279],[110.8030484399336,-2.9089566274463436],[110.8023250837357,-2.9092040911958179],[110.80144944173838,-2.9094896259454117],[110.80059283569085,-2.9097941966448388],[110.79986948039226,-2.9100035902933996],[110.79893673144505,-2.9102700899925935],[110.79825144714664,-2.9104604458927952],[110.79769941179848,-2.9107079096422694],[110.79705219760092,-2.9109553742910634],[110.7962526994026,-2.9112789809401534],[110.79551030725492,-2.9115454806393473],[110.79467273715716,-2.911869087288494],[110.79396841690897,-2.9121355869876879],[110.79339734561108,-2.9124401576870582],[110.79292145406191,-2.9128208721854776],[110.79252170361377,-2.9131254428848479],[110.79212195496433,-2.9134109776344417],[110.79172220631483,-2.9137536202333649],[110.79115113501695,-2.9141914407823037],[110.79071331356863,-2.9146102262808427],[110.79021838606974,-2.9149909398799423],[110.78997410592029,-2.9152817500526567],[110.79001282623102,-2.9152931282752093],[110.79052777803457,-2.9154444446053844],[110.79098207866008,-2.91559774304136],[110.82939816489346,-2.9285608066358577],[110.83563888882372,-2.9306666663335363],[110.8711636645715,-2.9558073571237742],[110.87261755265797,-2.9568362651814368],[110.90507712500937,-2.9816106369212889],[110.90597632294902,-2.9820627414023306],[110.95573786041399,-3.0097606463367015],[110.94554223558578,-2.9273665986895026],[110.95654157373468,-2.9184284284291948],[111.03377755708863,-2.8556656952156345],[111.04487606797619,-2.8466469340087315],[111.04486084065536,-2.8466186521290524],[111.04487337630536,-2.846599781654561]]]},"properties":{"OBJECTID":482,"nama_kawasan":"Kawasan Transmigrasi Jelai (Pulau Nibung)","delineasi_asal":"Pulau Nibung","Shape_Length":0.74249461773623571,"Shape_Area":0.01654786055794864}}]}