{"type":"FeatureCollection","features":[{"type":"Feature","id":502,"geometry":{"type":"Polygon","coordinates":[[[116.13752799412168,-2.1803098546160413],[116.13470238360821,-2.1844739108422573],[116.11447696533969,-2.1834328970105616],[116.11417953255943,-2.1801611382259125],[116.10228222764272,-2.17912012439416],[116.09782073773692,-2.179268839885026],[116.08250295764549,-2.1754022164390676],[116.00844223402191,-2.1731714723854907],[115.95104398918886,-2.172171294969246],[115.94986514256232,-2.181173392637902],[115.95115115690044,-2.1839597567373517],[115.95211566810372,-2.1908184992742576],[115.95018664659653,-2.1921045127130583],[115.94911496768168,-2.1948908768124511],[115.94911496768168,-2.1968198983196316],[115.94925620530967,-2.1981439971477243],[115.94932425341165,-2.1987819393349923],[115.95095114677804,-2.1992542632735876],[115.96317609270261,-2.1996948015737985],[115.96917843243875,-2.2027785723731768],[115.97229180622196,-2.2104582286642653],[115.97248247058963,-2.2109285363228537],[115.97556624138895,-2.221391328147206],[115.98063243543857,-2.2250257718218904],[115.98382633991366,-2.2303122350215858],[115.98933307316281,-2.2343872169964243],[116.00519246276201,-2.2332858712459256],[116.01339749399926,-2.2320743900210118],[116.01601402202959,-2.2305405620971896],[116.01659139937362,-2.2302021004465473],[116.02006064118575,-2.2284399463463842],[116.02281400736058,-2.2298716958220552],[116.02688898933548,-2.2326250628962612],[116.0277700659359,-2.2332858712459256],[116.03140450961052,-2.2344973515714628],[116.03492881871011,-2.2398939502455733],[116.03564469434718,-2.2422067772209289],[116.04005008004719,-2.2416561043456795],[116.04313384994725,-2.2459513563699716],[116.04980624756035,-2.2505521467641074],[116.05176930301104,-2.2518608500981259],[116.05420825091016,-2.2526341753268753],[116.05765846936288,-2.2540023652169339],[116.06009741726211,-2.255073122326678],[116.06241739114978,-2.2552515819948553],[116.06509428527306,-2.2550136357706378],[116.06705733982449,-2.2544782567661059],[116.06907988183116,-2.2532885274435444],[116.06997218017204,-2.2526936609835957],[116.07199472217872,-2.2517418769859887],[116.07300599273242,-2.2505521467641074],[116.07407674984222,-2.2489460097505116],[116.07514750785128,-2.2478157660846705],[116.07639672462915,-2.2469234677437839],[116.07914301943481,-2.2461025539896013],[116.08071346325573,-2.2450080017178493],[116.08161765872808,-2.2446748784428223],[116.08347363819792,-2.2440086291948091],[116.08479254344115,-2.243456313258207],[116.08469253343378,-2.2421149969095495],[116.08445458720951,-2.2416391053603775],[116.08415715442925,-2.2414606447928804],[116.0839489505837,-2.241163212012566],[116.08388946492687,-2.2407170637414424],[116.08403818131706,-2.2402411712929506],[116.08442484393152,-2.2401519423581817],[116.08573354726548,-2.2404493742391764],[116.0865366148729,-2.2405980897299855],[116.0873396833797,-2.2408062926762113],[116.08808326533051,-2.2410442389004857],[116.08876735982585,-2.241163212012566],[116.08962991398937,-2.2413416716807433],[116.09084938838862,-2.2415796179050176],[116.09162271271805,-2.2416688477391062],[116.09245552360358,-2.2418473083066033],[116.09459703872244,-2.2427098615708019],[116.09519190518233,-2.2429775519723876],[116.09554882361942,-2.2433344713087422],[116.09557856689742,-2.2435129300775998],[116.09578676984358,-2.2438698494139544],[116.09679804129667,-2.2438995926920029],[116.09766059456081,-2.2443754851404947],[116.09870161019126,-2.2449108641450266],[116.09920724501842,-2.2456247019184161],[116.09956416435477,-2.2460411078108109],[116.09998057024723,-2.2463087973130769],[116.10069440802056,-2.2465764859160231],[116.1012000437471,-2.2470523783645149],[116.10188413914182,-2.2480339056401704],[116.10224105757879,-2.2486882577568394],[116.10250874708106,-2.2488072308689766],[116.10298463863023,-2.2485395422660304],[116.10363899074684,-2.2481528787523075],[116.10396616680521,-2.2480636489182189],[116.10423385630747,-2.2481528787523075],[116.10524512686118,-2.2487834357069687],[116.10570912217827,-2.2493545070048526],[116.1062445011828,-2.2501040370715941],[116.10681557158148,-2.2505680323887418],[116.10724387460516,-2.250496647801981],[116.10777925271043,-2.2502111130523872],[116.10852878367643,-2.2497828100285915],[116.10885001071949,-2.2494972752789977],[116.1094924648055,-2.2487120529188473],[116.10989221525358,-2.2487025353936474],[116.1103109998528,-2.2487025353936474],[116.11098676662607,-2.2487120529188473],[116.11203373037245,-2.2487786773940002],[116.11443222586661,-2.2488072308689766],[116.11444174429118,-2.2489595157690019],[116.11520317238853,-2.2489499991431217],[116.13764624777616,-2.2485256612302464],[116.13828870186217,-2.2485256612302464],[116.13914530790964,-2.2485018669675583],[116.13988294084515,-2.2485494563922543],[116.1410726719663,-2.2486922237670797],[116.14223860792549,-2.2485970449176307],[116.14302383028564,-2.2485018669675583],[116.14314280339772,-2.2560447579591596],[116.14328556987323,-2.2591142628129433],[116.14326177561054,-2.2614699289939608],[116.14335695356067,-2.2650391205589244],[116.14335695356067,-2.2658719323437708],[116.14340454298531,-2.2661574670933646],[116.14371387289702,-2.2662526459428136],[116.14369007863434,-2.2667047441286172],[116.14354731125945,-2.2673234030525578],[116.14345213330932,-2.2679420628758749],[116.14444462691802,-2.2687989836861107],[116.14604362511329,-2.2699982323325116],[116.14712865896047,-2.2703979809820112],[116.14769973025841,-2.2701695531823134],[116.14844212060746,-2.2694271610346277],[116.14878476410559,-2.2685134480371403],[116.14878476410559,-2.2676568419896057],[116.1653458119597,-2.2530945409802143],[116.16751588055354,-2.2513813288851452],[116.1677443092525,-2.2508102575872613],[116.16865802225004,-2.2502962950379128],[116.16905777089949,-2.2492112611906805],[116.17008569869608,-2.2488686176924944],[116.17031412739516,-2.2480120116449598],[116.17094230474368,-2.2467556569479825],[116.17185601774111,-2.2469269777977274],[116.17254130203946,-2.2474409421457153],[116.17351212198685,-2.2476122629955171],[116.17385476458583,-2.247783583845262],[116.17448294283361,-2.2480120116449598],[116.17465426368335,-2.2466414430481336],[116.17482558543247,-2.2450424448529134],[116.17488269238243,-2.243957411005681],[116.17648168967833,-2.2435005536075892],[116.17808068787349,-2.2424155197603568],[116.17939415041974,-2.2423584128104608],[116.18002232776826,-2.2418444493617926],[116.18007943471821,-2.2411020581134267],[116.18093604076569,-2.2404167729156939],[116.18316321630948,-2.239902808567706],[116.18505392759675,-2.2406308466362361],[116.18535136037701,-2.2399764954188868],[116.18701698304744,-2.2389057383091426],[116.18773082082078,-2.2380729256249765],[116.18826619982531,-2.2367642231902778],[116.18886106538594,-2.2350391139638646],[116.18975336282745,-2.2325406804080217],[116.19026494667003,-2.230351574965141],[116.19005079560782,-2.2273534546981182],[116.19033633125673,-2.2236414948590664],[116.19055048321832,-2.2218568999759327],[116.19133570467909,-2.2201436878808636],[116.19269199833707,-2.219144313559184],[116.194904896244,-2.2175738697382599],[116.19661810833907,-2.2162889606669296],[116.19804578478522,-2.2150040515956562],[116.20247753141302,-2.214373494640995],[116.20589800568848,-2.2149683602016239],[116.20812875064144,-2.214373494640995],[116.20946719815277,-2.2137786299797426],[116.2112517930359,-2.2121427496880983],[116.2140774026501,-2.2100607220246502],[116.21615943211214,-2.2091684236837636],[116.21964971266414,-2.2047807474335173],[116.21937838540418,-2.2040810083317979],[116.21862885533744,-2.202974558029382],[116.21762948101582,-2.2021893356692317],[116.21588057842598,-2.2010115025787513],[116.21505966377254,-2.2002262811179207],[116.21459566935471,-2.1994410587578272],[116.2149417266794,-2.19846084808961],[116.21399065674348,-2.1974082249096227],[116.21198302010032,-2.197144879132793],[116.20977012219339,-2.1954316670377807],[116.20891351614591,-2.1932901519189159],[116.20819967657383,-2.1906489500889279],[116.20741445511305,-2.1888643552057943],[116.20498740524465,-2.1877222126099696],[116.20284589012579,-2.1877222126099696],[116.19963361789723,-2.1880791319463242],[116.1962071937071,-2.1885074349701199],[116.1938515284254,-2.1887929706190334],[116.19256661935401,-2.1895781929791838],[116.19113894200859,-2.190220647065189],[116.18956849818767,-2.1918624745734974],[116.18878327582763,-2.1947178292643343],[116.1884977401786,-2.1975017975698279],[116.18749836675624,-2.1995719290012516],[116.1860706903102,-2.2015706758459714],[116.18214457940883,-2.2049971000361097],[116.18078828665023,-2.2059964743577325],[116.17936061020407,-2.2072813834290628],[116.17786155007059,-2.2081379885772776],[116.17536311561537,-2.2097798169849057],[116.17372128720774,-2.2097798169849057],[116.17143700471411,-2.2101367363212603],[116.16936687418195,-2.2102081200087014],[116.1674395101254,-2.2103508873835267],[116.16629736932816,-2.2097084332975214],[116.16379893487306,-2.2082093722646619],[116.16215710736469,-2.2068530804052671],[116.16065804723121,-2.2056395550213779],[116.16015835962071,-2.2046401806997551],[116.16037251068292,-2.202926968604686],[116.1607912961814,-2.2016491992511078],[116.16102924240568,-2.2004118787052107],[116.16050576143175,-2.1983179530110988],[116.16007745840807,-2.1970330439397685],[116.15922085236048,-2.1958909031426401],[116.15845942516239,-2.1950342970951056],[116.15717451609112,-2.1941301016228181],[116.15607996381937,-2.1934638532741815],[116.15331978887718,-2.1930355502503858],[116.15016462359858,-2.1923217106783568],[116.14904627706414,-2.1916792565923515],[116.14828484896668,-2.1907988562821288],[116.14778516315482,-2.1897994828598257],[116.1472854764437,-2.1888714931248501],[116.14583400393622,-2.1875152003661356],[116.14512016616277,-2.1869441290682516],[116.1438352570915,-2.186111318182725],[116.14248654921494,-2.1848306143413083],[116.14182088002963,-2.1838085923925519],[116.14115287170773,-2.1822817162281467],[116.13752799412168,-2.1803098546160413]]]},"properties":{"OBJECTID":502,"nama_kawasan":"Kawasan Transmigrasi Kerang, Kabupaten Paser","delineasi_asal":"Kerang","Shape_Length":0.71333684105943784,"Shape_Area":0.014864109593857379}}]}