{"type":"FeatureCollection","features":[{"type":"Feature","id":522,"geometry":{"type":"MultiPolygon","coordinates":[[[[117.52637009370494,3.3430091179764645],[117.52653715536553,3.3436552961550206],[117.52665667346673,3.3444690513057367],[117.52664531412995,3.3454982984077901],[117.52658646429393,3.3465676507765352],[117.52651621645032,3.3473591288208127],[117.52626572198551,3.3482630949658869],[117.5260159505757,3.3488376898075671],[117.5257897809737,3.3490053621078459],[117.52555542484299,3.3490795238010378],[117.52537305582189,3.3491372341960641],[117.52498007277222,3.3491254782582587],[117.52464658617112,3.3490299135996793],[117.52407494290435,3.3489584138997088],[117.52363430657806,3.3489107777102731],[117.52327701582169,3.3488391619977733],[117.52282441941145,3.3486957902785548],[117.52263769767171,3.3486121362411154],[117.5225545283688,3.3485748737314793],[117.52228318042455,3.3484533051759513],[117.5221573904513,3.3483969482605858],[117.52157846717262,3.3481004939426953],[117.52157371875217,3.3480980621758931],[117.52122810928984,3.3475955938616266],[117.5211341040557,3.3472981817657228],[117.5210824775744,3.347134846895699],[117.52107304098809,3.3471049912024569],[117.52106488503648,3.3470607229740494],[117.52106335259168,3.3470524087417175],[117.52104391104774,3.3466081238658489],[117.52100550370108,3.3460384690001774],[117.52104805782164,3.3454400493188814],[117.52112392013282,3.3447745887763176],[117.52108422585638,3.3446650639415907],[117.52106667738531,3.3446166426439845],[117.52100378419732,3.3445960724508268],[117.52095411104347,3.3445798252987515],[117.52096521767066,3.3444901404076859],[117.52099036721177,3.3442870680937631],[117.52100006100409,3.3442087884048988],[117.52107824446546,3.3440474940966283],[117.52123796945682,3.3437179771029832],[117.52128447339976,3.3436841302184916],[117.5217974466949,3.3433107676778491],[117.52224987583122,3.3431429748684423],[117.52251423064729,3.3430309454218445],[117.52272286077152,3.3429425303735343],[117.52292849975049,3.3428553824699634],[117.5236906221246,3.3428310378221795],[117.52429798466437,3.3429025204350182],[117.52438480521459,3.3428982171790267],[117.52446891520833,3.3428940479220159],[117.52475386090202,3.3428799258679192],[117.52478621401258,3.3428783223767482],[117.52493209933698,3.342849946967533],[117.52503640180851,3.3428296591615094],[117.52546491887097,3.3427463099942543],[117.52548849279981,3.3427403744687467],[117.52567804200805,3.3426926420518157],[117.52575194019994,3.3426740332800478],[117.52579830924469,3.3426623555832862],[117.52608405803289,3.3425664590748738],[117.52615282918975,3.3426147841450415],[117.52620318582842,3.3426501697695699],[117.52637009370494,3.3430091179764645]]],[[[117.52370113160202,3.3494472529883978],[117.52375354858748,3.3494855218394264],[117.52372975522405,3.3495286200497958],[117.52351548365266,3.3496819247810663],[117.5230916088907,3.3498066193800469],[117.52282016112156,3.3499264432508085],[117.52278682235408,3.3499360363190931],[117.52272489503798,3.3499312816034035],[117.52268599396348,3.3498965668730989],[117.52268200457092,3.3498930082557763],[117.52268198928243,3.349864284808973],[117.52270577545119,3.3498068262240963],[117.52291049082658,3.3496008670863944],[117.5230723849827,3.3494858878634659],[117.52322001679045,3.349423574738239],[117.52333594839536,3.349414265855728],[117.52352009807407,3.3493994792026456],[117.52370113160202,3.3494472529883978]]],[[[117.61864830577474,3.4385412921469651],[117.61848179090202,3.4388764973525099],[117.6181842430085,3.4391639161818262],[117.61789811200833,3.4393092592150083],[117.61691035962542,3.4398109999777375],[117.61593480115016,3.4402603957007614],[117.61579526503954,3.4403246738446569],[117.61550547379863,3.4404581683098741],[117.61331465784519,3.4412494538992178],[117.61221911901714,3.4414416444163862],[117.61076635778124,3.4417298051864122],[117.61000227488512,3.4418553046785973],[117.60974225839857,3.441898011683918],[117.60814649326608,3.4420426478499735],[117.60595533197306,3.4423073381132099],[117.60385948892429,3.442643770893369],[117.60274235287739,3.4428583374423738],[117.60255304558666,3.4428946970326706],[117.60235908520372,3.4429319496497897],[117.60168031289618,3.4430164814255022],[117.60159984875406,3.4430265016717385],[117.60062044567712,3.4431484713249461],[117.59878654546276,3.443388984214323],[117.59747652282329,3.4434137461475416],[117.5971006232952,3.4433611034322098],[117.5969492089389,3.4433398983176744],[117.5966256292694,3.4432945823791101],[117.59640292205722,3.4432633929912413],[117.59628547689329,3.4432469452903547],[117.5961985529209,3.4432372964641331],[117.59457040140296,3.4430565372294382],[117.59266474428262,3.4428183733692777],[117.59042565272171,3.4426282836683981],[117.58936144897177,3.4424014386755175],[117.58918561532391,3.4423639576305618],[117.58818638579316,3.4421509630965375],[117.58589943770892,3.441601857739613],[117.58410057418223,3.4411371429648057],[117.58387319858934,3.4410784028460739],[117.5837168136801,3.441038002601772],[117.58358864500008,3.4410048922620149],[117.58352209786653,3.4409920121716482],[117.58228540504751,3.4407526513138578],[117.58205346989178,3.440707759855286],[117.58160882079051,3.4406216992320537],[117.58152322961337,3.4406051328206786],[117.57892019231303,3.4401013173219894],[117.57865756329602,3.4400504849419917],[117.57817112359851,3.4399569770329208],[117.57772963561422,3.4398721089107198],[117.5774950222775,3.4398270088094591],[117.57657342222569,3.4396498504602846],[117.57629922432977,3.4395971411951791],[117.57593186476379,3.4395324250813815],[117.57468015776317,3.4393119194095902],[117.57446195075852,3.4392734787880386],[117.573844871044,3.4391647714371061],[117.57379540383488,3.4391560570064712],[117.57372651576611,3.4391439206554537],[117.57192032186538,3.4389800138166606],[117.57176783191994,3.4389661759483374],[117.57163034266625,3.4389536987542328],[117.5714824950212,3.438944944753473],[117.57140775596326,3.4389405191896572],[117.57131705214033,3.4389351484384179],[117.57120357028862,3.4389284278047398],[117.56993276078833,3.4388531797305291],[117.56981587500275,3.4388462594473594],[117.56962948871001,3.4388352229672137],[117.56752147693464,3.4387646774479776],[117.5669379077583,3.4387530573077925],[117.56611606590377,3.4385979647243516],[117.56512754729852,3.4385387137906491],[117.56407625961174,3.4384943853077061],[117.56400803164536,3.438491508376444],[117.56359960813552,3.4384917502940766],[117.56355547390604,3.4384917763744056],[117.56351397199228,3.4384784583142505],[117.56349486679471,3.4384723267365302],[117.56333729657899,3.4385101261414661],[117.5632741039168,3.438525285113883],[117.56311380965462,3.4385686027588349],[117.56298117763924,3.4386044461382994],[117.56282397704501,3.4386117198550323],[117.56268819290585,3.4385830773471753],[117.56258098562409,3.4385472384643094],[117.56246662603405,3.4384970401063697],[117.56235944123523,3.4384971030589213],[117.56215938165019,3.4385331263027865],[117.56203795698616,3.4386193658910429],[117.56193801262918,3.4387845821427732],[117.56184517471513,3.4388779848312083],[117.56180991679423,3.4388916356405161],[117.56180255134677,3.4387620109581007],[117.56167747993186,3.4387261810684322],[117.56166305390684,3.4384964069836315],[117.56154158067943,3.438503659116634],[117.56153453718923,3.4386760006969439],[117.56140593323732,3.4387083888810821],[117.56142622014397,3.4389257514223459],[117.56133071933732,3.4389357356956793],[117.56124310198766,3.4389662712764562],[117.56123807477741,3.4388197897015971],[117.56112732056943,3.4388270364386244],[117.56112513072026,3.4389972682093912],[117.56097210028224,3.4389725566382481],[117.56083432324544,3.4387841243878938],[117.56065929359158,3.4388524449843771],[117.56077228261483,3.4392552477315235],[117.56081322604962,3.4393657753103071],[117.56060603124342,3.4394161634252782],[117.56044860132192,3.4390320872610687],[117.56020210973963,3.4390932690391764],[117.56035295392576,3.4396714647663202],[117.56025930662179,3.4396903433347461],[117.56010722406916,3.4397006216863701],[117.55997710925624,3.4392441959629423],[117.55985207111621,3.4392622210746708],[117.55995514961057,3.4396455660900642],[117.55978800791024,3.4396895123611557],[117.55956262161772,3.4391798143969368],[117.55945515802921,3.4392388000306369],[117.55945157602946,3.439231252920024],[117.55939290515846,3.439154246671194],[117.55926954605275,3.4390040589901787],[117.55892866162844,3.4391549490417219],[117.55909123207471,3.4395678502760916],[117.5589590479218,3.4395858789851559],[117.55884103528558,3.439399249875521],[117.55890531342948,3.4393417670090116],[117.55881945605313,3.4391551181142859],[117.55863726599705,3.4391983098541914],[117.55873748734518,3.4395106120251739],[117.55898068561021,3.439930541461365],[117.55877315805481,3.4399569041878522],[117.55866267094552,3.4398768726196067],[117.55861979216968,3.4398697167140995],[117.55852321937118,3.4396866660068781],[117.55845534483831,3.4397046569444001],[117.55849849970605,3.4399961973666677],[117.55841589787542,3.440000199349754],[117.55831585459305,3.4399930758198138],[117.55827001524904,3.4399282508881015],[117.55832716086979,3.4398923148784775],[117.55824130259407,3.4397056659837517],[117.55810167385323,3.439774910183985],[117.55808704638014,3.4397418861791493],[117.55801617080965,3.4396303999230895],[117.55782685542511,3.4397094997936506],[117.55791566167852,3.4399358663471844],[117.55798007382145,3.4401081656593533],[117.55808732966659,3.4402301739833661],[117.55808023941154,3.4403235281083653],[117.55802309379078,3.4403594659166856],[117.55797307439798,3.4403594946949738],[117.55790159178514,3.4403164531418611],[117.55769473872124,3.4398460105849722],[117.55760832736246,3.439813974035701],[117.55750109939629,3.4397422297201956],[117.55742250134745,3.4397494566721321],[117.5572052808991,3.4398822011027619],[117.55715904405474,3.4402448554158127],[117.55699477029248,3.4403777949992786],[117.5567158302714,3.4399327537935847],[117.55631579114095,3.4401412292343707],[117.5563009766089,3.4403532938694639],[117.55617246168981,3.4405400686692929],[117.55612965126249,3.4406478038530963],[117.55607260636577,3.4408560778457513],[117.55600124875866,3.4410284580969233],[117.55592272085698,3.4411577572247438],[117.55561557180124,3.4413589958210764],[117.55555367506213,3.4413883119211164],[117.55525124115195,3.4415315469433949],[117.55512982638049,3.441639328891938],[117.55502270723218,3.4417542829338572],[117.55474416471145,3.4419985900629513],[117.55465185020273,3.4421193330408073],[117.55460135866588,3.4421853729566578],[117.55442279467627,3.4423219107276282],[117.55426568041685,3.442479978268409],[117.55399421016477,3.4425950276384469],[117.55372985175131,3.442652628316182],[117.55362102568984,3.4426558164128664],[117.55347975568623,3.4426599550928927],[117.55313674436536,3.4426314321949008],[117.55280081340686,3.442488012811566],[117.55245061380481,3.4423876871421157],[117.55232197927603,3.4423662203248568],[117.55197898863946,3.4423735992622255],[117.55170033460286,3.4424240269473216],[117.5514430889275,3.4424241762347947],[117.55114720567906,3.4424306738365544],[117.55110724430392,3.4424315506755647],[117.55089284412952,3.4423814107735211],[117.55075705819172,3.4423527673663443],[117.55057123307597,3.4422882482041359],[117.55052608261269,3.4422988620029287],[117.55006001076094,3.4423325074392892],[117.55006356668036,3.442592611160137],[117.54999978136493,3.4426476163944244],[117.54991403640372,3.4426548460443769],[117.54977112243944,3.4426549287819626],[117.54958530002159,3.442597589806951],[117.54932801297753,3.442525931826367],[117.54897067725506,3.4424399701285893],[117.54870623610395,3.4423539553707769],[117.54857758089065,3.4422965822215588],[117.54849178736617,3.4422176442289469],[117.54842023910282,3.4420597088885074],[117.5483272590958,3.4419089681244373],[117.54819856880897,3.4417941498801383],[117.54794127457023,3.4417081297264644],[117.54781696038447,3.4416598694074878],[117.54767456442971,3.4416045880813044],[117.54748484524941,3.441530935404387],[117.54724560400143,3.4414380570207754],[117.54701923385062,3.4412826047084764],[117.54682855779174,3.4410672917221632],[117.54654253291164,3.440720389034766],[117.54636376027941,3.4404931006761217],[117.5462766420535,3.4404329872925814],[117.546199661885,3.440352890073882],[117.54593060181594,3.4400729338188967],[117.54592372829745,3.4400657824099881],[117.54586626881337,3.4401310650966366],[117.54575554698101,3.440256862264448],[117.54560140138358,3.4402302459291718],[117.54528531036885,3.4399464702534601],[117.54490385842644,3.4393339321153462],[117.54470859582511,3.439429788154257],[117.54453696830649,3.4392001031023369],[117.54370768726005,3.4385303761759474],[117.54344007240149,3.4385679471531034],[117.54318268013662,3.4383095872177023],[117.54309685873307,3.4381803834180005],[117.54307533615793,3.4380296003857893],[117.54311098798178,3.4378931462517244],[117.54317520587108,3.4377279515837245],[117.54329656398534,3.4375196416182234],[117.54336789101546,3.4372898171713473],[117.54336062359391,3.4370743989643984],[117.54326045890309,3.4368518536301735],[117.54319979333582,3.4366963185802888],[117.54345289043863,3.436448573343057],[117.54347783223625,3.4364241567494673],[117.54338874359576,3.4362557793807582],[117.54332437462028,3.4361552864373834],[117.54318140130067,3.436047655574896],[117.54310991958721,3.4360046122231438],[117.54296699033443,3.4359759706146065],[117.54282408446397,3.4359904137266426],[117.54267406135887,3.4360551271424242],[117.54257379504463,3.4360954959104788],[117.54231685873606,3.4361989449254224],[117.54147938126846,3.435113940755798],[117.54146082106013,3.4350898946829602],[117.54139048778086,3.4349987735745913],[117.54095711258071,3.4352288039661971],[117.54085223184507,3.4350900358764989],[117.54024279816667,3.4356792033325974],[117.54010889540928,3.4355520949532661],[117.54101858663853,3.4345404664694001],[117.54079213914599,3.434241396922971],[117.54023265021669,3.4346964961464437],[117.54039357220563,3.4349537139427753],[117.5399326966367,3.4353848381398393],[117.53942210204843,3.4349001539189885],[117.53905748721331,3.4345276853044879],[117.53899084475177,3.4344200877169442],[117.53926871637827,3.4341589686615066],[117.5392908927605,3.4341381277724281],[117.53935758918146,3.4341428779914622],[117.53935762245635,3.4342003239858059],[117.5393481723803,3.4343391568266952],[117.53945777905335,3.4344109020415203],[117.53999580746063,3.4339127333859665],[117.54001934631583,3.4334148543121046],[117.53999540906091,3.4332042330889294],[117.53975711839632,3.4330224558217424],[117.53936670830706,3.4334152239334799],[117.53917827965392,3.4333100131466381],[117.53917823019128,3.4332207212593175],[117.53913530824798,3.4331345760998602],[117.53896963873785,3.4328501699993694],[117.53915750261672,3.432377429674716],[117.53918691584352,3.4323034163696207],[117.53909918697798,3.4322715021281738],[117.53864492592265,3.4321062517021801],[117.53837116329862,3.4323810296608599],[117.53825596913771,3.4323810953113707],[117.53813450940015,3.432409887106644],[117.53790588015227,3.4324674626033698],[117.53773438393478,3.4324675588308082],[117.53752710369292,3.4323671450277971],[117.53737695198481,3.4322020726675646],[117.53735416226482,3.4321436401169194],[117.53725143270754,3.4319454727054222],[117.5375552012116,3.4314982596370101],[117.5375490813251,3.431418886372569],[117.5375480228231,3.4314051654160949],[117.53754177343421,3.4313241167146771],[117.53754080486431,3.431311569373463],[117.53749529377285,3.4312524524387982],[117.53741923990606,3.4311536601133525],[117.53740808741338,3.4311426506128555],[117.53733605621403,3.4309980845939663],[117.53719547778917,3.4307159438857298],[117.53696988015588,3.4304442083335971],[117.53683795500763,3.4302853017253483],[117.53679926887128,3.4302309404056359],[117.53636120640465,3.429615368854229],[117.53625184614589,3.4292862880317898],[117.53614850415022,3.4293154170728712],[117.53595477759097,3.4293700221088557],[117.53580566370044,3.4289272939594753],[117.53601698819352,3.4288045041246278],[117.53605103922416,3.4288122706698232],[117.53618732878226,3.4288433566356389],[117.53621766741151,3.4284904680607156],[117.53618101823952,3.4280514819903374],[117.53616301381214,3.4278358317582729],[117.53614573064101,3.4276288204137586],[117.53592032546271,3.4272517760486494],[117.53589616337729,3.4272113596165923],[117.53578811702801,3.4270306273616029],[117.5357125433992,3.4269186185994158],[117.53568215440794,3.4268735787526907],[117.53563634564091,3.4268056880321183],[117.53560413462321,3.4267579484206294],[117.53547943642695,3.4267127224142655],[117.5351673069257,3.426599518453088],[117.53482987140148,3.4264771369103642],[117.53468349234936,3.4263119314505275],[117.53416605931625,3.4257279476867097],[117.53385788683204,3.4253801402812769],[117.53370808226225,3.4252598442664635],[117.53358710905786,3.4251627012976655],[117.53353578295014,3.4251214853683223],[117.533358323328,3.4249789823941796],[117.53331124022156,3.4249411730967267],[117.53323474388833,3.4248797458036506],[117.53314300944237,3.4248060814355767],[117.53313966666235,3.4248006621209015],[117.53283308867617,3.4243036023294167],[117.53257475302246,3.4239844482237345],[117.53255662898528,3.4239620569034628],[117.53252323625838,3.4239208032025772],[117.53250989931246,3.4239047377135421],[117.53228488983586,3.42363370633052],[117.53187985497141,3.4234185102561128],[117.53135729670191,3.4233679854442016],[117.53114143692778,3.4233471139781955],[117.53108010676158,3.4233042900609689],[117.53094788123974,3.4232119629617728],[117.53059339906622,3.422964445253001],[117.5304265361558,3.4227251797233293],[117.53052161428116,3.4223660903228392],[117.5304831889481,3.4222119968861762],[117.5304500003673,3.4220788999213596],[117.52999714405303,3.4215286281437329],[117.52980082115107,3.4213808308606986],[117.52942526066727,3.4210981001972414],[117.52899639466796,3.420858980357707],[117.52854047886012,3.4206830540797455],[117.52837698211215,3.4206199648395454],[117.52785205412908,3.4204946730907295],[117.52737647104732,3.4203811588634494],[117.52659026303024,3.4200225550968639],[117.52651342765262,3.4199222923799653],[117.52635190671515,3.4197115209699405],[117.52606575772859,3.4191132838510043],[117.52580349383618,3.4186347114228397],[117.52563964095668,3.4183928504497203],[117.52540121089726,3.4180409061629575],[117.52539825302699,3.4180365390550946],[117.52496937623573,3.4177734801620545],[117.52435000414948,3.4176062692139908],[117.52363526705403,3.417271558635548],[117.52316513836047,3.4170714307020376],[117.52306844865006,3.4170302723292707],[117.52284907522471,3.4169368867279672],[117.52231756060701,3.4167536039956872],[117.52228711226053,3.4167431044107843],[117.52222415611993,3.4167213947765731],[117.52209337580871,3.4166762982725913],[117.52208674061069,3.416674010397287],[117.52160879321127,3.416554210808215],[117.52114261434019,3.4164373609954737],[117.52109400598363,3.4164251769803968],[117.52103858526254,3.416411286052039],[117.52046677292333,3.4161004317895163],[117.52027609596507,3.4158611770517382],[117.52025214881769,3.4156218323817029],[117.52049012741747,3.415238729283999],[117.52099007043546,3.4147836750266265],[117.52130029966918,3.4143848706652875],[117.52134910138,3.4143221366573471],[117.52141850476028,3.4142329176150952],[117.52154854223147,3.4138693064234076],[117.52163100376788,3.4136387229487468],[117.52163254790378,3.4136344053035828],[117.52159409379249,3.4133649378416635],[117.52158473095062,3.4132993296004202],[117.52125102761295,3.4128447304000247],[117.52114627458093,3.4127596059710754],[117.5210978029213,3.4127202174641411],[117.52075062234337,3.4124380938429795],[117.52027402212843,3.4120075074405918],[117.52026203506489,3.4119856323310955],[117.52001176273268,3.4115289332137309],[117.51996121363914,3.4113840461368454],[117.51992836680074,3.4112898970111587],[117.51987283006713,3.4111307143110707],[117.51979630135827,3.4109113606708092],[117.51978022867468,3.4108652928990182],[117.51967779229631,3.4105716804387498],[117.51963762227854,3.4104288519100123],[117.51941528918428,3.4096383244491903],[117.51933851136323,3.4093084567199412],[117.51932962965873,3.4092702993848434],[117.51924817536303,3.4089203390024636],[117.5191113201314,3.4087506351337424],[117.51909179045379,3.4087264172903815],[117.51900771463443,3.4086221633821765],[117.51884299390906,3.4084179057617803],[117.51881696842838,3.4084131654352632],[117.51868769178361,3.4083896157881668],[117.51868610358088,3.4083893271057946],[117.51864377519018,3.4083816163185929],[117.51858096833712,3.4083701751434887],[117.51839019065483,3.4079394331583899],[117.51841367645011,3.4073170879133272],[117.51837070594343,3.4070588538830293],[117.51835734921235,3.4069785830951673],[117.51824640974405,3.4063118715956193],[117.51817426433092,3.4050193749442315],[117.51816009641141,3.4047014502118031],[117.51813209242221,3.4040730822070486],[117.51812605257533,3.4039375777570626],[117.51811399626399,3.4036670320079452],[117.51809861875631,3.4036086597119493],[117.51807896587161,3.4035340528542974],[117.51794693010675,3.4030328220071624],[117.51786952186103,3.40284726758739],[117.51783302107708,3.4027597734448136],[117.51768580925273,3.4024068920644481],[117.51760476774587,3.4022126304085987],[117.51751765401661,3.4020038114268232],[117.51731486139181,3.4013696203117547],[117.5172191042783,3.400460108946902],[117.51717107328648,3.3997181232928142],[117.51699424229048,3.3987326659798214],[117.51697996105645,3.3986530795760359],[117.51685886104769,3.3983327554523726],[117.51684440534507,3.398294516278952],[117.51686534605892,3.3981100212604929],[117.51693196244014,3.3979711560440364],[117.51695573511915,3.3978849740124133],[117.51693133561275,3.3977931226545479],[117.51691753281796,3.3977961012091669],[117.51683179595068,3.3977270629536633],[117.5167986424434,3.3977051536699605],[117.51674182687384,3.3976676087731903],[117.51658184917301,3.3975618916680332],[117.5164313314408,3.3971214783735491],[117.51632860458153,3.3964813130621678],[117.51649013271356,3.3962576471727175],[117.51652818123068,3.3961427336002998],[117.51648523680433,3.3960087157296925],[117.51658974072404,3.3954533465947065],[117.51660392033477,3.3952427028884813],[117.51659902532481,3.3949937723447761],[117.51635589990497,3.3946540120730333],[117.51624837426311,3.3945244827187366],[117.51615031308654,3.3944063558686821],[117.51614140080505,3.3943956197620651],[117.51612644328077,3.3943918695891853],[117.51603330769103,3.3943685240881791],[117.51599858666555,3.3943049591066483],[117.51593047740971,3.3941802690042664],[117.51585999304427,3.394212860435232],[117.5158602502504,3.3942203616803681],[117.51587088833094,3.3945304731029182],[117.51573967994239,3.3945618297646547],[117.51560277614726,3.394563847843358],[117.51557207958786,3.3944448117786692],[117.51549602032514,3.3941498647245112],[117.51539626212787,3.394161076572459],[117.51537699235439,3.3941527272666008],[117.51531842670408,3.3941273501970954],[117.51525980169856,3.3939583639873376],[117.51576944660269,3.3938431986047704],[117.51575617530727,3.3937422470071397],[117.51572534744685,3.39350776137411],[117.51572161795832,3.3934793976561082],[117.51573228931375,3.3934752086140065],[117.51686940559864,3.3930287878483227],[117.51725039528958,3.3928418826467919],[117.51722569990613,3.3927767798246009],[117.51700711068963,3.3922005311296743],[117.51698354215682,3.3921167260061225],[117.51695461186591,3.3920138588525788],[117.51689450657625,3.39201221309321],[117.51535788086153,3.3919701410092671],[117.51535025461067,3.3919057693358354],[117.51530893435995,3.3915569897633304],[117.51527919737714,3.3913456212035271],[117.5152242730818,3.3909552308992374],[117.51516877771701,3.3905607837531875],[117.51512747994934,3.3902672486346432],[117.51512746016419,3.3902671101390638],[117.51510958973586,3.3897857372220415],[117.51510837295314,3.3897529578327976],[117.51510036269167,3.3895371843935891],[117.51497695861985,3.3893499698252754],[117.5149543055968,3.3892261673537973],[117.51499177674918,3.3889848693563067],[117.51501899832817,3.3888095762010266],[117.51499988503667,3.3886994811961699],[117.51498864890709,3.3886791169477419],[117.5148744826713,3.388472201830723],[117.51482214302757,3.3883773413412541],[117.51480006197335,3.3883373206109013],[117.51479719133738,3.388302917046019],[117.51463931445289,3.3864111337668419],[117.51465277010936,3.3853987678389217],[117.51465441676794,3.3852748628447102],[117.51465740791309,3.3850498641599529],[117.51466222198405,3.3846877377489477],[117.51467438711336,3.3841497642002878],[117.51468369419717,3.3837381453991497],[117.51495282980932,3.3835166936405585],[117.51476520964673,3.3834120737082571],[117.51491683624306,3.3830110669072724],[117.51491942718985,3.3829001094525211],[117.51492557135805,3.382637063150014],[117.51474402791462,3.382629396429536],[117.51475629196932,3.3824137785730954],[117.51477129985562,3.3823143153534261],[117.51482908039782,3.3823216223450459],[117.51483712483355,3.3823226385789553],[117.51488670445792,3.382328908652255],[117.51491673192174,3.3821776067112523],[117.51493718160566,3.3820745623912103],[117.51481130979414,3.3820491376576456],[117.51481535224673,3.3820223531491251],[117.51482889603676,3.3819325873191133],[117.51502641503714,3.3819159390693585],[117.51504267298105,3.3817983940806471],[117.51504421082177,3.3817872748629156],[117.5151451579228,3.3816884627523791],[117.51515431122255,3.3816795037061524],[117.51520075940755,3.3814537432956513],[117.51520479376632,3.3814341326791464],[117.51498992774304,3.3813483571410075],[117.51465091570731,3.3812130208642657],[117.51473418033822,3.3810274736390511],[117.5148175214116,3.3810487084311944],[117.51495792626736,3.3810844816635495],[117.51500465324216,3.3807840757245913],[117.51506221075249,3.3804140379775163],[117.51511233266808,3.3800918090897767],[117.51565916543825,3.3782484543027635],[117.51594079623078,3.3775526893052188],[117.51597795891576,3.3774608784168549],[117.51618246924568,3.376955638392019],[117.51668191583781,3.375591026005111],[117.51669206828444,3.3755565253134137],[117.51670145540788,3.375524626360459],[117.51673921794065,3.3753962922051528],[117.51675990324702,3.3753259957981072],[117.51679994286314,3.3751899265739098],[117.51682209586306,3.3751146416274764],[117.51682920590315,3.375090477743413],[117.51689268724783,3.3748747429750665],[117.51706231377477,3.3742982856373942],[117.51751384628699,3.3724071111992657],[117.51794154586571,3.3704920120967472],[117.51797095729387,3.3702909362777405],[117.51797786498651,3.3702437101791247],[117.51815513035501,3.3690318098701937],[117.51855934233981,3.3677390569120007],[117.51901103403202,3.3661590479017605],[117.51955831196653,3.365177383929165],[117.52008205014658,3.364722321577915],[117.52011613984803,3.3646948850609419],[117.52019556257517,3.3646309603506097],[117.52055819080795,3.3643390943737472],[117.52201018762014,3.3627346112133978],[117.52291346668324,3.3619048778078877],[117.52299605502401,3.3618290136980704],[117.52310524261293,3.3617287159075886],[117.52327153265514,3.361471310152865],[117.52338188936278,3.3613004848295418],[117.52341235209838,3.3612533288780924],[117.52372397797922,3.3607709487203579],[117.52463924230722,3.3598117660002345],[117.5248665612429,3.3595735400868421],[117.52524927133686,3.3591437333966496],[117.52589007966355,3.3584240671170278],[117.52693732489763,3.3571070288663236],[117.52697501818261,3.3570531360933842],[117.52698648363935,3.3570367432511716],[117.52709135807982,3.3568867965884124],[117.52822611274496,3.3552643458729108],[117.52839869714217,3.3552221991452029],[117.52869163511093,3.3552004967056064],[117.5288527513535,3.355180169329401],[117.52886713331156,3.3551783535982054],[117.52889168480351,3.355175256333041],[117.52891208142751,3.3551707453336803],[117.52903814209662,3.3551428627529845],[117.52913459078877,3.3551248592249294],[117.52924151208617,3.3551162041495672],[117.52931321143558,3.3551103999250813],[117.52940885883186,3.3551221180913444],[117.52948827706234,3.355131847856569],[117.52883236282332,3.3546465458014723],[117.5289127739054,3.3545687589411273],[117.52926670929128,3.3541250082625425],[117.52930130800905,3.3540816294636784],[117.52943774595531,3.3541732434005098],[117.52967638915413,3.3539080612081307],[117.5296769629216,3.3539074235887938],[117.52967671380941,3.3539072122480889],[117.52953616416266,3.3537871752379829],[117.5296088554644,3.353696037042539],[117.52968630238104,3.3535989372412018],[117.52997190637848,3.3532277762409421],[117.53013176177149,3.3531542287846605],[117.53036614488178,3.3533110462678337],[117.53076417942339,3.352710918773937],[117.53090042311612,3.3525929708889635],[117.53100202942016,3.3524527701792408],[117.5313169090482,3.3520182843164434],[117.53184055819531,3.3514196029323671],[117.53289972214452,3.3501504257016563],[117.5332199230611,3.3497458530886774],[117.5332961262153,3.3496495698718149],[117.53392314613632,3.3488573310010565],[117.53470843774426,3.347636174869649],[117.5354698721369,3.3463432231612842],[117.5360169018586,3.3449546456404278],[117.53665938112556,3.3439011168431421],[117.53692121424274,3.3433448079165942],[117.53705560892922,3.3432298547740515],[117.5371627019972,3.3430801958943448],[117.53724597562132,3.3429245673149808],[117.53722908365535,3.3425211116600053],[117.53729028341991,3.3423177452677919],[117.5374980241146,3.3421734409515693],[117.53757134763964,3.3420993188285593],[117.53756111605276,3.3420518463157123],[117.53755868428595,3.3420405634213353],[117.53745859873538,3.3419400884643551],[117.53745834512654,3.3419253890455138],[117.53745498346075,3.3417311984360936],[117.53756301991746,3.3413394888264065],[117.53787159260003,3.3394244535757025],[117.53825149770853,3.3372939569505888],[117.53884547743689,3.33466069163768],[117.53910685819505,3.3335594996711961],[117.53912841314582,3.3334892167540033],[117.5391802356794,3.3333202431347786],[117.53920037329863,3.3332545818335575],[117.53928352731305,3.3329834461291625],[117.5393272514516,3.3328408748065499],[117.53934297789613,3.3327895963628293],[117.53938520736153,3.3326519020636738],[117.53960611592959,3.3319315909702141],[117.5402956027599,3.3297530516620668],[117.54059086997279,3.3288016291919007],[117.54077109411071,3.3282208991752213],[117.54117523864636,3.3268802708079193],[117.54217480182569,3.3255632514429294],[117.54227984893589,3.3254771314644813],[117.54262014520361,3.325198147376625],[117.54269878192326,3.3251336785764352],[117.54289511112052,3.3249727233125554],[117.54294567190527,3.3249312717608177],[117.54306037863364,3.3248372323524222],[117.54346029995293,3.3245093656148015],[117.54453412734813,3.3239352680981824],[117.54498408874474,3.3236947048467869],[117.54509426288996,3.3236316237005212],[117.5463649896526,3.3229040577760998],[117.54684030203839,3.3226880037483966],[117.54723675287391,3.3225077966974936],[117.54762827902186,3.3223298280591393],[117.54793661608198,3.3223487848685522],[117.5487079771915,3.3218385212308021],[117.54926511619226,3.3215509800937184],[117.54974124426303,3.3211281737262652],[117.55013642435654,3.320897045262484],[117.55043342096565,3.320880686594478],[117.55075796111112,3.3207818061354715],[117.55094518017597,3.3207802745900494],[117.55115083174553,3.3206092487179149],[117.55150065722955,3.3201207621634694],[117.55166490401223,3.3199698739106225],[117.55207203069972,3.3197398624047878],[117.55249340894375,3.319438034637642],[117.55299340592103,3.3191864277115428],[117.55340766962831,3.3189420504353393],[117.55397189708549,3.31856115337456],[117.5545062958289,3.318027094574802],[117.5546104975765,3.3179229593771424],[117.55488258836078,3.3176674439973795],[117.55503182635778,3.3175272963476914],[117.55517387517421,3.3173939008079287],[117.5552737260017,3.3173282835734881],[117.55615253271333,3.3167507758276997],[117.5563404289677,3.3166272998100794],[117.55691305789139,3.3162918679753943],[117.55765799332175,3.3158555034287929],[117.55787361477553,3.3157291972447069],[117.55793557176924,3.3156929042042407],[117.55849602207377,3.3152699548446094],[117.55905311790718,3.3148495370764977],[117.55917347507591,3.3147587082478367],[117.55970158935691,3.3144108648695578],[117.56037519505924,3.3139671942306563],[117.56048286279395,3.3138962781907253],[117.56108448675968,3.3134964881724613],[117.56161855635139,3.3131415887133926],[117.56174462961098,3.3130578096702266],[117.56213545788512,3.312739463155765],[117.56267908277346,3.312296655866021],[117.56281162845391,3.3121886922543808],[117.56295858936744,3.3120689861947881],[117.56324433725638,3.3118362317567289],[117.56341166331765,3.3117082726187164],[117.56363877720787,3.3115345928472379],[117.56383380778402,3.3113854465811414],[117.56443461246749,3.3109259946389784],[117.56484909201208,3.3106037216844584],[117.56501173980007,3.3104772581190218],[117.56567892704095,3.3099584958879404],[117.56573602769561,3.3099140981571509],[117.56652947345651,3.3092971668308451],[117.56690279013173,3.3089073646831935],[117.56695418818526,3.3088536976400746],[117.56716021567149,3.3086385717127769],[117.56746965709908,3.3083511645746171],[117.56786255381382,3.3082432288420023],[117.56827931493854,3.3082190541660452],[117.5684253720334,3.3081945017748922],[117.56863651576271,3.3081590091310318],[117.56919594623594,3.3077398117429766],[117.5697077432178,3.3073206422338899],[117.57020757112252,3.3067937690172471],[117.57057652788455,3.3065503063515962],[117.5709958511776,3.3061518239475731],[117.57108151340117,3.3060225221217365],[117.57109571999149,3.3058788976930487],[117.57089556957499,3.3057066766218668],[117.57042384818214,3.3054053587703152],[117.57009502816311,3.3051183203542678],[117.57006636676942,3.3049747211065323],[117.57018060764904,3.3048454030929406],[117.57038066003952,3.3048452870803544],[117.57063796686873,3.3050174757759123],[117.57078091860456,3.3051179237532438],[117.57099530888649,3.3052039690879269],[117.57116675743998,3.3051607863412755],[117.57118094784255,3.304988440264367],[117.5709665251851,3.3048449489352834],[117.57076631811117,3.3045721971492412],[117.5706379587748,3.3044294090900053],[117.57085214041399,3.3041492369977163],[117.57119521468746,3.3043788222249191],[117.57155774669275,3.3038103697527959],[117.5716476402265,3.303728141140823],[117.5717450197169,3.3037896853457482],[117.57206013406801,3.3035444312305913],[117.57210892678563,3.3035373967335318],[117.57232336563084,3.3037096097107792],[117.57259502024408,3.3039823210273198],[117.57280939343877,3.3040396420159368],[117.57295225434314,3.3039821141832704],[117.57299506477045,3.3038815591866637],[117.57253754187411,3.3034222583306132],[117.57252312124513,3.3031924833464927],[117.5725944437786,3.3029770201733868],[117.57267848722245,3.3028924551227306],[117.57273051210348,3.3029633315925366],[117.57295903073475,3.3027693199481973],[117.57306620204361,3.3027692578949654],[117.57342288126097,3.3023733601424965],[117.57360872436323,3.3025168667600155],[117.5737374191466,3.3026747679262485],[117.57392324696036,3.3027895510969643],[117.57412337129665,3.3029186892461553],[117.57429486841352,3.3029616732426916],[117.57433554295096,3.3029514281658976],[117.57436365485887,3.3029443469041553],[117.574396788581,3.3029360020948957],[117.57446631606774,3.3029184895966637],[117.57473770628019,3.3027316329585688],[117.57480307440244,3.3025969109187372],[117.57503742693575,3.3021139174234122],[117.57559433930737,3.3014673291539793],[117.57580796876277,3.3013061040934986],[117.57588000086139,3.3012517409750899],[117.57588032012075,3.3012515719025828],[117.57615119861896,3.3011080841707781],[117.57642288830573,3.3010647269556443],[117.5766494248312,3.3009917226899006],[117.57680995291707,3.3007646852420862],[117.57703849133338,3.3006065763324841],[117.57712116331106,3.3004901087315943],[117.57715082025425,3.3004483280279828],[117.57718126770135,3.3004054330643271],[117.57725977222083,3.300254591576163],[117.57737399061728,3.3000893690291946],[117.57756684303547,3.2999959069855436],[117.57775260339997,3.299995798167572],[117.57794614290026,3.3000493366076284],[117.57795983058179,3.3000531236527877],[117.57815144643212,3.3002882010396775],[117.57852301032869,3.3003597906718483],[117.57878024071556,3.3004027252056289],[117.57888025072305,3.3003739442021924],[117.57896591114798,3.3002446405777732],[117.57905149692908,3.2999860845901594],[117.57900843828884,3.299655797776893],[117.57893418486481,3.2995216513032233],[117.57886539572155,3.2993973757883168],[117.57882007888361,3.2992685676903193],[117.57887150931276,3.2991887420668604],[117.57893582342956,3.2990889164204305],[117.57873082836511,3.2988752959581689],[117.57855096305661,3.2987128523163278],[117.57861495431678,3.2986355843647743],[117.57869744013476,3.2986941158408172],[117.57879025736452,3.2985839569840891],[117.57871585825035,3.2985137442139489],[117.57887819757082,3.2983177216855779],[117.57894093697473,3.2983387001709161],[117.57906643736624,3.2984473616564856],[117.57916403269405,3.2983659244479213],[117.57924266581642,3.298259779265436],[117.57945498046308,3.2985063068206273],[117.57955079873045,3.2985640118197352],[117.57970807216986,3.2987218949995167],[117.57993681743028,3.2989228224303702],[117.58013243076709,3.2990537241500988],[117.5809090996753,3.2994115922712126],[117.58100422996131,3.2991841474304806],[117.5806469014334,3.2990168060807719],[117.5801524973399,3.2986161715990647],[117.58056294522385,3.2979816360437439],[117.58012217309988,3.2976587623420528],[117.58018748546419,3.2973475600418851],[117.58023489772245,3.2969705444551209],[117.58049043828316,3.2961505965728293],[117.58163972059674,3.2964790388766119],[117.58170712658273,3.296236197642429],[117.58149273809943,3.2961501559050248],[117.58133593500543,3.2961138844482321],[117.58052595970537,3.2958035077257364],[117.58097213765404,3.2951809187644585],[117.58219266785738,3.2957332643786685],[117.58227835346327,3.2956470445755031],[117.58226403086042,3.2955896075743567],[117.58177800575038,3.2952595797658546],[117.5812777659562,3.2950588133136307],[117.58127759958165,3.2947715851406087],[117.58150607684399,3.2945129446167698],[117.58182048882452,3.2945989287975976],[117.58216357299057,3.2948428717012348],[117.58262096908254,3.2950867480550414],[117.58307834089283,3.2952875387889549],[117.5835071511342,3.2955170691574835],[117.58374911463,3.2956200712093846],[117.58378713167087,3.2956362554089083],[117.58391392528745,3.2956902300201705],[117.58397881317171,3.2957178517974626],[117.58450769817182,3.2960334922519223],[117.58451736408517,3.2960412543005191],[117.58448509191351,3.2961565132125656],[117.58548558499183,3.2965807800790117],[117.5855629437749,3.2965089278447977],[117.58558669217211,3.2963952193639443],[117.58561042438168,3.2962515913379207],[117.58542578457241,3.2961320210759482],[117.58546740159932,3.2960302699810313],[117.5846502883802,3.2955163964645635],[117.58444457835469,3.2954131722801208],[117.58430724738162,3.2953442608290402],[117.58419099381933,3.2952705631859658],[117.58403565122444,3.2951720847239585],[117.58399242710891,3.2951438828839628],[117.58374975764525,3.2949855536404584],[117.58226321337668,3.2941821883573539],[117.58201929745269,3.2939476163894597],[117.58214216732722,3.2937511244148823],[117.58206677805947,3.2936902789832629],[117.58225121462192,3.2934627819818729],[117.58321605317838,3.2940067522098957],[117.58326329816271,3.2939087342007838],[117.5835778189612,3.2941814158397165],[117.58383514287755,3.2943823252841185],[117.58407301535749,3.2944319858474955],[117.58437792330255,3.2940229687850433],[117.58407769003338,3.2937502790521762],[117.58378528896003,3.2935649125906821],[117.58385872130305,3.2934139658818822],[117.58351328720846,3.2932226836799714],[117.58374529161199,3.2928874478974421],[117.58320326302021,3.2924928271822864],[117.583411498342,3.2922353962466104],[117.58441213980848,3.2929229576284342],[117.58454864700252,3.2927447030056669],[117.5852205242079,3.2932325951082362],[117.58526519173529,3.2932912300063322],[117.58514275893128,3.2935208808839889],[117.58548939541936,3.293732506649917],[117.58554071343326,3.2936359437438796],[117.58556371629254,3.2936632354699782],[117.58579243457325,3.2938210763816187],[117.58593200935479,3.2938911119852605],[117.58648403840766,3.2942627271431775],[117.58653283472256,3.2942955757802679],[117.58668695963559,3.29410582242582],[117.58669704283432,3.294093408184267],[117.5867647276101,3.2940933677148223],[117.58677854839141,3.2940933587215682],[117.58692138231595,3.2939927452690085],[117.5870356276921,3.2938777867305475],[117.58717838517441,3.2936479191162107],[117.58719957769847,3.293583891883145],[117.58727636541198,3.2933519099627233],[117.58727823240451,3.2933462712134656],[117.58727744369912,3.2933396441093237],[117.58725081477337,3.2931156850409025],[117.58681003995139,3.2927868299482839],[117.58663738540702,3.2928562531136549],[117.58642564992385,3.292691315651723],[117.58640498979855,3.2924639373608784],[117.586107148726,3.2922068041007719],[117.5859336551141,3.292308063266546],[117.58527684245234,3.2917964200688061],[117.58527920137408,3.2915789819844576],[117.58513627481932,3.2915192274304559],[117.5849041921748,3.2917168318663244],[117.58442767020085,3.2913461097352297],[117.58463584077151,3.2909809678973829],[117.58445118837176,3.2908374630785033],[117.58466533403805,3.2905082212774346],[117.58490954134231,3.290681611467221],[117.58497501288662,3.2906456691623589],[117.58497498770555,3.2906037823387351],[117.58493492560638,3.2905427300630095],[117.58508067063656,3.290354142229944],[117.58513310470903,3.2903460024660944],[117.58546190494303,3.2906043138380596],[117.58589071428514,3.2908338442065883],[117.58608806241421,3.2909659060517811],[117.5860171814478,3.2910758967353217],[117.58673198509314,3.2916678826666725],[117.58683054539347,3.2915385178883412],[117.58707725910824,3.2917666336232969],[117.58752040004651,3.2920679622666853],[117.58759576503257,3.2920931612704294],[117.58769190345868,3.2921253057382955],[117.58787760266932,3.2920246671047266],[117.58793467634428,3.2918810183943492],[117.58784881537065,3.2916656478514028],[117.58780259921059,3.2916269868959489],[117.58767725979772,3.2915221358379654],[117.58761995229906,3.2912636643866335],[117.58764195960885,3.2911601443252607],[117.5877992708198,3.2909143722005751],[117.58789085507897,3.2907712864657697],[117.58772567210212,3.2906440449867205],[117.58780711021006,3.2905232723311997],[117.5878386961989,3.2904764284444923],[117.58850575483677,3.2908709709186041],[117.58874880381427,3.2910471759864208],[117.58882739736657,3.2911041543333113],[117.58902372836246,3.2908586969713269],[117.58843857098327,3.2903933607650515],[117.58717723584084,3.2894715205942475],[117.58729603808172,3.2892106362618847],[117.58727570980625,3.289037848617852],[117.58769458074039,3.2883881253117693],[117.58724189439795,3.2880473092359921],[117.58742039183767,3.2878497335784118],[117.58755738196771,3.2879394121741825],[117.58795705237617,3.2875338161327363],[117.58804315256953,3.28757254633598],[117.58817402820887,3.2873881637328282],[117.58846464502744,3.2875124572341861],[117.5889815726415,3.2877491147299338],[117.58932198672039,3.2875047689299777],[117.58948640977007,3.2876722208962974],[117.59010347059871,3.2880955155956144],[117.59024390603145,3.2879685735908311],[117.59051075017101,3.2881622947541587],[117.59064416279796,3.2882435961651026],[117.59069654291113,3.2882220232278314],[117.59094649238682,3.2880351755829338],[117.59097027315966,3.2879753230027973],[117.59071330177755,3.2877243033339596],[117.59076144968117,3.2876714501773563],[117.59084048390127,3.2875620926165539],[117.59087566987637,3.287513406918265],[117.59100416231229,3.287326632118436],[117.59117553802071,3.2871685546850813],[117.59136726178974,3.2869949225776622],[117.5915783317746,3.2868037707774533],[117.5916039822381,3.2867805421882963],[117.59176233216601,3.286621201207538],[117.59193243623304,3.2864500341418079],[117.59230375641334,3.2861195009143103],[117.59253576891069,3.2859443948179887],[117.59264654110507,3.2858607920419445],[117.5928088786269,3.285783387393451],[117.59291795739784,3.2857313778009143],[117.59323226595632,3.2856450222000717],[117.5933044671275,3.285616385088133],[117.59333361775236,3.2856048234039008],[117.59351470973616,3.2855329981493924],[117.59370369417024,3.2854580423548327],[117.59383258860316,3.2853965826861895],[117.59399848294368,3.2852496811279366],[117.59410541773093,3.2848546791001922],[117.59425566746518,3.2845995027648769],[117.59429574575211,3.2845314348778629],[117.59493843276255,3.2839924990546479],[117.59507102700638,3.2839172617722738],[117.59560997991673,3.2836114473104772],[117.59569168332462,3.2835409746363098],[117.59580992258986,3.2834389897176379],[117.59595989443369,3.2833311906819631],[117.59603133118105,3.2833167862407322],[117.59615279991181,3.2833382548566306],[117.59622426633689,3.2833741162225465],[117.59653867202212,3.2834529148202023],[117.59658866983136,3.2834313427823076],[117.59663863526487,3.2833523256493322],[117.5966671239886,3.2832015138388329],[117.59675682776549,3.2830787446883392],[117.59684559085144,3.282957264266372],[117.5969955492053,3.282827921071771],[117.59700375372029,3.2828155347091865],[117.59709548277033,3.2826770669930738],[117.59724545731206,3.2825764472452761],[117.59755967863634,3.2823464762089429],[117.59778735460281,3.2820813317881061],[117.5984140246876,3.2816447280218313],[117.59887136502152,3.281272167676434],[117.59901743021032,3.2809780291128163],[117.59908158964367,3.2807410271767026],[117.59916715563975,3.2804609288288589],[117.59935993341423,3.2802525729978811],[117.59951703508318,3.2801232262059443],[117.59974562835816,3.2800728228025946],[117.59998854873265,3.2800870383861707],[117.60028152357347,3.2801730306608761],[117.60053283821992,3.2804466727757813],[117.60087819587216,3.2805182723004691],[117.60111637412137,3.2805660002208015],[117.601205063463,3.2805416321906478],[117.60137829357348,3.2804940346720173],[117.60147865791384,3.2804524284368881],[117.60178304695012,3.2803262409632907],[117.60217384374801,3.2800193032483094],[117.60227102268959,3.2799429768869004],[117.60270522976259,3.2794993224358109],[117.60304453317872,3.2791526346863975],[117.60409196906915,3.2784578688356305],[117.60439902369603,3.2783672117774358],[117.60547298509027,3.2780501270117952],[117.60654463612616,3.2780255404463787],[117.60697349043426,3.2783364405743214],[117.60728335724116,3.2787910280835035],[117.6074503784323,3.2793175082964012],[117.60750751505986,3.279364434920808],[117.60771247145351,3.2795327682227366],[117.60837933044184,3.2796041680979329],[117.60892701307125,3.2795080908258001],[117.60910376762479,3.2794572170769811],[117.60924511766814,3.2794165326469056],[117.60942703702824,3.2793641723187648],[117.60997490941463,3.2795792568772413],[117.61041559880096,3.2797704716300018],[117.61072878590483,3.2798096236152787],[117.61090218778577,3.279831300873866],[117.61098719800088,3.2798419281625115],[117.6112753812539,3.2797512207422983],[117.61136816341002,3.2797220170575088],[117.61171330342631,3.2794345784431016],[117.61188637345742,3.2791812331274741],[117.61197503312133,3.2790514492650118],[117.61210126646029,3.2787791444420122],[117.61214151831643,3.2786923139991586],[117.61216850157518,3.2782909312815036],[117.61217692102809,3.2781657096797971],[117.6120718199586,3.2777092407888517],[117.61206947003006,3.2776990343829766],[117.61208112974043,3.2772921217340922],[117.61212495190512,3.2770844907566925],[117.61214270632092,3.2770003726691357],[117.61219916575897,3.2767328657292296],[117.61219986273352,3.276729564317975],[117.61227101619454,3.2762508102267702],[117.61227254863923,3.2761989247406405],[117.61227990959026,3.2759497127091208],[117.61228457887023,3.2757916730473084],[117.61229435000428,3.2754609230831875],[117.61229566121585,3.2754349155889031],[117.61230281712142,3.2752929872816026],[117.61231740682297,3.2750035953396832],[117.61231788166492,3.2749941659480442],[117.61224791890641,3.2747719650541853],[117.61217471768919,3.2745394786140878],[117.61194830976672,3.274264358913058],[117.61169810398439,3.2740131890574844],[117.61166365545341,3.2739514488003465],[117.61153122038957,3.2737140970280052],[117.61151732046801,3.2735821457994234],[117.61148456805847,3.2732712501681362],[117.61145936186017,3.2730319783431696],[117.61143533017639,3.2726729599891655],[117.61154231532566,3.2723737006857618],[117.61157407758162,3.2723624123954664],[117.6117446960609,3.2723017702105608],[117.61206611286093,3.2721699269006308],[117.6121201783036,3.2721469447257618],[117.61260180482952,3.2719422122633546],[117.61266338680593,3.2718270972428058],[117.61278581601266,3.2715982377685009],[117.61285237124002,3.2714738246573347],[117.61289522843208,3.2713937130494628],[117.61293483097768,3.2713196826572926],[117.61300583065463,3.2705896058257053],[117.6130654736927,3.2703056754666022],[117.61314458885181,3.2699290465882882],[117.61321954464631,3.2695722153854945],[117.6132438398314,3.2694327170462998],[117.61326249356932,3.2693256068913001],[117.61337380086024,3.268686504578568],[117.61341323882993,3.2685036337357474],[117.61349254014863,3.2681359162396006],[117.61352954635151,3.2679368746870523],[117.61363496218382,3.2673698908078563],[117.61384897295181,3.2668431776705802],[117.61397393195148,3.2660522527093576],[117.61397945109081,3.2660173221417494],[117.61419345376498,3.2654786417259629],[117.61428050094446,3.2651277748270218],[117.614383504795,3.2647125884152501],[117.61458538101056,3.2638148824509017],[117.61467517561891,3.263422697099827],[117.6146897194551,3.2633591806816753],[117.61470677779562,3.2632846772461335],[117.61471639964225,3.2632426528261931],[117.61472789027994,3.2631924706560653],[117.6147626571709,3.2630799079114468],[117.61482496310168,3.2628781872785453],[117.61484064368085,3.2628274196497387],[117.61489426395917,3.262653819018567],[117.6149646493991,3.2624631861272064],[117.61499872381216,3.2623708976988155],[117.61502779619593,3.262292160255015],[117.61514918218904,3.2619633977926128],[117.61517555570742,3.2618919682398086],[117.61519360600016,3.2618430810933887],[117.61523900467637,3.2617201212866007],[117.61531689675746,3.2616025331304286],[117.61554830760838,3.2612531887836553],[117.61567465426197,3.2609756750873657],[117.6158067089126,3.2606856221437965],[117.61580991679432,3.2606785759555805],[117.61587415536803,3.2605698389269833],[117.61600155602707,3.2603541832989436],[117.61607160512051,3.260235607687207],[117.61613518988713,3.2601669390530219],[117.61625150820055,3.2600413208503483],[117.61633581694446,3.2599502698890888],[117.61655947833731,3.2597087263766866],[117.61687664404189,3.2591127951194494],[117.61691628525841,3.2590383123682614],[117.61693460984441,3.2590127311526658],[117.61718683370543,3.2586606366791102],[117.61728509273291,3.2585234720806397],[117.61740487613417,3.2582823161760075],[117.61748726572478,3.2581164434191692],[117.61749428583266,3.2580868170530266],[117.61750867318676,3.2580261002244129],[117.61754358037194,3.2578787858773239],[117.61764563543784,3.2574480888582684],[117.61767729157384,3.2573144873737192],[117.61796617090215,3.2570237797236814],[117.61809378559974,3.2568953583341909],[117.61824000457261,3.2565923119856848],[117.61829595139704,3.2564763623942667],[117.61840745923689,3.2562876081865966],[117.61844064961633,3.2562314239411307],[117.61853798144273,3.2560666681422958],[117.61855763792471,3.2560333941258932],[117.6187717925842,3.2556661640622906],[117.61879632788828,3.2556240919782908],[117.61882326977809,3.2555778920061584],[117.61885754743787,3.2555191150152041],[117.61887879392123,3.2554826798818226],[117.61891185569766,3.2554244442827098],[117.61896175458139,3.2553365508412071],[117.61902108825268,3.255232040626197],[117.61919310697635,3.2549290419418071],[117.61923386784883,3.2548572436668906],[117.61923813603119,3.2548497271332621],[117.61935456675997,3.2546446430358742],[117.61948654137086,3.2543722959447337],[117.61951453187021,3.2543145315904098],[117.61959561204787,3.254147210025792],[117.61964454236181,3.2540462341464149],[117.61970923509318,3.2539127297886807],[117.61975591620262,3.2538163953104231],[117.61983025146503,3.253662994351771],[117.62002980563113,3.2533790576974297],[117.62017525658291,3.2531721030101721],[117.62036468618135,3.2529751200058286],[117.62053224156978,3.25280088175532],[117.62063141790566,3.2525772257583867],[117.62068444643012,3.2524576420066182],[117.62069652702314,3.2524303970452593],[117.62082950887475,3.2521305037197976],[117.62098292062535,3.2519555352198495],[117.62118647227794,3.2517233797302652],[117.62123387374436,3.2516748262323176],[117.62135057696764,3.2515552874465925],[117.62152087708682,3.2513808468486332],[117.6216104972267,3.2512890476514826],[117.62165860645962,3.2512397701992768],[117.62185284922964,3.2510408059884526],[117.62238832895832,3.2504899577454012],[117.62281791801252,3.2499999999001261],[117.6229440461309,3.2498561470436016],[117.62301278581151,3.249777747744929],[117.62309212939829,3.2497680314695003],[117.62315615213481,3.2497601911799165],[117.62326472908399,3.2497468947034918],[117.62345609492286,3.2497799348961394],[117.62347728834629,3.2497809871028949],[117.62365662125615,3.2498259307221815],[117.62371546479687,3.2498406778050821],[117.62395957407512,3.2498644621752533],[117.62432869271504,3.2498642328480969],[117.62445223708119,3.2498500982035239],[117.6246442072644,3.2498281340612039],[117.62492394678281,3.2497022982225303],[117.62522148568303,3.2494807097669991],[117.62527033775598,3.2494090086188976],[117.62542657607571,3.2490881556938689],[117.62571102264565,3.2486626036962321],[117.6258185509854,3.2483377056206564],[117.62587215777387,3.2479200316841457],[117.62582564124045,3.2473554741758335],[117.62590234171978,3.24695325418935],[117.62604076177183,3.2468139537010643],[117.62642538922034,3.2466280971090669],[117.62662523476683,3.2462722047984585],[117.62667109929191,3.245777195461244],[117.62687073529628,3.2450810041850673],[117.62708585582766,3.2445394837102413],[117.6274242653177,3.2442763150999099],[117.62797825219468,3.2442140973028017],[117.62822443800746,3.2441366018227882],[117.62824719625121,3.244119424771668],[117.62817493842272,3.2439801944304918],[117.62832249558676,3.2438364899620638],[117.62836287874393,3.2437915706245235],[117.62841292691508,3.2437359043885294],[117.62838906880052,3.2436641133082276],[117.62822691204246,3.2433051812891449],[117.62826496685477,3.2432285626480848],[117.62864116585718,3.2431277990087892],[117.62912690228472,3.2430173928384534],[117.62952718872884,3.2433618142963496],[117.62961352364528,3.2433123291007746],[117.63020236374814,3.2429748171341544],[117.63021278599138,3.2429688429377848],[117.62996971003417,3.2426865556400912],[117.63021722864221,3.2424518325860276],[117.63042210589549,3.242576170154166],[117.6305458759914,3.2424755629969013],[117.63050292796777,3.2423415514215321],[117.63068859300427,3.2422073959546083],[117.63092421807823,3.2423715456104105],[117.63140160070338,3.2428662275943907],[117.63193228614614,3.2424559901518819],[117.63263582488344,3.2420953197432709],[117.63276305826855,3.2420300937138791],[117.63325189465922,3.2417499000379166],[117.63323005012683,3.2416777492288134],[117.63319245666662,3.2415535843305179],[117.63364959285445,3.2414096829106143],[117.63343973065912,3.2409263179952177],[117.63313023077558,3.2410557637125521],[117.6330062016749,3.2407398939309928],[117.63344429381914,3.2406055801833986],[117.63351094887128,3.2405672411852606],[117.63361572438623,3.2405576013522932],[117.63413931597677,3.2400546267197115],[117.63408685042782,3.2399349818140308],[117.63427254244391,3.2398439101683607],[117.63479700098083,3.2407339808885354],[117.63545424801521,3.2407096317441528],[117.63549722391781,3.2408867271407757],[117.63527339974769,3.240929952155625],[117.63532166186531,3.2412363790556924],[117.63555571492441,3.2411543878647535],[117.63598568439193,3.2410491456016643],[117.63609426583776,3.2410225688365131],[117.63646709777845,3.240975486629452],[117.63650580010267,3.2409705997134779],[117.63660830932611,3.2409576548719201],[117.63665060444191,3.2406271774023594],[117.63679334933363,3.2404068803732571],[117.63728847378411,3.2400810452041355],[117.63781303574308,3.2398697629792537],[117.63800270815852,3.239793367370055],[117.63805019685913,3.2395731305955451],[117.6390216616204,3.2393523101610526],[117.63897372775534,3.2388640556317227],[117.63908802259425,3.2388448353209469],[117.63920267086667,3.2393904908785203],[117.63949791379775,3.2393137112588306],[117.63946905545265,3.238863742667661],[117.64018340224231,3.2387579734017891],[117.64018919567491,3.2395152709130457],[117.64066542536909,3.2394431623720834],[117.64076095945074,3.2398859058099561],[117.64097349982717,3.2398676666595634],[117.64100464874559,3.2398649938743915],[117.64115883211446,3.2398463779080657],[117.64121383105351,3.239839737314071],[117.64215477642188,3.2397261232620167],[117.64217484299468,3.2397237013877316],[117.64274178190772,3.2397334860116302],[117.64282031880271,3.2390468572267537],[117.64316562519355,3.2390586050706247],[117.64324829537259,3.238601879872931],[117.6435864926226,3.2386686842124277],[117.6435771702503,3.2389894238228862],[117.64376169764432,3.2390721956253969],[117.6436633891542,3.2397648777469499],[117.6440540321679,3.2399178146554846],[117.64403749723272,3.2401486742219845],[117.64421942738477,3.240228536717666],[117.64440252845395,3.2403235788701181],[117.64466586883486,3.2404602731231762],[117.64480082469834,3.240505392110208],[117.64480629707305,3.2405072213312565],[117.64512765181973,3.2406146579401707],[117.64562019431662,3.2407380880923142],[117.64563777516321,3.2407411808608799],[117.64614937699218,3.2408311778166308],[117.64618966931789,3.2408382662730446],[117.64630777458422,3.2408304061983131],[117.64644305060631,3.240821403085306],[117.64665902819161,3.2408070292210596],[117.64678981389886,3.2407682738368067],[117.64696682296062,3.240814564640516],[117.64720540500548,3.2408840183828147],[117.64739782215179,3.2409612359722928],[117.64751320786831,3.2409070230407337],[117.64762089089152,3.2408373480652131],[117.6477342684218,3.2408217340358192],[117.64779016038767,3.2408140367384703],[117.64809554587282,3.241068097015102],[117.64869749899049,3.2420969331270157],[117.64923380339735,3.2428685046778014],[117.64934651003352,3.2430336112122404],[117.64945428658609,3.2431914907946862],[117.64973430219641,3.2435084550511988],[117.65009163162358,3.2436997075755016],[117.65021236920552,3.243752891682675],[117.65057995180337,3.2439148119190691],[117.65074104916016,3.2439754127351534],[117.65096106560077,3.2440581782423692],[117.65144717524697,3.24436491271058],[117.65166305390687,3.2446244237781912],[117.65186328166521,3.2448795182751837],[117.65207124269375,3.2451964789344174],[117.65224830301679,3.2453201087360526],[117.65247918596572,3.2453818319060588],[117.65257926162371,3.2454513728825987],[117.65276413975334,3.2457683488302678],[117.65291839776592,3.246332834392831],[117.65301095868881,3.2466808063741723],[117.6533036979074,3.2472065302571878],[117.65365036137518,3.2478250291018753],[117.65388151322134,3.2483043884368499],[117.65395881894437,3.2488611892924837],[117.65406681133436,3.2492710229394106],[117.6542748443087,3.2496962601742894],[117.65441576087869,3.2499999999001261],[117.65448289167216,3.2501446981193567],[117.65491844862754,3.2507625008887544],[117.6553476401815,3.2515999576719423],[117.65565768595354,3.2523178163142461],[117.65599190100545,3.2535861706653009],[117.65615931160301,3.2546870874392084],[117.65617932871316,3.255074500088142],[117.65618342692369,3.2551538112994081],[117.65603433101967,3.2554727909366079],[117.65599317804276,3.2555608354642231],[117.65557666423172,3.2559201380040008],[117.65494585546696,3.256327450851245],[117.65454774628154,3.2564947364429599],[117.65432635927414,3.2566241308989561],[117.65416934843677,3.2568755552626953],[117.65413379823622,3.2571412608605215],[117.65404107633469,3.2573782816824064],[117.65394839130522,3.2576727466999387],[117.65387705977855,3.2578451287497501],[117.65376999818693,3.2580031720088414],[117.65364872101168,3.2582761153504975],[117.65359888777846,3.2585490110280944],[117.65355205918024,3.2587898818476333],[117.65354411277065,3.2588307542359871],[117.65352768215689,3.258915268924568],[117.65352027444112,3.2589446677622504],[117.65341366520852,3.2593677223425743],[117.65318532734102,3.2597987080440021],[117.65303552007322,3.260143475740847],[117.65285709368004,3.2604236361419225],[117.65277149710698,3.2606319299196684],[117.65275731479835,3.260797093111421],[117.65277623203758,3.2610800683904699],[117.65278790523769,3.2611344351061575],[117.65283923224479,3.2613734767046481],[117.6528434302802,3.2613930288652568],[117.65285890941118,3.2617254209914108],[117.65286516509536,3.2618597554234157],[117.65286529279911,3.2618610630376565],[117.65289393170963,3.2621541413006412],[117.65290942612921,3.2625560977857049],[117.6529229951002,3.2629080870386247],[117.65292891713591,3.2630248747981909],[117.65295025714875,3.2634457107510002],[117.65297725389723,3.2639781408785211],[117.652980886259,3.264049769181554],[117.65300330725688,3.2642958794513106],[117.65302405821376,3.2645236606384742],[117.65301718739329,3.2649473222611505],[117.65301761367198,3.2656079381558811],[117.65305586543593,3.2658364972566005],[117.65307575664087,3.26616875718247],[117.65308211035119,3.2662748609960772],[117.65308595675151,3.2663391202542584],[117.65314562137337,3.2665365493223248],[117.65313975239769,3.2666681965800421],[117.65311010444782,3.2668537150269685],[117.65312811966703,3.2670930578983643],[117.65324560440115,3.2678572765921103],[117.65324769532492,3.2678708797373588],[117.65334331843951,3.2685821931137866],[117.65334341286825,3.2685828963836343],[117.65346320526282,3.2696958128115625],[117.65357683100603,3.2704796232360991],[117.65366655816524,3.2711318043893129],[117.65363484627119,3.2717364150036019],[117.65362472530092,3.2719293888303014],[117.65343222541696,3.2725326684479228],[117.65349187115294,3.2730838314537323],[117.65352805717419,3.2734182128802445],[117.65369531668557,3.2742797759909195],[117.65383896359731,3.2754525126234171],[117.6539830170027,3.2772475693199112],[117.65412722599069,3.2792819787803182],[117.65419985164192,3.2811010158991962],[117.6543439859862,3.2830157489776752],[117.65441631396175,3.284374031036748],[117.65448814820957,3.2849723679804583],[117.65416713160789,3.2857145739684483],[117.65425070200831,3.2860496136987649],[117.65435803159789,3.2863008635940218],[117.65441738325569,3.2863276597936988],[117.65459625031679,3.2864084162154654],[117.65486072834005,3.2864168167827188],[117.6549653869431,3.2864201406770235],[117.6553345631396,3.2864917042288084],[117.65556087303594,3.286599263145547],[117.6556324896477,3.286862504600947],[117.65560890222912,3.2872095826561463],[117.65552653332293,3.2872623413840074],[117.65534704842764,3.2873773017211647],[117.6552643899397,3.2874235268743064],[117.655132793044,3.2874971201960079],[117.6550495428022,3.2876527550706101],[117.65513344145518,3.288490435785036],[117.65530158230229,3.2906923754528066],[117.65548892997015,3.2925814886448279],[117.65554131188208,3.2931096847642038],[117.6559714072547,3.295287515406585],[117.65613898872346,3.2966277822463894],[117.65647368671137,3.298590255835677],[117.65675868546498,3.3002877037146163],[117.65695185804191,3.3014382423810389],[117.65716743722749,3.3033289878425762],[117.6571767506066,3.3033832367470382],[117.65739516265671,3.3051652190996492],[117.65737851080974,3.3051939542376658],[117.65734637803303,3.3052203043736199],[117.65728804170976,3.3052382944118222],[117.65721303285522,3.3052515090499242],[117.65713683419756,3.3052671167840799],[117.65707406691467,3.3052850537622476],[117.65696637759629,3.3054114939453143],[117.6569666770705,3.3058662649162329],[117.65701462262678,3.3063449389678112],[117.65725431443514,3.3074655167202422],[117.65730128782423,3.3076851257679891],[117.65735950273893,3.3079330499703019],[117.65754310203261,3.308714952932803],[117.65758787567995,3.3089056361861822],[117.65767807768123,3.3096045739919191],[117.65768782183557,3.3096800756749758],[117.65773094432768,3.3100142088886741],[117.6577793773165,3.3103894968778036],[117.65773301007039,3.3123043522641069],[117.6577809124592,3.3128774839087782],[117.65782902888668,3.3134531831179288],[117.65781715064099,3.3143295769484666],[117.65780632100495,3.315128670451827],[117.65787693757068,3.3159386214702522],[117.65788386145107,3.3160180217143989],[117.65789217658278,3.3161134047098813],[117.65795030516256,3.3167801090148714],[117.65795396630256,3.3168953913092878],[117.65795950612642,3.3170698364039026],[117.65798327880532,3.3178184689472232],[117.6579868895833,3.317932181924732],[117.65801729116515,3.3188895210346345],[117.65802327075744,3.3190778498629356],[117.65796213574401,3.3195858615982843],[117.65791558233832,3.3199727130702854],[117.65781010265414,3.3208492040275814],[117.65767252796491,3.3218740372570892],[117.65762051297634,3.3222615128585744],[117.65728820268851,3.3239372061372023],[117.65724481939299,3.3247315692066195],[117.65721761220311,3.3252297603452234],[117.65709929379739,3.3263787332919605],[117.65729100857322,3.3281737522169124],[117.65762557166283,3.3298968703443279],[117.65807926524599,3.3316917130022148],[117.65830864812563,3.3330692387544332],[117.65836620024004,3.3334148608072383],[117.65865315322048,3.3351619449678083],[117.65869624423635,3.3357625760820611],[117.65872526985538,3.3361671792719676],[117.65889249159522,3.3369329951616464],[117.65941688897828,3.3376028309059507],[117.65985459531339,3.3380245661808203],[117.66001267274669,3.3381768762618549],[117.66046567205319,3.3389185642403731],[117.66065698393277,3.3400912631013853],[117.66065797588499,3.3415752496980531],[117.66072560040618,3.3421327987896916],[117.66084956115833,3.3431548486174165],[117.6608038845917,3.3460749832739225],[117.66066188613718,3.347415454259874],[117.66070763375035,3.3482330899851718],[117.66075830515172,3.3491387279699438],[117.66089113681653,3.3494769342132145],[117.66114394703561,3.350120616773097],[117.6613785882513,3.3507180364082956],[117.66156990642605,3.3518907352692509],[117.66214267204668,3.3536376197803861],[117.66254843716069,3.3549537829907194],[117.66285885615139,3.3561503354696356],[117.66335998537511,3.3576100439684069],[117.66402762227699,3.3587584809192208],[117.66452859411936,3.3599788366540224],[117.66505302567668,3.3606726006600525],[117.66563358662074,3.3609993828152938],[117.66580796246751,3.3610975339241236],[117.66602987557837,3.3612224434610312],[117.66664925126202,3.3614374362887247],[117.66750687444278,3.3617719400230612],[117.66805502921625,3.3623220742044282],[117.66824634289446,3.3634708340118209],[117.66829487301004,3.3647872382405239],[117.66820056920096,3.3661994814210061],[117.66805874521503,3.3677793042715507],[117.66790392872338,3.3685730728890348],[117.66777393981556,3.3692395487661884],[117.66720357898203,3.371059019358313],[117.66684732244607,3.3725193133157063],[117.66651478283097,3.3738359801463957],[117.66611082715303,3.3752005664530316],[117.66608798797029,3.376636694727722],[117.66575533414141,3.3777858160626124],[117.66550929042148,3.3783225251644353],[117.66482399982783,3.3785325681235463],[117.66470462292011,3.3788244907576654],[117.66465755780007,3.3789395823958444],[117.66462207684742,3.3792986358234316],[117.6646699801355,3.3796935353284425],[117.66478987145547,3.3808782491319676],[117.66483768481135,3.3811415049765401],[117.66494492626737,3.3812371721577961],[117.665163982232,3.3813633056720391],[117.66546951430666,3.382134385293682],[117.66573309570583,3.3826019122485036],[117.66578280663123,3.3831472890162217],[117.66565225025124,3.3836924940134168],[117.66540027190513,3.3839887909500135],[117.66520741768829,3.3840822709800591],[117.66484185676632,3.3841605659574157],[117.66484803600815,3.3844896719608641],[117.66486362665512,3.3845425700835676],[117.66492562231963,3.3847529071210261],[117.66492282632748,3.3850384067970936],[117.66492005461691,3.385321373982265],[117.66483713982223,3.3859736684501058],[117.66487935399903,3.3867575193440871],[117.66491741960328,3.3872268989023269],[117.66492739308478,3.3873498838900673],[117.6650172218674,3.3881037828633112],[117.66509098066433,3.3884380230963416],[117.6651426503131,3.3886721597924065],[117.66555426191974,3.389790849867893],[117.66575690975367,3.3900839173389841],[117.66579056058595,3.390103777967056],[117.6658581743153,3.3901436853828386],[117.66596895280497,3.3901565187084088],[117.6660618401819,3.3901564548565375],[117.66624754568772,3.3900557991358937],[117.66631888530833,3.3898905963739594],[117.66653190862075,3.3896381081122513],[117.66669232429138,3.3896809778948409],[117.66688310736959,3.3900398748403973],[117.66714573638671,3.3909731669781422],[117.66709051081853,3.391251818316789],[117.66705428342846,3.3914346118179424],[117.66702782177663,3.3915681242695541],[117.66778913386145,3.3922570921910733],[117.66808076511529,3.3925210099367291],[117.66812452702538,3.392560614280967],[117.66824357208327,3.3933939467733012],[117.66828110528888,3.3946514121329869],[117.66835336671454,3.3958289772255625],[117.66847534446163,3.396568492442043],[117.66854825789585,3.3967166683395931],[117.66851888783651,3.3973868746046492],[117.66851905061378,3.3976238342725651],[117.66855135875824,3.3978500002773444],[117.66860511393497,3.3980236395793781],[117.66861580957197,3.3980581924316766],[117.66868456544046,3.398152485448918],[117.66872308969891,3.3982053188204304],[117.66886963422633,3.3983021551204047],[117.66895972830889,3.3984168762378886],[117.66903519311973,3.3985129687985136],[117.6691042997237,3.3990379741232459],[117.66889155879846,3.401383772942836],[117.66865495166473,3.4036577833800266],[117.66817998731665,3.4056686710723625],[117.66770490605666,3.4075120123695228],[117.66713461806819,3.4094511611422149],[117.66665941809777,3.411126957842896],[117.66627907591862,3.4122043069832557],[117.66601770685179,3.4131140260914776],[117.66594727464712,3.4145980594529419],[117.66578098010825,3.4152204901335494],[117.66576780324158,3.4152285633475685],[117.66573245269058,3.4152502199217452],[117.66523340000151,3.4155559642364324],[117.66447150785382,3.4159633921968293],[117.66306684595827,3.4168260353932851],[117.66135238380548,3.4174495380657959],[117.65978067913511,3.4178575218072069],[117.65944623925259,3.4179608413198252],[117.65939480432678,3.4179767314410583],[117.65916277114502,3.4180484128040689],[117.65867000471701,3.4182006437447399],[117.65850054816178,3.4182529950796834],[117.65822786562353,3.4183372345757448],[117.65799470918853,3.4184092639764003],[117.65595794710168,3.419146769208055],[117.6558754307066,3.4191766482837238],[117.65578200643449,3.419215239991388],[117.65548373998263,3.4193384471116701],[117.65518321083653,3.4194625886275958],[117.65494678896323,3.4195602487065457],[117.65447036411604,3.4194648351340788],[117.65444223062445,3.4194501087355889],[117.654227679364,3.4193378040964149],[117.65410683386335,3.4192745493809866],[117.65392235593208,3.4191779855756295],[117.65384694508055,3.4191696182833198],[117.65375246320571,3.4191591339869092],[117.65340859393154,3.4191209757524916],[117.65327922105928,3.4191066198746398],[117.65275541902747,3.4193942005819622],[117.65224565361405,3.4196873912601404],[117.65179236112863,3.4199481020233407],[117.65175545115324,3.4199693314195656],[117.6517357362153,3.4199834112055214],[117.65172724661522,3.4199894744347716],[117.6516225988039,3.4200642125933882],[117.65156878157404,3.4201026487182844],[117.65149956705147,3.4201520817532014],[117.65104281037748,3.4204782946376326],[117.65097896570671,3.4205238920640113],[117.65093125757153,3.4205579646783804],[117.65052320278369,3.4208493962826765],[117.65049625729648,3.4208686408751419],[117.65042352912258,3.4209205830185283],[117.64990247092237,3.421292718883933],[117.649541438087,3.4215505671050437],[117.64868318987737,3.4219698400361267],[117.64859103814592,3.4220148582991214],[117.64792234004403,3.4223415307371283],[117.6470651988999,3.4228623892879],[117.64666049408663,3.423108316095977],[117.6456366510107,3.4236116504573602],[117.64406519725117,3.424426512673449],[117.64232696511738,3.4251696791374115],[117.6410412916224,3.4259364743888341],[117.64024317208475,3.4260326820626688],[117.64021947404956,3.4260334788619957],[117.6400957651075,3.4260376382264894],[117.6398073084606,3.4260473356160901],[117.63953722586234,3.4260305551660508],[117.63946430973022,3.4260260243815424],[117.63939572113566,3.4260019522283756],[117.63932136698759,3.4259758557012105],[117.63911429089183,3.4261914133031155],[117.63891428436682,3.4262920753190542],[117.63891034083963,3.4262951608930052],[117.63885225632669,3.4263406297163215],[117.63875505939859,3.4264167141600979],[117.6386734216411,3.4263899611278248],[117.63850702008301,3.4263354307356053],[117.63832997504835,3.4262251648595452],[117.63829971466021,3.4262063186667433],[117.63827527558351,3.4262069994534841],[117.63818581732164,3.4262094887769194],[117.63803533736098,3.4262136769197014],[117.63769959436081,3.4263575135884139],[117.63747104335403,3.4265156395851477],[117.63691577764109,3.4269961842265957],[117.63542154686695,3.4279986729004577],[117.63397574638361,3.4287086004216007],[117.63382570259421,3.4287822746823053],[117.63376791126018,3.4288106518901031],[117.6335954185937,3.4288953500404205],[117.63346907643677,3.4289573879731279],[117.63235002393446,3.4295804499778342],[117.63089752709925,3.4302276668733498],[117.63020460665734,3.4306151145959234],[117.62961180504078,3.4309465786217288],[117.62808797398088,3.4317853241334433],[117.62761914300916,3.4320168294132145],[117.62745698894889,3.4320968987529454],[117.62679030712707,3.4324563694659105],[117.62648082163264,3.4326959272752902],[117.62606395258945,3.4326243951997526],[117.6259330139975,3.432720223359695],[117.62538547705822,3.4331633867809046],[117.62505224406584,3.4335106698815707],[117.62483794821276,3.4336185201785838],[117.62449092861357,3.4335453423437343],[117.62445072891808,3.4335368653341334],[117.6243853347155,3.4335230751298695],[117.62401617920341,3.4335711879600126],[117.62355181876148,3.433727071946862],[117.62306378906271,3.4341103576069827],[117.62277816078358,3.4344097383188341],[117.62219479215605,3.4346973451064287],[117.62182575985105,3.4349369397879741],[117.62149255743566,3.4353320911031915],[117.62124260076553,3.435547672986786],[117.62110382817923,3.4355431152226288],[117.62097182928653,3.4355387795910701],[117.62088531540508,3.4355359386327109],[117.62059954683173,3.4356198993389171],[117.61987352864048,3.4363144997144559],[117.61937373221201,3.4369251789539135],[117.61921923587909,3.4374279242593389],[117.61911244498344,3.4380383462926716],[117.61889826963954,3.4383376784411439],[117.61864830577474,3.4385412921469651]]]]},"properties":{"OBJECTID":522,"nama_kawasan":"Kota Baru Tanjung Selor dan Kota Tarakan, Kota Tarakan","delineasi_asal":"Kota Tarakan","Shape_Length":0.72304514969396361,"Shape_Area":0.020423822193063577}}]}