{"type":"FeatureCollection","features":[{"type":"Feature","id":548,"geometry":{"type":"Polygon","coordinates":[[[124.32117631903191,0.77456332463776789],[124.32105211816076,0.77451776498293157],[124.32053224077038,0.77452761076068555],[124.32001301179116,0.77417157725653851],[124.31662584930359,0.7718490106233844],[124.3163900056943,0.77097394509155492],[124.31633653830067,0.7707755591447949],[124.31610729931242,0.76992499384346047],[124.31526081873187,0.76678423570393761],[124.3148555563389,0.76528055575306553],[124.31378611134005,0.76465833281582718],[124.31361496226077,0.76453961870851117],[124.31361260064102,0.76453798104301995],[124.31354951769617,0.76449422542822276],[124.31326861895161,0.76429938370961281],[124.31267017678726,0.76388428633077865],[124.31217222217037,0.76353888910847445],[124.30907360895992,0.76300092815034759],[124.30885706480171,0.76296333289155882],[124.30849281329279,0.76290009436388573],[124.30726907880501,0.76268763672510431],[124.30535239419771,0.76235487497751819],[124.3041083332331,0.76213888929834184],[124.30413061393676,0.76195606791822001],[124.30443050276551,0.75949537531136002],[124.30471401583918,0.75716905580731009],[124.30514999997263,0.75359166692192048],[124.30601388873004,0.75242777781971881],[124.30597189668572,0.75242843162686768],[124.30349958303941,0.75246694329484853],[124.29955211773608,0.75252843174177997],[124.29857746487812,0.75254361409656667],[124.29574282067472,0.75258776811108419],[124.29281852575446,0.75152352209289575],[124.29135803934207,0.7509920029785917],[124.28870368402784,0.75002599710211371],[124.28501864359555,0.74868489119484138],[124.28326216871415,0.74804565218516927],[124.28092481992451,0.74719501493802909],[124.27978277265686,0.74677938695919011],[124.27902591671273,0.74650394170362233],[124.27556057705908,0.74524279182145392],[124.27310007600772,0.7443473359608106],[124.27025277834309,0.74331111101901115],[124.2696424300542,0.74310591180841357],[124.26959336124469,0.74327521008291342],[124.26955179907634,0.74342180407302294],[124.26947457878885,0.74357439114527324],[124.26937951685125,0.74368809512952794],[124.26928741907921,0.74377487431104328],[124.26915965509409,0.74384371471569466],[124.26903188481367,0.74388862416071788],[124.26886250470091,0.74391260458310171],[124.26866340289382,0.74391864622856474],[124.26839297315723,0.74390077490090789],[124.26813443515607,0.74390085044393572],[124.26786103405959,0.7438859720600135],[124.26760027922955,0.74387876579243084],[124.26745289833264,0.74390625986603709],[124.26734521081289,0.7439263489218888],[124.26721241332223,0.74396528866719791],[124.26709723265128,0.74403097694806775],[124.26700927805575,0.74406997424995325],[124.26693417836975,0.74415614998639512],[124.26689615413432,0.744204982274141],[124.26687239224714,0.74424806609539473],[124.26684293405424,0.74432082844350589],[124.26681537972604,0.74440316137685159],[124.26679449836752,0.74454005707804072],[124.26678214258186,0.74470249802192257],[124.26676733884165,0.7448939555916354],[124.26676441424638,0.74505848835860888],[124.26676742607594,0.74519908746793817],[124.26674072340575,0.74534866810660105],[124.26671995086508,0.74545337617240648],[124.26665164825499,0.74561194373626449],[124.26656551478675,0.74577649988560779],[124.26645263727949,0.74594106412882866],[124.2663516407157,0.74608767610538962],[124.266271440075,0.74620735788329284],[124.26619420899556,0.74632703876187634],[124.26610807642669,0.74648860376612447],[124.26603679526193,0.74662623241476922],[124.26596848635666,0.74676984335366114],[124.2659090888335,0.74689849407030806],[124.26584375398613,0.74704509525497542],[124.26577544328211,0.74717973095988555],[124.26571010124019,0.74730539233001991],[124.26565664733641,0.74743404124802737],[124.26561805562881,0.747577643193722],[124.26559731096722,0.74777508665096093],[124.26559144289081,0.74803833889825455],[124.26557069822923,0.74823877439996522],[124.26559454285393,0.748487059230456],[124.26562133545633,0.74864859095976044],[124.26566001979415,0.74883405095073385],[124.26579086395725,0.74914213620064629],[124.26596808166175,0.7494784853438432],[124.26616597927659,0.74982687461061914],[124.26630488406317,0.75005849410428027],[124.26636577715897,0.75017143546341458],[124.26642478077906,0.7503284103279384],[124.26646288145685,0.75054474314543995],[124.26645720403678,0.75064621545055843],[124.2663944907132,0.75081854264169579],[124.26628803076812,0.75097556606954186],[124.26606553579586,0.75106752894333795],[124.26587724383978,0.75105418210489461],[124.26574792043027,0.75107145088679772],[124.26562051257667,0.75113849714398384],[124.26554637066852,0.75125147717398022],[124.26543991521999,0.75142381695565064],[124.26536198626673,0.75159232022946298],[124.26532398811162,0.75173209286185738],[124.26527649761238,0.75192930519330048],[124.26522143572072,0.75225287946688013],[124.26522530910074,0.75249411091454022],[124.26521018430265,0.75280618645638242],[124.26522554112591,0.75329821993693713],[124.265231349847,0.75365623824484373],[124.26526567067424,0.75395681145772642],[124.26528470932192,0.75402381544677155],[124.26540659983482,0.75461197476289499],[124.26555657617507,0.75530834680279213],[124.26559941717937,0.75547705422269473],[124.26562086331228,0.75564576703857256],[124.26561734966106,0.75583243571838921],[124.26558180215852,0.75622014244567026],[124.26553196532802,0.75652169681887926],[124.26543576215079,0.75680172771762955],[124.26533240666527,0.75700996483806193],[124.26512921024494,0.75724335959341715],[124.26488324206798,0.75755574180408303],[124.26351035861626,0.75605733907497097],[124.26341959633737,0.75595827695298112],[124.26340624590159,0.7559437061372023],[124.26238888873627,0.7548333329919501],[124.26079346714482,0.75376469918154498],[124.25917652297824,0.7526816501380722],[124.25744571564735,0.75152233408851998],[124.2557127391517,0.75036156383515618],[124.2556266011868,0.748533939989386],[124.25552816409356,0.74644536166414355],[124.25543813925879,0.74453527987930102],[124.25530555580679,0.74172222210290784],[124.25504882004702,0.73992507268400232],[124.25477777787216,0.7380277783593101],[124.25457699703088,0.73560659207061008],[124.2543055564563,0.73233333321678629],[124.25425541565494,0.7295255427696361],[124.25419444431816,0.72611111103901749],[124.25415815487497,0.7257516771982182],[124.25415110868676,0.72568188710943105],[124.25408286902928,0.72500598903519631],[124.25393705744932,0.72356176236547753],[124.25391902514298,0.72338315520846663],[124.25381917431548,0.72239415636528292],[124.253657362897,0.72079145296322622],[124.25361111076427,0.72033333291705048],[124.25345778984524,0.71728085133025843],[124.25330555620656,0.71425000023737084],[124.25307562923695,0.71244524884917837],[124.25242364593453,0.70732768732295881],[124.25240277806586,0.70716388930208041],[124.25305361203459,0.70727204986525294],[124.25538417543942,0.70765936179014943],[124.25719220845372,0.70795983607763446],[124.25859877331482,0.70819358966247137],[124.26009990908358,0.70844306069875529],[124.26111111128887,0.70861111071423011],[124.26313134293719,0.70974205315326344],[124.26594766974927,0.71131865643087622],[124.27050800593975,0.71387156911765715],[124.27053336412348,0.71388576401682258],[124.2705537121841,0.71385465197067788],[124.27137773309596,0.71259471617327108],[124.27141370867582,0.71253970914028741],[124.27175681802282,0.71201509232270155],[124.27384189798522,0.70882698937413124],[124.2745253917335,0.70778191959993819],[124.27481052808344,0.70734594445980292],[124.27767896161481,0.70623903460381143],[124.2802156712163,0.70526013694581025],[124.28283333329171,0.7042500004372414],[124.28801561902571,0.69909420063692096],[124.28825530813606,0.69858110323536948],[124.28850073761896,0.69805571479946593],[124.28924854728268,0.69645489637639457],[124.289522877379,0.69586764267762646],[124.28964758996437,0.69560067173364359],[124.2897354393391,0.69541261539990273],[124.28959115480802,0.69369344259831678],[124.28991731912902,0.69310296393069848],[124.29002237613179,0.69291277260640527],[124.29074754896033,0.69159993958561472],[124.29138634190622,0.69044348607809525],[124.29153835880822,0.6901682791428243],[124.29117778822445,0.68931565799124428],[124.29100412643936,0.68890501135723525],[124.29052192614608,0.6877647807201015],[124.28982747415864,0.68612265193888788],[124.29025486526984,0.68482328446702923],[124.29048097102009,0.68413586877539956],[124.29061709330426,0.68372202505145196],[124.29125016746127,0.68179734097452638],[124.29147654840403,0.6811090934099866],[124.29204023896591,0.67939534981559291],[124.29312214497111,0.67610611810289356],[124.29396573423128,0.67354142429735475],[124.29382359638191,0.67035483490775505],[124.29375498440504,0.66881656613168161],[124.29366177597024,0.66672686095591871],[124.29352077486396,0.66356552093208165],[124.29348264540783,0.6627106164018528],[124.29344705743586,0.66191270370836719],[124.29340881376584,0.66105525679472521],[124.29337454689789,0.66028696057480829],[124.29335742560477,0.65990310204654179],[124.29335875120546,0.65965469490828355],[124.29335881685597,0.65964227077421356],[124.29344271371031,0.65962070143427809],[124.29356394322144,0.65957041314408116],[124.29360481471053,0.65954854073260094],[124.29367803661216,0.65950935817039635],[124.29369598977814,0.65949443302173449],[124.29378393538036,0.65942132263597841],[124.29388125011963,0.65932981841643823],[124.29399889583249,0.65921491563591417],[124.29414150492653,0.65910359665372198],[124.29426629845102,0.65904612817632824],[124.29440178941115,0.65898865700097531],[124.29454084618317,0.65893118492630265],[124.29468703997497,0.65889524981599834],[124.29478710843841,0.65888323127614967],[124.29483680497458,0.65887726157643556],[124.29485730232273,0.6588741607139923],[124.29497943745116,0.65885568594120514],[124.29506119391908,0.65881298433180291],[124.29507570537953,0.65880540484562289],[124.29517196341544,0.65871922641122183],[124.29526108712957,0.65862586868894368],[124.295360912776,0.65854686864309997],[124.29545004368458,0.65847864067677619],[124.29553917189537,0.65839964422826824],[124.29564256964898,0.65834577124041971],[124.29568145813289,0.65832848806934408],[124.2957632568689,0.65829213387490881],[124.29576379826074,0.65829189285659595],[124.2957649089235,0.65829175346169677],[124.29587790424193,0.65827750370385729],[124.29595919126371,0.65827358625705301],[124.29602767193956,0.65827028484579841],[124.29614892033646,0.65829538222612882],[124.29625079104119,0.65835078046421813],[124.2962808787596,0.6583671418301833],[124.2963593491047,0.65844250591698028],[124.29646991535435,0.65852863039202703],[124.29656264265191,0.65858245211853728],[124.29671091028035,0.65863216124529345],[124.29672312397304,0.65863625585859609],[124.29676561424174,0.65865355611674659],[124.29687290965717,0.65869724158449117],[124.29695684068577,0.65872834643607803],[124.29700842759689,0.65874746332480072],[124.29705424535723,0.65876644081862423],[124.29712968318836,0.65879768686380658],[124.29728438096947,0.6588740330102496],[124.29731870179671,0.65889097084169634],[124.29734541885603,0.65890709838390649],[124.29747919390968,0.6589878512083942],[124.29758976645462,0.6590955144465056],[124.29760216181035,0.6591165181128531],[124.29765754835728,0.65921036776433084],[124.29767897200702,0.65931805438475521],[124.29768802098545,0.65945565785239069],[124.29765953136234,0.65959925440211009],[124.29763103544394,0.65972131218887853],[124.29760322031245,0.65982720466183764],[124.2975989728144,0.65984337177422958],[124.29757405260045,0.66000132600044026],[124.29760079574021,0.66013575126396518],[124.29760261776664,0.66014490816104399],[124.29765257600559,0.66028130383915595],[124.29774175817568,0.6604105112361367],[124.2978279761802,0.66049725984072438],[124.29783449626507,0.66050382039503575],[124.29784874962013,0.66051338018837669],[124.29796289337287,0.66058993857484438],[124.29808232064261,0.66064400311830696],[124.29810554743312,0.66065451709232548],[124.29823035894401,0.66067243338613935],[124.29839084026514,0.66072623712619816],[124.2984978317096,0.66078005435605291],[124.29861196107322,0.66085181935602577],[124.2987474898049,0.66094152583082177],[124.29878279898708,0.66097573694077028],[124.29884379370617,0.66103483409034425],[124.29895437344567,0.66116762528571371],[124.29902214995229,0.66126093984053114],[124.29903704812136,0.66132722976789182],[124.29904487761905,0.6613521131095581],[124.29904592982587,0.66135545499031423],[124.29908282631141,0.66147271669257179],[124.29912209071199,0.66162706463734366],[124.29912983477413,0.66169124115788236],[124.29913638633525,0.66174552333728798],[124.29912267976795,0.66179449142271096],[124.29909719657837,0.66188553159207686],[124.29907845110972,0.66191548261349453],[124.29899382760311,0.66205068668989497],[124.29885124818657,0.66227328688273701],[124.29882758162762,0.66231831683688824],[124.29878709324987,0.66239535546134221],[124.29872929562055,0.66249885393898467],[124.29872293561505,0.66251024295337402],[124.29868017465037,0.66262512594886402],[124.29863384877319,0.66274359903792401],[124.29863143679142,0.66275196902819289],[124.2986017843449,0.66285488924177116],[124.29858398136571,0.66295540646689233],[124.29858756606336,0.66303078943940363],[124.29861254563252,0.66309898772817633],[124.29865891287864,0.66313846167071233],[124.29873738232436,0.66321023566388249],[124.29876235829624,0.66326407537684418],[124.29878377385216,0.66334304394638366],[124.29879806497877,0.66344714227182067],[124.29877590208628,0.66355388100686241],[124.29876601224169,0.66360150910242055],[124.29873429315319,0.66378272339403566],[124.2987339657999,0.66378459308452875],[124.29869120213732,0.66388870669851485],[124.2986448834547,0.66403230774483291],[124.29863065438121,0.66416872140939631],[124.29863197818327,0.66418665389102216],[124.29863781208542,0.66426564224565254],[124.29868774694205,0.66431229457680274],[124.29869401881399,0.66431331171003194],[124.29878169731751,0.66432752369632908],[124.29879829610456,0.66433021536721526],[124.29884275408995,0.66432807228278534],[124.298873179054,0.6643266045891778],[124.29892663475641,0.66431313724154961],[124.29895875584202,0.66430504424243964],[124.29904433532784,0.66429066318357854],[124.299133478827,0.66427269023250801],[124.2992475848082,0.66425830107976935],[124.29933316429413,0.66424392002096511],[124.2993609083793,0.66424121036362749],[124.29944370536282,0.66423312096179643],[124.29952571543947,0.66420797232012774],[124.29954747903298,0.6641900371405427],[124.29956908524514,0.66417223236265954],[124.29960414891241,0.6641433362460134],[124.29961556130922,0.66412348101385987],[124.29962625065104,0.66410488213466579],[124.2996433557563,0.66407512087016585],[124.29966472904403,0.66398896132153595],[124.29966469576914,0.66385973144150512],[124.29963613689824,0.66374127813753603],[124.29960471638458,0.66367630211971118],[124.29957191631092,0.66360847525095323],[124.29955274096631,0.66353134759367549],[124.29954083484176,0.66348346139267278],[124.29954028715463,0.66348125625501098],[124.29953978893013,0.6634792543641197],[124.2995344136823,0.66344360523822843],[124.29952192839437,0.66336079746287169],[124.29952650864152,0.66334541096199473],[124.29954330527937,0.66328899738937253],[124.29954657971098,0.66326669869926036],[124.29955754334605,0.66319207115719792],[124.29961457025627,0.66308436385236291],[124.29969655245395,0.66295152229497489],[124.29976428399459,0.66287253124238532],[124.29986054113112,0.6627827618150377],[124.29991947730207,0.6627459147921968],[124.29996393618671,0.66271812034500499],[124.30007447096011,0.66268219332863509],[124.30012457758721,0.66267096978947393],[124.30019410777197,0.66265539712890131],[124.30020283659167,0.66265344200280651],[124.30023720238501,0.66265445014278157],[124.30032407959266,0.66265699882148965],[124.30047741669944,0.6626641376398652],[124.30062005996786,0.66268563863138752],[124.30074488406922,0.66274663065252071],[124.30079066495728,0.66276710012164131],[124.30087327218382,0.66280403258008391],[124.30092865873064,0.66284537711248959],[124.30098383843347,0.66288656696156067],[124.30110648437676,0.66294501030404263],[124.30111935997058,0.6629511463783615],[124.30127627997638,0.6630228987878013],[124.30137537897065,0.66304567411862081],[124.30139451114781,0.66305007090409163],[124.30140109508454,0.66305158446311907],[124.30155800339924,0.66307667015223615],[124.30156241996974,0.66307708204175242],[124.30171134230466,0.66309098915786535],[124.30186467671354,0.66309094778904409],[124.30199304684174,0.66307655503902652],[124.3021356766202,0.66305138931022611],[124.30228186591546,0.66299750463116425],[124.30243635325519,0.66293660344155114],[124.30244588157223,0.6629328469733764],[124.30245520034725,0.66292659038987267],[124.30257423281466,0.66284665864640147],[124.30269901284919,0.66273893515375448],[124.30275201799134,0.66270032635901543],[124.30280768692523,0.66265977592797753],[124.30281927379053,0.66265133579054236],[124.30290578317545,0.66258832299274673],[124.30306621683246,0.66246264093820173],[124.30324448134775,0.66233695258836178],[124.30344413713726,0.66220049125973901],[124.30355823232662,0.66214302458098473],[124.3035920540301,0.66212416489833004],[124.3037578953107,0.66203169120962002],[124.30384702711865,0.6619706416318536],[124.3039758576997,0.66189247345891999],[124.30405374888142,0.66192638869193843],[124.30442698012109,0.66207571212447647],[124.30453667043105,0.6621517417095788],[124.30462930869567,0.66226580182535599],[124.3046368432158,0.66227604960005237],[124.30469513817013,0.66235533832826832],[124.30478778632732,0.6624706269179228],[124.3049608428687,0.66256380837307915],[124.30515461889058,0.66261773711892147],[124.30525324664006,0.66263189424654456],[124.30535935045373,0.66264712426544747],[124.30552508381561,0.66266915765555723],[124.30559283424202,0.66268742468497521],[124.30569325883687,0.66271450057377024],[124.30583097741771,0.66276721523485094],[124.30600525523835,0.66285672206009849],[124.3061551659282,0.66294377643419011],[124.30631969689659,0.66304063971381311],[124.30645985803608,0.66312402395459458],[124.30660977322248,0.66322948385362679],[124.30677677013193,0.66340485704853336],[124.30682385683554,0.66346708473821536],[124.30694011039782,0.66362071682266333],[124.30697305526235,0.66377895793260677],[124.30697239515996,0.66383771513847023],[124.30697186995587,0.66388444930794321],[124.30691951502365,0.66405988995200005],[124.3068681115742,0.66413901320493096],[124.30679296512335,0.66425468580513325],[124.30679039036431,0.66425865001673401],[124.30667223293722,0.66441202129777821],[124.30656138340123,0.6645739811044109],[124.30654447614677,0.66460937482281679],[124.30648343646146,0.66473715499574837],[124.30641523457552,0.66489051188767689],[124.30639398629353,0.66502801103393949],[124.30638603898456,0.66507943246989498],[124.30638850942228,0.66521437304493247],[124.30641657186732,0.6653259977966286],[124.30645915116895,0.66539077776224076],[124.3065165342108,0.66547808034920308],[124.30665061503396,0.66560807375367403],[124.30681393191753,0.66573070710649063],[124.30691752482403,0.66578342896212916],[124.30706133721105,0.66584472495412683],[124.30721304204826,0.66587916718987117],[124.30725023081357,0.66588761002520869],[124.30739037396665,0.6659022887596393],[124.30743862079578,0.66590450019259606],[124.3075520846611,0.66590969917331222],[124.30757682321189,0.66591083231912762],[124.30779374598467,0.66596965697414134],[124.30797656466677,0.6660775594318693],[124.30818481887434,0.66623576996488509],[124.30827517825696,0.66630441611596325],[124.30846286946587,0.66642090979718205],[124.30847415685696,0.66642710432745389],[124.30861034299301,0.66650183169423372],[124.30874562531039,0.66658521683433491],[124.30890894938852,0.6667004784443975],[124.30907713969827,0.66680716322002809],[124.30924531921619,0.6668660013648946],[124.30938575015227,0.66688553463973221],[124.30940373929116,0.66688803745302039],[124.30953657095608,0.66687818717866776],[124.30966450401377,0.66682785392237065],[124.30976075845228,0.66675299975116786],[124.30983262237771,0.66665975534345989],[124.30983470340891,0.66665556270407933],[124.30989961467549,0.66652479588265123],[124.30992759977892,0.66637758225965626],[124.30992756110811,0.66622914645796527],[124.30992875091124,0.66611015895671244],[124.30993846988451,0.66599607276060624],[124.30998596488041,0.66589546290532553],[124.31011390693129,0.66584759019417561],[124.31020043070532,0.66587577764505568],[124.31030377989555,0.6659532794203642],[124.31032962461256,0.66597265981044984],[124.31040763270619,0.66604255601919249],[124.31046980014128,0.66611123634453406],[124.31052952861489,0.66616642144322213],[124.31065993660684,0.66623141005158004],[124.31074892092602,0.66619432830566438],[124.31099942438402,0.66608993770051939],[124.31104537974056,0.66606716147038014],[124.31125209340939,0.66596470710561562],[124.31146723372592,0.66588460718890019],[124.31174532298837,0.66579261283885671],[124.31193848027669,0.66575004163115636],[124.31213687791467,0.66571711835035785],[124.3122810257488,0.6657265414467588],[124.31239550764667,0.66574436780837232],[124.31242934733655,0.6657496378355745],[124.31262050992871,0.66581161731232896],[124.31280122509656,0.66588097033059057],[124.31298194745898,0.66594295969986206],[124.31303904091908,0.66595831292585217],[124.31316161491668,0.66599127487745591],[124.31340080760128,0.66600593562549193],[124.31353032526431,0.66600274483084831],[124.31369430494829,0.66598482763771472],[124.31388440364242,0.66596479703781597],[124.31402957670366,0.66594267911142424],[124.31417371464522,0.66591109222315481],[124.31434814085412,0.66587950623426195],[124.31453464405865,0.66590172038814899],[124.31454899723849,0.66590342999933227],[124.31473224129991,0.6659426503330792],[124.31475319190633,0.66594713435279118],[124.31500592208567,0.66604983423252406],[124.31509993631312,0.66610272246271052],[124.31518790619702,0.66619631310942395],[124.31519945619004,0.66621536164967665],[124.31528599345393,0.66635808225976234],[124.31532110298656,0.66651051914516302],[124.31533051978772,0.66655140502336963],[124.31543469995154,0.66678744918147004],[124.31553582871561,0.66696854476259659],[124.31558739134505,0.66702652765218318],[124.31561491869365,0.66703437243836561],[124.31570869819791,0.66706109219569498],[124.31580068715209,0.66706615897612664],[124.31602508329104,0.66705185346029339],[124.31643646377188,0.6670008645982648],[124.31678518488843,0.66695396315492417],[124.31691097935823,0.66694077189913514],[124.31717584588864,0.66691299813641081],[124.31725216505538,0.66690499506950118],[124.31762325321063,0.66689126062323112],[124.31775318096459,0.66688645284756376],[124.31780608268468,0.66688449502345293],[124.31808809568918,0.66685796322445867],[124.31847219343706,0.66682427462063742],[124.31871173146135,0.66675196912814272],[124.31897755127306,0.66664911996093679],[124.31904869304276,0.66662039381617433],[124.31922718868384,0.66654832034873834],[124.31955435664827,0.66644002218930609],[124.31957791169134,0.66643222506718303],[124.3198892192122,0.6663507365972805],[124.32005616216225,0.66630271909525618],[124.32026475271618,0.66624272082492553],[124.32040469262256,0.6661732913643732],[124.32052166114579,0.66611331917437155],[124.32060729998693,0.66605967821163858],[124.3207420193288,0.66598814163944553],[124.32086838396879,0.66592396062230819],[124.32100937698124,0.66585978590046579],[124.32113470020636,0.66579561477584548],[124.32129030630267,0.66571040581061425],[124.32147411244046,0.66561362167135485],[124.32161196142295,0.66551999685043484],[124.32171951674241,0.66540851688961311],[124.32183322432388,0.66523016334139129],[124.32185629103503,0.66519398091753601],[124.32197531271061,0.66501835231514406],[124.32199858086983,0.66497832259153711],[124.32200345069873,0.66496994360807093],[124.32222173774312,0.66459440560737448],[124.32231988345598,0.66443455740892432],[124.32237208100685,0.66435042493219498],[124.32241697876066,0.66428311877098167],[124.32246605206672,0.6642063508424485],[124.32251824871821,0.66411695643245139],[124.32255378363027,0.66403641584798834],[124.3225641788938,0.66401285540899835],[124.32266232280801,0.66384880018205195],[124.32274687706683,0.66366792493482762],[124.32284291746669,0.66346391013138373],[124.32290450933567,0.66333035541163099],[124.32297653963565,0.66319154235583255],[124.32303707839856,0.66304431973964029],[124.32306845844266,0.66294709583183931],[124.32307087402171,0.66293961167377802],[124.32307882312921,0.66291498463886001],[124.32310699529171,0.66279510590948121],[124.32316335220696,0.66260582739704432],[124.32322910523908,0.66244073075517917],[124.32328130728661,0.66233661983920911],[124.32332828157496,0.66224197968364251],[124.32344628072133,0.66213890029007416],[124.32375020480822,0.66203892625549088],[124.32375624195708,0.66203681644594781],[124.32395490759302,0.66196737169690323],[124.32414812063928,0.66190318258583147],[124.32431210392053,0.66186528605413741],[124.32433739285648,0.66186031190392214],[124.32448339239465,0.66183159295371752],[124.32462126026303,0.66180842821643182],[124.32480821312856,0.66178734810767992],[124.32495234837222,0.66175050558143766],[124.32516540675817,0.66168210584453391],[124.32535653157868,0.66160424074314506],[124.32548289891668,0.66154953138578776],[124.32565625583163,0.66145274994448755],[124.32575860137842,0.66137806574516844],[124.32583169737495,0.66132442837971439],[124.32591628580803,0.6612413373179038],[124.32603114092444,0.66110881681851197],[124.32606942776192,0.66106342713550248],[124.32607155915514,0.66106090093990133],[124.32624937041214,0.66085010344954753],[124.32635795185809,0.66067658375737892],[124.32642057884675,0.66048099020559903],[124.32642576613625,0.66035586213337183],[124.32641633944263,0.66024861977803084],[124.32636722117036,0.660157153330033],[124.32632124782742,0.66009828370886225],[124.32621989603149,0.65998790901483062],[124.32610913372957,0.65980183208893095],[124.32607046827752,0.65971877430206405],[124.32605268238547,0.659632553599522],[124.32605161758818,0.6595494958126551],[124.3260641028761,0.65936653323893779],[124.32610271436886,0.65924034666471698],[124.32613813776493,0.65915335973983247],[124.32613935634629,0.65915036769536073],[124.32615281739868,0.65911731401286033],[124.32621859561175,0.65901635611999154],[124.32628646115131,0.65892170067598954],[124.32633553265873,0.65884072661827986],[124.32637728458405,0.65873556979073555],[124.32640023887996,0.65862305471023319],[124.32640335862811,0.6585641715992665],[124.32639390585416,0.65839173379151816],[124.3263656698399,0.6582666237057424],[124.32633291922889,0.65816780440070488],[124.32633221865706,0.65816569189320262],[124.32629564412878,0.65807422184792586],[124.32624652675588,0.6579827562991909],[124.32617860815628,0.6578744707302917],[124.32613157541198,0.65778406188496774],[124.32609918183186,0.65770520842869473],[124.32606782157279,0.65762846208389192],[124.32604482321005,0.65753489032294965],[124.32602390767727,0.65744130777017062],[124.32599357624258,0.65730883583415789],[124.32598821088732,0.65724519081294375],[124.32596423945813,0.65696080719555994],[124.32597047625654,0.65683147299415623],[124.32597607633488,0.65680543582226392],[124.3259892487049,0.65674419378956372],[124.32602369723588,0.6566400963633896],[124.32609155108423,0.65650443183409379],[124.32619908661866,0.65631724694344484],[124.32627175363859,0.65619525390786748],[124.32628678580659,0.65617001893127735],[124.32636195743839,0.6560469799841826],[124.32641728193209,0.65592920117171616],[124.32644128303889,0.65583455831824722],[124.32645065667248,0.65574202617364108],[124.32645898889132,0.65565054533647071],[124.32646418967067,0.65557799432900765],[124.32648504494898,0.65544445040109167],[124.32651740075755,0.65534665812180037],[124.32655080697418,0.65528040416734257],[124.32660719446653,0.65520468394907994],[124.32670847431666,0.65507638306866056],[124.32671901976698,0.65506203528474316],[124.32684838184741,0.65488603166505754],[124.32695697408519,0.65474930773439155],[124.32696005066589,0.65474250526244759],[124.32699455405543,0.65466623016243375],[124.32701904709143,0.65459943931273301],[124.32705509641562,0.65450113711784752],[124.32708898107171,0.65438472707353412],[124.32712396559862,0.65426454077601193],[124.32719054600693,0.6540414567479047],[124.32721058470077,0.65397431426322328],[124.3272554698641,0.65386074337862965],[124.32728598835774,0.65379925583101794],[124.32733271803056,0.65370510580601149],[124.32746990511214,0.65349558535302776],[124.32747099239248,0.65349392430522357],[124.32749246820288,0.6534611242315691],[124.3275665993192,0.65337908537651401],[124.32764178534023,0.65331177112136629],[124.32776083759268,0.65322131820931872],[124.32786108771904,0.65314138017060941],[124.3279064162482,0.653106804835204],[124.3279686520317,0.65305933322167675],[124.32807098588739,0.65297729616531797],[124.32812587331046,0.6529329748769328],[124.32819212186894,0.65287947960433712],[124.32828297318076,0.65279533903373022],[124.32836859583415,0.65271224797191962],[124.32850226027119,0.65259339896624624],[124.32861504424898,0.65251450683905432],[124.32875498505462,0.65241668578147483],[124.32878541991124,0.65239403905371773],[124.32882523469686,0.65236441268751832],[124.32886854604658,0.65233218638132939],[124.32887090406905,0.6523304309047262],[124.32894033892558,0.65226356271330133],[124.32896592193981,0.65223892578586629],[124.32903171004546,0.65217267273072821],[124.32911942811916,0.65209799302800775],[124.32919358171853,0.65207063115474284],[124.32929698666669,0.65206219191668424],[124.32937311787521,0.65206501219063284],[124.32938158858951,0.65206532605401435],[124.32951319357903,0.65207581035042494],[124.32962600183862,0.65208839816108366],[124.32966953172354,0.65209314028624021],[124.32976075265663,0.65210307779483401],[124.32996756525097,0.65212930742166009],[124.33008455086144,0.65214084392488303],[124.33024685600765,0.65214378111068072],[124.33037074841138,0.65214602312050829],[124.33052219424394,0.65213336516274012],[124.33065810608684,0.65210325586059525],[124.33071227585094,0.6520912562065746],[124.33076905724624,0.65208171439962825],[124.33088774257533,0.65206176923533121],[124.33096830924012,0.65204527926624678],[124.33109350386212,0.65201965488319047],[124.33157081274283,0.65193541089053042],[124.33161991932388,0.65190411897992817],[124.33172432971412,0.65183758623567201],[124.33173282920677,0.65182978821422921],[124.33182979590845,0.65174082368014297],[124.33183937908416,0.65172671691448159],[124.33192481018193,0.65160095571957299],[124.33206784195738,0.65136644040893543],[124.33219940557819,0.6512265616565287],[124.33236442577766,0.6511697352950705],[124.33238346442545,0.65116874604086661],[124.33265106309614,0.65115484162271287],[124.3326694128632,0.6511538892406179],[124.33295559692328,0.65114434293712975],[124.33300703094983,0.65114418375713967],[124.33309864038995,0.65114390226932528],[124.33332848731993,0.65114319360355921],[124.33360423294903,0.65114522787001761],[124.33393637686231,0.6511430317255531],[124.33431657245194,0.65114397961099257],[124.33439752222796,0.65113355646849413],[124.33439940271035,0.65113331365154181],[124.33459993623808,0.6511074896189939],[124.33473685712033,0.65107348984975033],[124.33489473670284,0.65099907814499147],[124.33495313957576,0.65097155169581811],[124.33513170536401,0.65079769925443998],[124.33540393284534,0.65050583957287245],[124.33552713007305,0.65032495623177056],[124.33562316957364,0.65012095132090053],[124.33566474163456,0.64995337075151838],[124.33569307927223,0.64983914066385751],[124.33573335271217,0.64951790282901811],[124.33573789968443,0.6494816322715451],[124.33574091960782,0.64924326246665487],[124.33574096367465,0.64923979108351659],[124.33573359373042,0.64899270594867176],[124.33572011379226,0.64891061673159811],[124.33569906426044,0.64878242287056764],[124.33560603658941,0.64851747899848533],[124.33570475966701,0.64821557299035248],[124.33589488983739,0.64802407315249866],[124.33642805381169,0.64793447369703472],[124.33646540535426,0.64792819732849694],[124.33666220579619,0.6479560907010864],[124.33721369435659,0.64803425797470027],[124.33791556305289,0.64807139817651205],[124.33884267684812,0.64802328894370476],[124.33931012376331,0.64809446039106433],[124.33962719863632,0.64814273599853323],[124.33984317622162,0.64816752581072024],[124.33993631271073,0.64817821605186055],[124.34045926038664,0.64823823860388075],[124.34102223958473,0.64829765681145091],[124.34173552337575,0.6483729390599251],[124.34177046113791,0.64841580614461236],[124.3418328983696,0.64849241489309861],[124.3421325641666,0.64886188516788934],[124.34381779745343,0.65086017335835322],[124.34476710471813,0.65180948062305788],[124.3469821574007,0.65275878878713911],[124.34845885858954,0.65318070392640948],[124.34951364463905,0.65339166239533597],[124.35046295370239,0.65381357573596688],[124.35120130429686,0.65391905542014683],[124.35148387488096,0.65399612012487296],[124.35236157003044,0.65423549087523725],[124.35309992062491,0.65444644844490085],[124.35373279333385,0.65444644844490085],[124.35457662181375,0.65476288390004811],[124.35531497330749,0.65507932025445825],[124.35626428057219,0.65539575570960551],[124.35753002509068,0.65581767084887588],[124.35837385536922,0.65581767084887588],[124.35963959898834,0.65592314963367926],[124.36101082229163,0.65602862931785921],[124.36206560834125,0.65602862931785921],[124.36333135285975,0.6557121920640725],[124.36428066102371,0.65581767084887588],[124.36533544707333,0.65655602234261323],[124.36681214916143,0.65666150112741661],[124.36807789278055,0.65666150112741661],[124.36913267972943,0.65666150112741661],[124.37046242090412,0.65657839207915458],[124.37047292678426,0.65657773467478364],[124.37082033938725,0.65655602234261323],[124.37219156179117,0.65655602234261323],[124.37335182662559,0.65676697901290026],[124.37430113478956,0.65729437293703086],[124.37567235809297,0.65750532960731789],[124.37693810171208,0.657610809291441],[124.3795277777848,0.65788888866131856],[124.37883671804013,0.65929846804988301],[124.37830932501538,0.66024777621396424],[124.37746549563622,0.66161899861793927],[124.37693810171208,0.66267378466750415],[124.37641070868733,0.66351761494604489],[124.37494444413085,0.66572222200301212],[124.37142057390042,0.66821267497499548],[124.371347732412,0.66826415486690394],[124.37018746667832,0.66900250636064129],[124.37061111121386,0.67261111071422874],[124.36923815941361,0.67670245045775346],[124.36966007275419,0.67817915074726898],[124.37018746667832,0.68007776797463748],[124.37018746667832,0.68071063978425173],[124.37029294546312,0.68229281975789036],[124.37071485970307,0.68355856427638173],[124.37103129605748,0.68503526546516014],[124.3714444437062,0.68697222169072347],[124.36997650910871,0.68767223238768338],[124.36902720094463,0.6886215414510275],[124.36807789278055,0.68883249812131453],[124.36723406430065,0.68883249812131453],[124.36667332171646,0.68928109074977328],[124.36617927735188,0.68967632660121581],[124.36533544707333,0.68988728507019914],[124.36485806894484,0.69018564595086218],[124.36471777020904,0.6902733334476352],[124.36449161769406,0.69041467809495316],[124.36364778921416,0.69115302868937079],[124.36343683074517,0.69189138018310814],[124.36343683074517,0.69284068834713253],[124.36343683074517,0.69389547529601714],[124.36324999299279,0.69445598675440579],[124.36301491560596,0.69516121891518878],[124.36217108712606,0.69621600586401655],[124.3616436941013,0.69737627069838481],[124.3615195606792,0.69784177058130581],[124.36122177896198,0.69895845067202345],[124.36109261922911,0.69979799028504885],[124.36101082229163,0.7003296739753182],[124.36090534260757,0.70212281241788332],[124.36041068940187,0.70390356269928134],[124.36037794868344,0.70402142784666921],[124.3599953788837,0.70520739620440054],[124.35995603534286,0.70532936315964889],[124.35900672717878,0.70606771375400967],[124.35832896570923,0.70657603485619802],[124.35816289690024,0.70670058646294365],[124.35774098176091,0.70712250070289429],[124.35721358873616,0.70786085219663164],[124.3571003272184,0.70870260414193353],[124.35694444413082,0.70986111080168257],[124.35663665116056,0.71103990167017628],[124.356590645442,0.71121609774473882],[124.3564752381418,0.7116580839534663],[124.3564752381418,0.71276645071117173],[124.3564752381418,0.71302930725676106],[124.35623486194936,0.71363024863711644],[124.35622287578519,0.71366021404770663],[124.35605332390185,0.71408409420564567],[124.35579854236892,0.71456817857864507],[124.35546551622065,0.71520092808043501],[124.35516840180037,0.7157654460185654],[124.35499853695296,0.71608818931855467],[124.35468210059855,0.71682653991291545],[124.3543656651434,0.71756488960801335],[124.35394375000408,0.71872515624102107],[124.35278348516977,0.72083472923941372],[124.35276344197928,0.72087882299933881],[124.35226037381722,0.72198557187670076],[124.35225609124564,0.72199499497310171],[124.35208869503731,0.72228793833772897],[124.35154809097173,0.72323399635189389],[124.35148323096644,0.72334749978733726],[124.35141226186647,0.72347169616188012],[124.350673911272,0.72526483370518235],[124.35031890929031,0.72609317226215353],[124.35027347913785,0.72619917625104335],[124.35024772615168,0.72625926535283725],[124.35021823198588,0.72632808507313484],[124.35019360225306,0.72638555444984831],[124.34972460310803,0.72747988638769812],[124.34930387417455,0.72874207138954716],[124.3491972091839,0.72906206636133675],[124.34880500764507,0.73053282303141032],[124.34878520817085,0.73060707375748279],[124.34877529494395,0.73064424723429511],[124.34877529494395,0.73165885876937864],[124.34877529494395,0.73198400685646448],[124.34877529494395,0.73285929901749114],[124.34884623616495,0.73383828660769268],[124.34888077282949,0.73431490480908224],[124.34888077282949,0.73631899992193439],[124.34888077282949,0.73677017810126699],[124.34888077282949,0.73706422943070038],[124.34888077282949,0.73719908187217698],[124.34888077282949,0.73724938005489093],[124.34888077282949,0.73811213746523663],[124.34888077282949,0.73867705740030942],[124.34888077282949,0.73948335986921165],[124.34888077282949,0.74012257909379287],[124.34888077282949,0.74036122409125937],[124.34888077282949,0.74077144444663645],[124.34888077282949,0.7410585431173331],[124.34888077282949,0.74121415730758144],[124.34888077282949,0.74127649831177678],[124.34888077282949,0.74142592876364688],[124.34888077282949,0.743022547352723],[124.34888077282949,0.74317511374056267],[124.34943454296979,0.74409806367475539],[124.34951364463905,0.74422990068939043],[124.34957831758538,0.74434076911126112],[124.35025199613278,0.74549564520788181],[124.35083105430977,0.74626772217766302],[124.35088486794234,0.74633947368778308],[124.35090073737922,0.7463553431246055],[124.35125099723575,0.7467056029812511],[124.35144955045644,0.74690415620187878],[124.35162321943608,0.74707782518152044],[124.35258870910172,0.74813986336403104],[124.35267800638496,0.7482380900158887],[124.35319265421765,0.74901006176497731],[124.35331087819452,0.74918739907923282],[124.35404922878899,0.7502421851287977],[124.35435251705508,0.75050954368055045],[124.35526993705798,0.75131827971489429],[124.3561864694301,0.75212623423834657],[124.3566861957114,0.75330106719053447],[124.35701754822139,0.75482274257558402],[124.35702208799898,0.75484358975990062],[124.35706815307287,0.755070506698587],[124.3570809863985,0.75513342506758363],[124.35712211329496,0.75533507105672015],[124.35711900433864,0.75533708194080873],[124.35632934922012,0.75584769811280239],[124.35589002770269,0.75613177686005884],[124.35552392179159,0.75685034416807184],[124.35547529185135,0.7569457901161627],[124.35540129923061,0.7570422576940814],[124.35455729538296,0.75814262408289324],[124.35434698532515,0.75832053606393401],[124.35311919129765,0.75935919007463326],[124.35299128791769,0.75945893118478125],[124.35188746723293,0.76031970738864629],[124.35120003805139,0.7608557752738534],[124.35078201607723,0.76118175523384934],[124.34902652595349,0.76219676247063717],[124.34876569827838,0.76247516379783065],[124.34733825026012,0.76403036141209668],[124.3465251372254,0.76635654062192771],[124.34604437314931,0.76773192418897906],[124.34595721984988,0.76798125313234777],[124.34577980609322,0.76848880621349736],[124.34504499882769,0.76861832477590042],[124.34488805543947,0.7686709962695204],[124.34385548084583,0.76859143864402313],[124.34327025242033,0.7685463493345992],[124.34316509019686,0.76853824734229192],[124.34151341691074,0.76840587972759522],[124.34045708312794,0.76850581689001274],[124.34032531176376,0.7685198103410471],[124.33920141101635,0.76863915397382243],[124.33872955292657,0.76872112987626906],[124.33831680637559,0.76879283642028895],[124.33728288819475,0.76897245801256986],[124.33586082171962,0.76896819882335876],[124.33443875614375,0.76896393963414766],[124.33426245934504,0.76899584128511833],[124.33265621171483,0.7692864913785229],[124.33127494478299,0.76878701510872816],[124.33116795873434,0.76876551141924665],[124.33100969783936,0.7688426867406406],[124.33085422933925,0.76900970703241001],[124.33064371603473,0.76913793416838416],[124.33036937694521,0.76939754506071267],[124.33019112142313,0.76953400908729463],[124.32990523323997,0.76981172603035475],[124.32974740761688,0.76989763826543367],[124.32826733846696,0.77070331660485181],[124.32534824702407,0.77229232872804232],[124.32532426480304,0.77230538418615424],[124.32529360871308,0.77232207200609082],[124.32463578791135,0.77268015776309085],[124.32456833695926,0.77271687528360644],[124.32117631903191,0.77456332463776789]]]},"properties":{"OBJECTID":548,"nama_kawasan":"Kawasan Rawan Bencana Gempa Bumi Sulawesi Utara Kota Kotamobagu","delineasi_asal":"Kota Kotamobagu","Shape_Length":0.50151718976551629,"Shape_Area":0.0088472001298378622}}]}