{"type":"FeatureCollection","features":[{"type":"Feature","id":535,"geometry":{"type":"Polygon","coordinates":[[[124.84036287005051,1.3967790304279788],[124.84041771070883,1.3968084652385073],[124.84058483082538,1.3969051261706795],[124.84071639174817,1.3969733280566743],[124.84076087401513,1.3969994371743155],[124.84076497672231,1.3970046172693174],[124.84080880338365,1.3970599417629614],[124.84081030525147,1.3970620012104291],[124.84086495345491,1.3971369516090704],[124.84091620042238,1.3972568087547756],[124.84095514826151,1.3973784960208491],[124.84096810929088,1.3974502178533044],[124.84097159776104,1.3974695253983214],[124.84097946143311,1.3976039146889434],[124.84098055770664,1.3977929189081237],[124.84098179067712,1.3979670861122031],[124.84095696489203,1.398181668848963],[124.84094287611288,1.3982264838651872],[124.84091250420875,1.3982898878680885],[124.84086787715091,1.3983943800965903],[124.84086246593017,1.3984217032989932],[124.8408614092267,1.3984588578900343],[124.8408398974434,1.3987345882306954],[124.84082797423173,1.3987706591386768],[124.84081278738029,1.398801268463842],[124.84079760322686,1.3988351558178351],[124.84079110562504,1.3988624799195577],[124.84080201260281,1.3989171092372317],[124.84082934210051,1.3990247706766468],[124.84086644543015,1.3992334592567772],[124.84087515986084,1.3992629561205945],[124.84090126897843,1.3993055534086238],[124.84098082300659,1.3994447702600041],[124.84100292744324,1.3995182952331788],[124.84101152226401,1.3995527599519733],[124.841011552841,1.3995920783117981],[124.8410174928631,1.3996520702868338],[124.84101762236548,1.3996529327367284],[124.84102072232849,1.3996736117478576],[124.84102180691093,1.3996908463554973],[124.84102182399806,1.3997129292083628],[124.84100528816361,1.399811671171733],[124.84099994888857,1.3998332198272578],[124.8409999632778,1.3998509940282133],[124.84101717720102,1.399897066296603],[124.8410177329821,1.3999223804135568],[124.84101827976986,1.3999374611449866],[124.84101777345154,1.3999740860352858],[124.84101944079464,1.4000681200477629],[124.84100715785416,1.4001112182581892],[124.84091194393113,1.4002859322500285],[124.84090851931273,1.4002948850010171],[124.84085733709651,1.400428660054672],[124.8408040999293,1.4005680909447165],[124.84076099362505,1.4006759601275007],[124.84073640526094,1.4007760726576635],[124.84073471813281,1.4007940402128156],[124.84073474421314,1.4008274041614186],[124.84073561475691,1.4008530681146567],[124.84074500188035,1.4008924143535069],[124.84079783345328,1.400991159914156],[124.84088325465859,1.4011033809163678],[124.84097534073942,1.4012150389429507],[124.84112226568004,1.4014493132352754],[124.84118786043143,1.4015525077421103],[124.84129784392042,1.4016658555947856],[124.84146627704706,1.4018643125880317],[124.84167657991031,1.4021152576131044],[124.84172105678135,1.4021843696129963],[124.8417284743897,1.4022024477847594],[124.84173379208096,1.4022396770195087],[124.84173487216663,1.4022683977684096],[124.84172123574649,1.4024294834339344],[124.84168740415043,1.4026170928046326],[124.84166647332916,1.4027263640305137],[124.84038171894122,1.4030138889798422],[124.84038146443311,1.4030142738896529],[124.83999769044112,1.4034535324545914],[124.83942181676355,1.4039642241696697],[124.83803923412347,1.4045683239690447],[124.83568584682439,1.4051331899448201],[124.83225595934516,1.4044428190808844],[124.82316381435862,1.4026127436832212],[124.82316162720736,1.4026122229757334],[124.81159887009187,1.4007291568251503],[124.80499674280554,1.400158480329651],[124.80306357992038,1.3999913799982551],[124.79565157536001,1.3990995178285175],[124.79458021660378,1.398882056361856],[124.794112550254,1.3987871302219332],[124.79225711397464,1.3984105184307509],[124.79225649344244,1.3984104213039359],[124.79225570024039,1.3984102783117578],[124.79225492142757,1.39840989430121],[124.79098423063783,1.3978602907199047],[124.78425344364155,1.3924740810140861],[124.78305469142094,1.3914340591345535],[124.78215698095994,1.3906552183636904],[124.77898378787154,1.3879021813406212],[124.77898322039937,1.3879016669284283],[124.77835437485453,1.387285830077019],[124.77826602185951,1.3871993054036693],[124.77817766976375,1.3871127798309999],[124.77818564944823,1.3870832532895747],[124.77819362823345,1.3870537267481495],[124.77819359405919,1.3870072012214223],[124.77819356797886,1.3869732086467366],[124.77819352031474,1.3869087884099258],[124.77818637430175,1.3868569047224355],[124.77817921030237,1.3867924979754207],[124.7781720696853,1.386747768394855],[124.77818087314881,1.3866368334231538],[124.77818439129669,1.3865831510915996],[124.77818435172651,1.3865312629075106],[124.77817542235789,1.3864847445753412],[124.77816294876118,1.3864453902426135],[124.77814158986257,1.3864078327553102],[124.77812735899045,1.3863971101385459],[124.77807578646843,1.3863738824487655],[124.77803665516751,1.3863488633094221],[124.77801707063134,1.3863166756740952],[124.77800458444403,1.3862594257319643],[124.77799387261916,1.3861985928908211],[124.77797604895557,1.3861413564384861],[124.77796355017779,1.3860680014371383],[124.77796175333231,1.386042952620187],[124.77795994659436,1.3859946482344867],[124.77795218994163,1.385822875025724],[124.7779521548681,1.3857763575928743],[124.77794679221074,1.3857405798639206],[124.77788843520318,1.3855366801736864],[124.77787414137856,1.3854418583551364],[124.77787229507044,1.3853523893013744],[124.77785444802441,1.3852522066241022],[124.77785970366244,1.3851555798661934],[124.77786319483062,1.3850661162083497],[124.7778844736896,1.3849963162270456],[124.77791108283031,1.384917568890728],[124.77793059991734,1.3848602946669075],[124.77798736962143,1.384706378396686],[124.77802110409073,1.3846401496232374],[124.77806194770073,1.3845774884603657],[124.7781027931095,1.3845166259415578],[124.77812408186094,1.3844611413686039],[124.77813470285435,1.3844020828898351],[124.77813465878751,1.3843430423975178],[124.77813460662685,1.3842732577047059],[124.77812561160772,1.3841265441047881],[124.7781220053264,1.3840603441096277],[124.77812016261544,1.3839762458071618],[124.77810402787861,1.3837865931768079],[124.77810396672476,1.3837042854244714],[124.77810391366472,1.383632720074047],[124.77810739673907,1.3835450370738727],[124.77811269644383,1.3834931452924479],[124.77811621818898,1.3834448346114527],[124.77812863602776,1.383409034399449],[124.77817300138292,1.3833088058567569],[124.7781942892351,1.383240796425639],[124.77819956285964,1.3831674270351755],[124.77820840589322,1.3830976369464452],[124.7782208210341,1.3830582637279463],[124.77822790499386,1.3830278468577148],[124.77823854037638,1.3829741609288249],[124.77824029045712,1.3829473197630477],[124.77824203514183,1.3829025838871871],[124.77824201086014,1.3828703728694336],[124.77823713743396,1.3827675497826704],[124.77823707268283,1.3826816609299613],[124.77823705739434,1.3826601932133826],[124.7782432807029,1.3825111710537499],[124.77824324293135,1.3824602586340689],[124.77824587794498,1.3823066013686116],[124.77824831330906,1.3822466453664219],[124.77824824585991,1.382156704168608],[124.77824816582029,1.3820492837475058],[124.77823818874151,1.3819843356086494],[124.77821332068822,1.3819268968088636],[124.77815864190791,1.3818345022605172],[124.77812881229488,1.3817745696406973],[124.7780740903471,1.3816247156082113],[124.77806915936424,1.3814824482564063],[124.77807098318942,1.3814470437461068],[124.77806919173986,1.3813702443413263],[124.77803965080932,1.381288237861952],[124.77800143411901,1.3812097207520537],[124.77795107478232,1.3811155050765365],[124.77794061746556,1.3810439559138672],[124.77795616314643,1.3809619080656717],[124.77799252273678,1.3808868326612469],[124.77806009689607,1.3807995102891937],[124.77813284485501,1.3806860032564714],[124.7781380024669,1.3806249141085232],[124.77810496227426,1.3805010163089264],[124.77801399674865,1.3803786302696039],[124.77798249979264,1.3802751668654878],[124.77792094029917,1.3800768492672546],[124.77790800535024,1.3799604311290636],[124.77790365712815,1.379877067572636],[124.77786506002451,1.3798310960282834],[124.77783216642138,1.3797707497203646],[124.77780926518551,1.3797003417973883],[124.77779203777243,1.3795882323111073],[124.7777405551825,1.3794934023986229],[124.77768333491804,1.3793669622155562],[124.77759613575313,1.3792577809218756],[124.77754322503984,1.3791629510094481],[124.77747740635732,1.3790005820113151],[124.77745314264848,1.3789351086683723],[124.77743160838213,1.3788769998736825],[124.77739158495376,1.3788238490414528],[124.7773144267195,1.3787822194239538],[124.77713299209393,1.3787076071703837],[124.77706582712631,1.3786444109109084],[124.77700718683229,1.3785424071064654],[124.77699281926323,1.3784202387030859],[124.77698982002426,1.3782290653191467],[124.77697968376549,1.3780450874108965],[124.77698389079399,1.3779387209952461],[124.77698940723542,1.3776713642421328],[124.77700072340474,1.3775189921078663],[124.7770006406671,1.3774083071477321],[124.77696626857846,1.3772804118615909],[124.77690907439433,1.377188461578271],[124.77684905094304,1.3771353170412794],[124.77678761195875,1.3770994349909529],[124.77672475204577,1.3770736019652077],[124.7765962038518,1.3770622048569408],[124.77656389480796,1.3770627138732152],[124.77640482632171,1.3770652238810044],[124.77608204794819,1.3770510883371117],[124.77600919836584,1.3770267077164249],[124.77591060299198,1.3769620986220161],[124.77583623985061,1.3768371000521711],[124.77578612872696,1.3766646541504883],[124.77572599735697,1.3764634668156077],[124.77570731484082,1.3763024908673174],[124.77569294097646,1.3761846356125034],[124.77567003434467,1.3761055906005595],[124.77560282441084,1.3759935278790749],[124.7755313328048,1.3758872190200009],[124.77547982863121,1.3757622042623439],[124.77546605911141,1.3757138351254525],[124.7754454619386,1.3756414891634563],[124.77539540657278,1.3755452194363897],[124.7753353444507,1.3754374545749215],[124.77531836435105,1.375379029218891],[124.77530527471868,1.3753339902714856],[124.77530666507062,1.3752808079629517],[124.77532233126067,1.3752276058693838],[124.77534657428498,1.3751686553092668],[124.77535404585262,1.3751430174363577],[124.77543458823573,1.3747639702810375],[124.77517345838851,1.372257296237251],[124.77454041660701,1.3700694534425679],[124.77370193999263,1.3679648662856039],[124.77340189198378,1.3672117371320383],[124.77300947011099,1.3662267483658184],[124.77261515786336,1.3652370156758025],[124.77090304024318,1.3621289038259192],[124.7693384483108,1.3592886028867497],[124.76474945971984,1.3546616674020697],[124.76474799382493,1.3546602770501863],[124.76474646317877,1.3546586663644007],[124.7616261016633,1.3515564936373039],[124.76013275222476,1.3495164238439088],[124.76007158303719,1.3494180811795786],[124.76000634711534,1.3493361448472569],[124.75989221325506,1.3492132443957416],[124.7597903254632,1.3491272287386664],[124.75972102730361,1.3490575852393931],[124.75960692491969,1.3489797812919164],[124.75949282883107,1.3489224683972338],[124.75928092427534,1.3487791371475168],[124.75907713160439,1.3485989148081217],[124.75893042429971,1.3484965278925074],[124.75884077268358,1.3484351005994881],[124.75869407707012,1.3483491191166195],[124.75852292079617,1.3482344609516872],[124.75831013760285,1.3480492329857725],[124.75818055338993,1.3479272480441296],[124.75806630261786,1.347786923228],[124.75797499714849,1.3476300373963568],[124.75789721928129,1.3475232150244096],[124.75781428380219,1.3474554978729998],[124.75772358807319,1.3473904004466704],[124.75761734846196,1.3473253039196607],[124.75753182923063,1.3472627983395],[124.75745925034414,1.3471768339437631],[124.75741774303447,1.347093441609104],[124.75739439573488,1.3470387223591729],[124.75735291090814,1.3469735799668001],[124.75729588219929,1.3469084483662641],[124.75723885798698,1.3468511390688604],[124.75701857804495,1.3466818596801318],[124.75691489610563,1.3465620259167963],[124.75676457172767,1.346429185258728],[124.75665056017533,1.3463640950270133],[124.7565184065993,1.3462729559321929],[124.75640180410005,1.3462026586258276],[124.75629296904538,1.3461271380569997],[124.75621523344637,1.3460802698886027],[124.75612711967085,1.3460203786376042],[124.75604678862851,1.3459630873266519],[124.75596645488804,1.3459005862430899],[124.75590164974142,1.3458302511651823],[124.75580570826685,1.3456791218940225],[124.75574864988039,1.3455618565944292],[124.75569675899828,1.3454445885969335],[124.75563195205302,1.3453586188052782],[124.75551270464769,1.3452231512275148],[124.75542976736995,1.3451371850331384],[124.75529240492062,1.3450121567856286],[124.75520170379571,1.3449522673333263],[124.75509028319004,1.3448793529997829],[124.75496590785042,1.344809061089336],[124.75488040390758,1.3447674170826645],[124.75481302669994,1.3447179372830078],[124.75466014824735,1.3446189911735473],[124.75453577920291,1.3445565116737157],[124.75433883576875,1.3444289221570784],[124.75426367672731,1.3443533862997583],[124.75417036397118,1.3442596058961271],[124.75408742669345,1.3441762441383958],[124.75399931921322,1.3441111440141071],[124.75373245438936,1.3439940307000029],[124.75364694594987,1.3439471679275243],[124.75360289445803,1.3439107031164781],[124.75355103325364,1.3438351501720831],[124.75349141000061,1.3437621980670542],[124.75326334013107,1.3435538224509855],[124.75312336964782,1.343413149597211],[124.75303266672427,1.3433376254311042],[124.75293418286628,1.3432490655919764],[124.75283668736324,1.3431734829699167],[124.75272785590585,1.3431031802675761],[124.75270945757552,1.3430896508667161],[124.75262160730142,1.3430250516648243],[124.75250499041306,1.3429365062148122],[124.75239875619775,1.3428792319909917],[124.75232620519023,1.3428323602253158],[124.75221477019556,1.3427516316825177],[124.75213702020733,1.342683910933772],[124.75208518418401,1.3426318150063139],[124.7519037000958,1.3423842937002632],[124.75183112120931,1.3422983203112722],[124.75179869075703,1.3422254167696224],[124.75177663938041,1.3421758452391259],[124.75171438471114,1.3420403353932215],[124.75167029185059,1.341959559186364],[124.75161322896736,1.3418475027601175],[124.75154840763298,1.3417406695962768],[124.75150170493976,1.3416286149686698],[124.75146796237664,1.3415217602210987],[124.75140829865416,1.3414044967202017],[124.75135251460688,1.3412847537883863],[124.75135123936832,1.3412820153527605],[124.75132010393975,1.3412168729603877],[124.75131911198753,1.3412129986809873],[124.75129673235836,1.3411256457320064],[124.75126039075451,1.3410161883464866],[124.75120589363712,1.3408598196249955],[124.75116697457622,1.3407633952145375],[124.75113062757646,1.3406461146265087],[124.75106057938228,1.3404793308564535],[124.75096459114297,1.3403092258901097],[124.75092052706077,1.3402213621262149],[124.7508608597409,1.3400858495823513],[124.75081158138948,1.3399894332657709],[124.75076227965553,1.3398617358304818],[124.75070519518863,1.3397184000841662],[124.75065849069688,1.3396037410198574],[124.75057810479575,1.339468243764486],[124.75050291517744,1.33936141779526],[124.75041737975835,1.3392624231223635],[124.75033700914571,1.3391608096237064],[124.75026702930006,1.3390904781430777],[124.75020742403342,1.3390409920481829],[124.75013746397281,1.338999336350355],[124.7499999963029,1.3389389396803608],[124.74998410618161,1.3389319582433359],[124.74992773038048,1.338901279670381],[124.74986898216787,1.3388446043950353],[124.74980790021448,1.3387902898400625],[124.74975386894596,1.3387596103677879],[124.74970924638467,1.3387407326986818],[124.74964582439532,1.3387076988013291],[124.74953401438336,1.3386558546840206],[124.74944067464753,1.338587077231864],[124.74939838582691,1.3385540280460191],[124.74931620577831,1.3385493578666114],[124.7492774521927,1.3385493848462602],[124.74926689684992,1.3385493929401946],[124.74921288086978,1.3385399824342699],[124.7491494597798,1.3385069386443433],[124.74910717005992,1.3384715206441911],[124.74910245491446,1.3384502552751201],[124.74910113201167,1.3384226676720345],[124.74910007530832,1.3384006279866298],[124.74910005192589,1.3383675401299229],[124.74910235508969,1.3383084600674238],[124.74908823483429,1.3382635722061309],[124.74906943630549,1.3382352255752608],[124.74903183205345,1.3381950753425258],[124.7489778106775,1.3381643949708746],[124.7486700968476,1.3380039118511036],[124.7485972814394,1.3379637859000582],[124.74849862671033,1.3379142287586774],[124.74844929889605,1.3378882743244276],[124.74842128141711,1.3378701754682538],[124.74835063517378,1.3378245375723736],[124.74827076908082,1.3377891456526072],[124.74817915874121,1.3377395840146278],[124.74806878674519,1.3377136637546414],[124.74798658241491,1.337685363888454],[124.74786913994888,1.3376358202369829],[124.74777987863854,1.3375791656460478],[124.74770237146731,1.3375485032608481],[124.74762017433159,1.3375320132918205],[124.74753564345519,1.3375320744457326],[124.7474487590531,1.3375203257025419],[124.747382975444,1.3374754648208977],[124.7473312464399,1.3373691559618237],[124.74730301672093,1.3372959187717015],[124.74723722411863,1.3372250683822244],[124.74718787921734,1.3371754761673174],[124.74716200032617,1.3371093256349127],[124.74715726089892,1.3370526116887049],[124.74715723571796,1.337017163111625],[124.74715719884568,1.3369651661095645],[124.74716655359362,1.3369037208300938],[124.74717119139746,1.3368280896446549],[124.74717905327077,1.336688858404159],[124.74717900830467,1.3366249777605503],[124.7471745332781,1.3365611097074748],[124.7471730251151,1.3365120894613938],[124.74716561919809,1.336483871433586],[124.74714051012654,1.3364512080568716],[124.74712574235923,1.3364423020706226],[124.74707260591606,1.3364319400820364],[124.74701060215762,1.3364201023059081],[124.74695304105012,1.3364156938292808],[124.74690433376804,1.3364172118848501],[124.74684382468286,1.3364231968731133],[124.74678481117019,1.3364484867083206],[124.7467243110782,1.3364678464140525],[124.74662838759002,1.3364946552042056],[124.74659002161229,1.3365065649260828],[124.74654132782007,1.3365125418204116],[124.74648966536586,1.3365140616746771],[124.74644686662964,1.3365230090296905],[124.74640112800967,1.3365408650689119],[124.74629221561327,1.3365593641233886],[124.74624499581,1.3365653392190779],[124.74620514685012,1.3365653670980464],[124.74614610815638,1.3365668932475501],[124.74610035604667,1.3365669247238543],[124.74604869269308,1.3365669615960769],[124.74601031412476,1.3365610494529392],[124.74598522124109,1.3365521587551825],[124.74596926097263,1.3365475056629066],[124.74593946103732,1.3365388173126007],[124.74587597789412,1.3365210386151034],[124.7458065996949,1.3365017733382274],[124.74576673274862,1.3364869516115618],[124.74566487823165,1.336460284914267],[124.74561026510173,1.3364573486277891],[124.74555861074134,1.3364573863993314],[124.74551136845491,1.3364455369320467],[124.74546708044147,1.3364307197019798],[124.74542869287995,1.3364144068993937],[124.74537554114841,1.3363802803257272],[124.74532976026035,1.3363505982015909],[124.74530465658472,1.3363268498043226],[124.74528545605904,1.3363149823505864],[124.7452367415824,1.3362927340224928],[124.74518801001875,1.3362586047508671],[124.74512024700186,1.3362356288712363],[124.74507891595931,1.3362222838313755],[124.74503314406445,1.3362059764247078],[124.74500805118066,1.3361955946510307],[124.74495046309346,1.3361659287147063],[124.74492536481375,1.3361496069188661],[124.74488696466176,1.3361139856719433],[124.74485447215625,1.336082810673247],[124.74483084516748,1.3360635211146814],[124.7447924414181,1.3360219508523983],[124.74477028841818,1.3360011666205764],[124.74472891330879,1.3359388094285691],[124.74471411586387,1.3358779154335139],[124.74467864930034,1.3358214928676375],[124.74463138183285,1.3357621142302492],[124.74460478888,1.3357279597775573],[124.74457965822467,1.3356774718379256],[124.74456635905028,1.3356492583066597],[124.74453386384675,1.3356166003259204],[124.74450876376852,1.335597310767298],[124.74447921384467,1.3355616841244569],[124.74446737786729,1.3355186119944165],[124.74445849166614,1.3354681132628912],[124.74444075523672,1.3354413854116274],[124.7444156335747,1.3353923813533584],[124.74439790793713,1.3353686284594914],[124.74436541633099,1.3353404284180783],[124.74431668296859,1.3353033232897928],[124.74427532764435,1.3352691877228722],[124.74420431627618,1.3351886111655062],[124.74418316242304,1.3351572284233839],[124.74416704027669,1.3351278682565635],[124.74415998689392,1.3351157193150698],[124.74414286739943,1.3350975008490309],[124.7441267569443,1.3350853582027753],[124.74409856499688,1.3350641090214594],[124.74407843816948,1.3350631107740014],[124.74404925337046,1.3350600926492007],[124.74401201784042,1.3350580943556452],[124.74397577246395,1.3350317873871518],[124.74395258434436,1.3349720472222657],[124.74394854009313,1.3349457159720828],[124.74394651661851,1.3349305246240419],[124.74394145973065,1.3348940670076104],[124.74393538840752,1.3348454559530865],[124.74392530520868,1.3348181174621914],[124.74391521841267,1.3347847013529304],[124.74390614425317,1.3347593872359766],[124.74389808093179,1.3347421751113302],[124.74387894695587,1.3347229449080373],[124.74385579840646,1.334716885276066],[124.74312671172845,1.3344752860056701],[124.74291857173478,1.3343773138619781],[124.7427842157191,1.33426828365441],[124.74277889443044,1.3342639651099262],[124.74206685080458,1.3336861408027971],[124.74164090940053,1.3332252580392492],[124.74137868957496,1.3327971996311021],[124.74092007939817,1.332435164051617],[124.74013390825337,1.3318427680293894],[124.73808211399842,1.3317011706725452],[124.73791945361995,1.3314677129646384],[124.73787558199263,1.3307967566650518],[124.73790971486153,1.3307400822890258],[124.73796249877034,1.3306524433556319],[124.73799413602057,1.3305999130556074],[124.73826625828121,1.3303467494030201],[124.73833440171131,1.3302876504547498],[124.73856629999477,1.3300865296696429],[124.73881755798402,1.3297932949246842],[124.73883139225507,1.3297771502952855],[124.73898589937983,1.3294723790471039],[124.73899176026157,1.3294608182621914],[124.73907450958097,1.3293384852829035],[124.73920100102544,1.3291514874512131],[124.7392280076665,1.3290970281054229],[124.73929861074237,1.328954659130261],[124.73931918992878,1.3289053645909235],[124.73935436780994,1.3288210981152133],[124.73938388715669,1.3287879140310679],[124.73950104723565,1.3286562056194384],[124.73953575836856,1.3286171840358634],[124.7397022129868,1.3285369177446],[124.7398568181377,1.3284623648463025],[124.74010097418068,1.3283561612079211],[124.74010182583868,1.3283550676322875],[124.74012008027751,1.3283367151673247],[124.74012660575829,1.3283289342329567],[124.74013231465472,1.3283201577491468],[124.74013690839172,1.3283098632096539],[124.74014029613784,1.3282986207847784],[124.7401427773674,1.3282867002710645],[124.74014457421276,1.3282742833315524],[124.74014589531691,1.3282615399381825],[124.74014687377928,1.3282485717142549],[124.74015035865216,1.3281824463628595],[124.74015255119934,1.3281562563062153],[124.74015526445396,1.3281301381953767],[124.74016543398761,1.3280390494626317],[124.74016865086264,1.3280133819121147],[124.74017063746498,1.3280008381681796],[124.74017301797051,1.3279885920998709],[124.74017593896849,1.327976762417677],[124.74017956143769,1.3279654822212592],[124.74018728481542,1.3279464768484672],[124.74018955290558,1.3279408956558427],[124.74019269873418,1.3279298609743364],[124.74019446140528,1.3279186113549031],[124.74019463317586,1.3279073878157419],[124.74019285611553,1.3278964196840661],[124.74018919227751,1.3278866287649294],[124.74018393843812,1.327877174192281],[124.74017751637939,1.3278679633359047],[124.74017023187082,1.3278589161561172],[124.7401623457157,1.3278499957807526],[124.74015404677186,1.3278411581429737],[124.74013674741298,1.3278236267590273],[124.7401196279186,1.3278068193292825],[124.74011123994183,1.3277988756176455],[124.74010268109396,1.3277912322795942],[124.74009387043589,1.327784040401184],[124.74008466497537,1.3277774897393897],[124.74007675543794,1.3277727476142331],[124.74006852214461,1.3277685756592632],[124.74006000196755,1.3277649918609313],[124.74004760930984,1.3277609224286948],[124.74003481195712,1.327757738828609],[124.74002174570705,1.3277551982438354],[124.740008472613,1.3277531001255056],[124.73998152532715,1.3277497636407247],[124.73995425428552,1.3277469991247699],[124.73984457566667,1.3277371560449751],[124.73980660269262,1.3277334031740793],[124.73979177736874,1.3277315604631781],[124.73978351889434,1.3277301907957053],[124.73977809058647,1.327728829222167],[124.73977437908434,1.3277272221336602],[124.73977285923013,1.327725314671568],[124.7397739995705,1.3277231652918999],[124.73918497060993,1.3278266970444861],[124.73867710996069,1.3278375968276919],[124.73855143060405,1.3278402947938162],[124.73839714021597,1.3278404036117877],[124.73833651871541,1.3278404467792484],[124.73802778415495,1.3278406653145112],[124.73794400241388,1.3278407246697839],[124.73744715845964,1.3277751416095498],[124.73734958111834,1.3277622624185028],[124.73714122169008,1.3276934453962213],[124.73688806433279,1.3276098309290205],[124.73685307261132,1.3275982737413869],[124.73656120483577,1.3274701068600052],[124.73645451106688,1.3274232548793634],[124.73635671159298,1.3273495419478536],[124.73622631619162,1.3272852763944343],[124.73617162032406,1.3272583192161278],[124.73609501517285,1.3272299123306652],[124.73608955808675,1.3272278879567239],[124.73594465392273,1.3271741534644548],[124.73581180966733,1.3271425288046999],[124.73573864802029,1.3271251134332829],[124.73547678612488,1.3270690766765938],[124.73524636722618,1.3270446519891266],[124.73500687326862,1.3270146919745116],[124.73493913363416,1.3270062176628699],[124.73488130093131,1.3270062590316911],[124.73464240502301,1.3270064281041982],[124.73437011279054,1.3270171552175611],[124.73411409738776,1.3269822030662795],[124.73393949581111,1.3269120532486909],[124.73389897685638,1.3269103832076894],[124.73350611881244,1.3261474748261435],[124.7335057689761,1.3256441422633998],[124.73361403026331,1.325525161057385],[124.73364329420269,1.3255527486604706],[124.73366666758272,1.3255720130380269],[124.73368864071824,1.325591512138601],[124.7337129457959,1.3256041907808367],[124.73373537398834,1.3256062915971256],[124.73375406010189,1.3256027518655742],[124.73377741279739,1.3255912144630315],[124.73379212120949,1.3255773316286081],[124.73380378811441,1.3255589836602439],[124.73381195036131,1.3255373468711014],[124.73382127363288,1.3255091261452776],[124.7338312947785,1.3254738511373603],[124.73383642181352,1.3254550382195021],[124.73384993592583,1.3254044783340646],[124.73385971785171,1.3253623837670716],[124.73387742910018,1.3253000652458695],[124.73389259077055,1.3252669018460779],[124.73390237809235,1.3252320971835729],[124.73391426533112,1.3251951971006974],[124.73391885187357,1.3251901572999714],[124.73392141134411,1.3251841012653358],[124.73392543041439,1.3251756791143521],[124.73392981820666,1.3251674467203429],[124.73393517636737,1.3251585173517242],[124.73394099228301,1.3251498856587318],[124.73394723088006,1.3251415534400053],[124.73395391014492,1.325133581849343],[124.73396209937141,1.3251249312706364],[124.73397083538578,1.3251168310769685],[124.73397922336255,1.3251099611558175],[124.73398797916195,1.3251035615801356],[124.73399293622504,1.3251002205987561],[124.73400273433879,1.3250938929688232],[124.73401101439686,1.3250888693559091],[124.73401277526943,1.325087800061965],[124.73402254730274,1.3250822683320393],[124.73403250819376,1.3250771152167431],[124.73404404109965,1.3250718263037697],[124.73405563695815,1.3250670607962434],[124.7340670988176,1.3250627296612834],[124.73408867625142,1.325055291368642],[124.73411412526673,1.3250472073627861],[124.73411579530773,1.3250463637987195],[124.73411591491765,1.3250461218810869],[124.73414029823618,1.3250471246251436],[124.73417253803223,1.3250494529699495],[124.73420594604761,1.3250531923509925],[124.73423024213207,1.3250531752638608],[124.73427299140553,1.3250512633052267],[124.73431526673619,1.3250411234491253],[124.73436361159145,1.3250229850227697],[124.73438299378017,1.3250123910090679],[124.73439957368146,1.3250027385855674],[124.73441194475549,1.324988153380616],[124.73442221321466,1.3249726283841596],[124.7344299123107,1.3249573399093606],[124.73443667161519,1.3249368803328139],[124.7344441287936,1.3249100706432841],[124.73444388058067,1.3248891452179237],[124.73444036333217,1.3248698682498912],[124.73443497729238,1.3248510616272142],[124.73442372137765,1.3248153486494516],[124.73441448713891,1.3247937073637672],[124.73440476726626,1.3247697862966561],[124.73439763294448,1.3247440719813994],[124.73439551863839,1.3247205493139518],[124.73439535136447,1.3247186814220413],[124.73439581901187,1.3246944267064578],[124.73439806641773,1.3246693581044156],[124.73440806058363,1.3246221463949723],[124.73441014701075,1.3245991929983916],[124.73441934527659,1.324568910127141],[124.73442628174757,1.3245446518142785],[124.7344382274423,1.324511110699234],[124.73444630245501,1.3244953159061765],[124.73445793608494,1.3244798448690176],[124.73448072670419,1.3244614348473647],[124.73451516444334,1.3244451328366722],[124.73455137834355,1.3244247595950469],[124.73457627157768,1.3244073262371785],[124.73459502514038,1.3243970577780146],[124.73461474727287,1.3243833709958039],[124.73462848711506,1.3243739200204345],[124.73464885586009,1.3243600704609548],[124.73466631529823,1.3243496401238417],[124.73469476894854,1.32433415559683],[124.7347138471664,1.3243251902553652],[124.73472185203195,1.3243212170505672],[124.73471957225047,1.3242562707103502],[124.73470287363875,1.323780694823256],[124.73470274593501,1.3235964516150034],[124.73466911488777,1.3231107439656853],[124.73493219986119,1.3218491507177532],[124.7356543896384,1.3179497164063605],[124.73574129022848,1.3173775632239995],[124.7356781326398,1.3164549981996743],[124.73545551086318,1.3159728824426224],[124.73506948137151,1.3157207853859632],[124.73478788115585,1.3155368857187568],[124.73367007691263,1.3157155216540559],[124.73281573625729,1.3158349399305962],[124.73250446111206,1.3154787598369353],[124.73171885294278,1.3142345190078686],[124.73152651313808,1.3138963892070592],[124.73123797105563,1.3133408698852804],[124.73134683398928,1.3124612366967767],[124.73226541501697,1.3112271123413848],[124.7333879119227,1.30941036669509],[124.73370701027034,1.3079836084568228],[124.73370717844364,1.3079828539256368],[124.73370826932126,1.3079780560424865],[124.73370869380119,1.3079770506004706],[124.7339144371017,1.3075255108936403],[124.73467806224289,1.306711564187367],[124.73512780870146,1.3058747468221554],[124.73542177729325,1.3054226036702516],[124.73644274523656,1.3038522830564716],[124.74203550673326,1.3007958048825117],[124.74203637457913,1.3007952778798426],[124.74203745826219,1.3007949802042162],[124.74363584491834,1.3002788323022969],[124.74424696392634,1.3000814913677914],[124.7449993061731,1.2998930681106344],[124.74728099682056,1.2993216190974977],[124.75029288660744,1.2991434580042096],[124.75119712974379,1.298940609621468],[124.75152353868043,1.2986876114441657],[124.75167402493639,1.2983336238976904],[124.75164869463163,1.2980303158464608],[124.75066818269056,1.2969188023608922],[124.74988793358136,1.2947707806470703],[124.74988758644304,1.2942636322608791],[124.74989247335907,1.2942625215981138],[124.74992711344555,1.2942551192783753],[124.74995125844384,1.2942464210355524],[124.74998157998596,1.2942303402580251],[124.74999999900081,1.2942207759680855],[124.75003654744876,1.2942017157366195],[124.75008032194933,1.2941630269021971],[124.75010994561751,1.294126382226807],[124.75014831968929,1.2940734544264387],[124.7501819813134,1.294027311111563],[124.75021766641225,1.2939838801519841],[124.75025335420901,1.2939451958141603],[124.750280288005,1.293915334724943],[124.75030856808598,1.2938827612804289],[124.75034290959763,1.2938461130077599],[124.7503685007058,1.2938230346053956],[124.75039543989772,1.2938006351911895],[124.75043113309039,1.2937694116291141],[124.75046143664599,1.2937409049188773],[124.75051060438091,1.2937042467536344],[124.75054225871838,1.2936804866651528],[124.75056359423456,1.2936490841379964],[124.75059120611934,1.2936246486586356],[124.75062285685942,1.2935947848714591],[124.75064777527462,1.2935730644454111],[124.75067067291332,1.2935547362621378],[124.75069088157898,1.293544548741977],[124.75071715886986,1.2935384261575109],[124.75073804562442,1.2935343423361019],[124.7507629793281,1.2935350033378086],[124.75084527988577,1.2934313672638496],[124.75088838529086,1.2933987830274418],[124.75093082789544,1.293383831798451],[124.75096721176749,1.2933777029186899],[124.751027168669,1.2933532449563359],[124.75107970436488,1.2933152279154569],[124.75111944720481,1.2932934966975722],[124.75116053902775,1.2932744778349274],[124.75118681002334,1.2932602172852512],[124.75122789914826,1.2932357728126931],[124.75126157965826,1.2932187927131622],[124.75130064980522,1.2931977413826985],[124.75133702108667,1.2931726224186377],[124.75137136979299,1.2931468253657386],[124.75140302143234,1.2931169606792423],[124.75142026863057,1.2930953157962222],[124.75143052719716,1.2930824429004701],[124.75145813278664,1.293049869455956],[124.75147732162111,1.293029960264505],[124.7527024293737,1.2930939847996115],[124.75271418531145,1.2931097382239045],[124.75273778801852,1.2931354939079824],[124.75276543407756,1.2931619258822025],[124.75278970498096,1.2931795427018073],[124.75281667115246,1.2931964796338775],[124.75284161744673,1.2932147754415837],[124.75286723283659,1.2932290000183571],[124.75290228481265,1.293245930655246],[124.75293935486741,1.2932574347828449],[124.75297507683842,1.2932682617209252],[124.75300405569271,1.2932723113681277],[124.75302899569169,1.293283144601503],[124.75306472036061,1.2932966847941998],[124.75316515484803,1.2933393432361413],[124.75319818065157,1.2933501719729179],[124.75326018261137,1.2933596238476071],[124.7533046630798,1.2933677321351524],[124.75333835887818,1.293371778185076],[124.75337272736954,1.293374467158003],[124.75340102094037,1.2933785150065091],[124.75340574957579,1.2933791912967081],[124.75343674830731,1.2933805258905977],[124.75347448475975,1.2933818559878887],[124.75351694535084,1.2933913222517504],[124.75355064384723,1.2934007939115304],[124.75358434504153,1.2934116217489873],[124.75363152527473,1.2934271881142649],[124.75367129239623,1.2934407247097397],[124.753701618435,1.2934440953687272],[124.75372790292045,1.2934495029921891],[124.75376025243372,1.2934555842078908],[124.75379395902405,1.2934765860756556],[124.75385866524528,1.2934982444484717],[124.75389101745657,1.2935083950964099],[124.75392808391405,1.2935158297917724],[124.75396852372842,1.2935273312214122],[124.7540076109625,1.2935327298516768],[124.75404266383794,1.2935496613878286],[124.75408580161854,1.2935665866287422],[124.75412893670114,1.2935780862597426],[124.75415926813582,1.2935882387063202],[124.75419634268712,1.2936078807991294],[124.75426981010366,1.2936315680424855],[124.75435475197025,1.2936837323184136],[124.75441138317888,1.2937223519050463],[124.75445453085194,1.2937535197092416],[124.75448689025779,1.2937731662986494],[124.75452867815602,1.2937853449178078],[124.75454877890309,1.2937909503921219],[124.7545650728199,1.29379549286773],[124.7546028191648,1.2938097102500024],[124.75463585216289,1.2938300331295522],[124.75466079396051,1.2938429024280254],[124.75468169420492,1.2938584867798113],[124.75470124546621,1.2938720377644017],[124.75472685725867,1.2938794814529615],[124.75476999324064,1.2938930153504202],[124.75480233915664,1.293894349045047],[124.75483064891534,1.2939045032902641],[124.7548650201046,1.2939119388849463],[124.75489468064507,1.2939275178407001],[124.75492029063901,1.2939329263634818],[124.75494523423527,1.293947150940312],[124.75496950334002,1.2939627325940819],[124.75500793227036,1.2939905144507406],[124.75503827179887,1.294012874294765],[124.75506315334189,1.2940290980644704],[124.7551002189,1.2940358537716747],[124.75514470116707,1.2940459972250551],[124.75518243941815,1.2940480054111845],[124.75525050011061,1.2940499920135835],[124.75528082704864,1.2940553969390862],[124.75531654182498,1.2940560498468585],[124.75535293019368,1.2940560246658492],[124.75538864497003,1.2940560003841597],[124.7554223380705,1.2940559770017899],[124.75545333500349,1.2940552773292211],[124.75548904618256,1.2940511827159753],[124.7555220629929,1.2940470899013121],[124.75556046674217,1.2940382468676717],[124.75559010569884,1.2940226274423594],[124.75562109004136,1.2940042929637912],[124.75563994882464,1.2939900369107136],[124.75566756340743,1.2939696708636461],[124.75568439601807,1.2939499909993515],[124.75571941831652,1.2939235158576139],[124.75574738273554,1.293902969046826],[124.75579250262194,1.2938622441473058],[124.75582752132311,1.2938296653068733],[124.75586590888463,1.2937977609579434],[124.75592584600111,1.2937434616914629],[124.75594193397319,1.2937255498942477],[124.75595218714375,1.2937141347995293],[124.75597777915129,1.2936930924623198],[124.7560074082154,1.2936625505863049],[124.75603501200624,1.2936286209641139],[124.75605588257304,1.2936007986380105],[124.75607742942987,1.2935750123769481],[124.75609628281723,1.2935546517258558],[124.75611917595927,1.2935288627668342],[124.75613534307172,1.2935200350216292],[124.75615353096077,1.2935112063771044],[124.75617845657052,1.2935023714373415],[124.75620877541473,1.2934928548114613],[124.75623842426398,1.2934921560382122],[124.75626942119686,1.2934921353538016],[124.75630783393945,1.2934954988182881],[124.75634287602293,1.2934981868918385],[124.75639072085517,1.2935001887827298],[124.75644058826265,1.2935015098868234],[124.75647671223055,1.293509009333377],[124.75655625007096,1.2935421871222843],[124.75662770300619,1.293577268776005],[124.75667016089926,1.2935840217852501],[124.75670655016722,1.2935853527818608],[124.756729649254,1.2935846576058907],[124.75676469043822,1.2935846342235209],[124.75677615409631,1.2935857251011953],[124.75679299390163,1.2935873267937268],[124.75681186617476,1.2935940959907839],[124.75684085042496,1.2936056064136778],[124.75686443874292,1.293611693025241],[124.75689140311579,1.2936259167027515],[124.75690691192449,1.2936401493734593],[124.75692444870435,1.293664553376459],[124.75692917913841,1.2936835398635367],[124.75693118012987,1.2937025452363287],[124.75693189239303,1.29370931083605],[124.75693325486588,1.293731691364485],[124.75693529272962,1.2937547490824386],[124.75695552477771,1.2937784731980173],[124.75698167526411,1.2937974183162737],[124.75700864323437,1.2938184237812607],[124.75703830377472,1.2938346808259098],[124.75706190018661,1.2938502633789994],[124.75709493138606,1.2938678739033094],[124.75712459282579,1.2938854871255785],[124.75715087910987,1.2938936080036569],[124.75718862005886,1.2939003637108613],[124.75719667438705,1.2939026093180246],[124.75722501472274,1.2939105116608403],[124.75727422202783,1.2939321808255499],[124.75730792322213,1.2939443648406268],[124.75734230160595,1.2939612972760983],[124.75737128585627,1.2939741629772925],[124.75740835770955,1.2939877013713499],[124.75744003812736,1.2940005661732243],[124.75749463776742,1.2940256221847903],[124.75754653674335,1.2940438982074056],[124.75758630476423,1.2940581128916619],[124.75761664699075,1.2940845421679228],[124.75765035627899,1.2941082572903042],[124.75768473646144,1.2941272230929144],[124.75772113831999,1.2941475441738817],[124.75774608011761,1.294161768750655],[124.75781956102401,1.2942058031553643],[124.75786549929342,1.2942559052858655],[124.75789113536769,1.2942979369003069],[124.75791811502904,1.2943365771713502],[124.75794037594767,1.2943704726192777],[124.75796263596692,1.2944036899783669],[124.75797614018677,1.294441661153769],[124.75799301506561,1.2944836990635054],[124.75799953964713,1.2945049896136425],[124.75801930404771,1.2945477784572859],[124.75804022767443,1.2945979516342163],[124.75805709715735,1.2946304936024262],[124.7580827278357,1.2946664224174924],[124.75810566594384,1.2947050653864949],[124.75815624561426,1.2947647138205411],[124.75818659773336,1.2948053856600836],[124.75820482159531,1.2948487788481202],[124.75822035108843,1.2948928528229544],[124.75823993022868,1.2949470972308177],[124.75826222262356,1.2950271117118746],[124.7582871967968,1.2950867781323723],[124.75830147263491,1.2951256288447439],[124.75830812581944,1.2951437348954755],[124.75833579885807,1.2952095032160287],[124.75835261258305,1.2952540187579871],[124.75837555788576,1.2953021567691394],[124.75839553722437,1.2953245238077784],[124.75842161126843,1.2953496391745603],[124.75842790382478,1.2953556997058513],[124.75844543430946,1.2953692515897615],[124.75847374496743,1.2953827971783767],[124.75850205112886,1.2953888810920375],[124.75854450722329,1.2953929208466661],[124.75860380941833,1.2953962699219801],[124.75866310801609,1.2953962294524786],[124.7587001708763,1.2953968814609311],[124.75874531864156,1.2953968499846837],[124.75878440407701,1.2953988572714934],[124.75879674997009,1.2953991000884457],[124.75888413709333,1.2954008222901621],[124.75891311504824,1.295403514860368],[124.75894378193004,1.2954095637004457],[124.75895422485769,1.2954116249466097],[124.75898590527538,1.295423810760326],[124.75904454197212,1.2954407252093461],[124.75912299343145,1.2954727644565764],[124.75914071277373,1.2954826560997503],[124.75919378716355,1.2955303633356721],[124.7592295262217,1.2955656059679654],[124.75925447701252,1.295592038841562],[124.75929155965787,1.2956225330535176],[124.75932662062712,1.2956516728864358],[124.75936033441201,1.2956801337312527],[124.75939606267821,1.2957011338003213],[124.75941898909514,1.2957228209514824],[124.75944461167956,1.2957465414697822],[124.75948640227568,1.2957627904204969],[124.75951740460459,1.2957702278138186],[124.75955783902316,1.2957742693670866],[124.75959153482154,1.295778992606472],[124.75962253265379,1.2957796500108998],[124.75964813905046,1.2957789539356099],[124.75968317843603,1.2957762163993038],[124.7597202332023,1.2957660171879866],[124.75975930694653,1.2957517467457365],[124.75978827770689,1.2957449451731122],[124.75982734785384,1.2957252491210056],[124.75986305183847,1.2957096251990947],[124.75990009491352,1.2956824701699361],[124.75992175418571,1.2956640880273085],[124.75994667439954,1.295646437033497],[124.75998371657533,1.2956179258266616],[124.76001133025875,1.2955968816908126],[124.7600456807636,1.2955737978925299],[124.76009754646464,1.2955412073608841],[124.76015276303963,1.2954848756265847],[124.7602086460123,1.2954170145836201],[124.76023894327273,1.2953783347423951],[124.76026856963881,1.2953457585999217],[124.76030964617325,1.295303003031222],[124.76032850315801,1.2952873899011479],[124.76036419365266,1.2952527758949373],[124.76039584619139,1.2952242682853807],[124.76042481065656,1.2952086488601253],[124.76048947281095,1.2951685894589104],[124.7605406667185,1.2951400683595011],[124.76057569261422,1.2951196960171956],[124.76061139569947,1.2951020378288263],[124.76065825487467,1.2950687898928095],[124.76070001039727,1.2950341713899434],[124.76074850364057,1.294998870301697],[124.76078757108962,1.2949751048172971],[124.7608360679302,1.2949452293389072],[124.76089399596117,1.2949105991448846],[124.76092901915899,1.2948848020919854],[124.76097010378737,1.2948562881871908],[124.76101790994869,1.2948006399376482],[124.76103473716341,1.2947735001969249],[124.76105560773021,1.2947456778707647],[124.76107848828167,1.2947008988274433],[124.76110541218509,1.2946567960743209],[124.76113772662484,1.2946133669133815],[124.76117207443178,1.2945848584045621],[124.76121786791032,1.294543453617564],[124.76125827984583,1.2945156187008706],[124.7613020606417,1.2944871029974365],[124.76134045629703,1.2944667288564915],[124.76138423889154,1.2944409264076739],[124.76141859569168,1.2944259805746015],[124.76151221601606,1.2943594496289279],[124.7615438739507,1.2943397598720594],[124.7615735030148,1.294310575073041],[124.76160514835897,1.2942725733206544],[124.76163005508306,1.294235253254385],[124.76165226384092,1.2941945436433002],[124.76166908206255,1.2941538394281906],[124.76167646279862,1.2941077149990861],[124.76167980557864,1.2940690540436321],[124.76168651991702,1.2940337808343543],[124.76169592322833,1.2939883335947684],[124.76172755508264,1.293932697935702],[124.7617443787002,1.2938994526976444],[124.7617679328439,1.2938553517431615],[124.76183590989933,1.2937359370639001],[124.76187898113017,1.2936545214390662],[124.76191599722551,1.2935880291642547],[124.76195301332098,1.2935208588006617],[124.76198531606951,1.2934597957330425],[124.76202301385104,1.2934055117549974],[124.76204520732051,1.2933403873490192],[124.76204855909384,1.2933152908680086],[124.76204988469453,1.2932840915876227],[124.7620491868206,1.2932495027623645],[124.76204779916668,1.2931904982429501],[124.76204711028595,1.2931681177145151],[124.76204709769547,1.2931511618966738],[124.76204911037826,1.2931369184340724],[124.76205516731216,1.2931260618183273],[124.76206459580453,1.2931185947473978],[124.76207672226303,1.2931138391324453],[124.76210030608433,1.2931131439564751],[124.7621151323076,1.2931151692297362],[124.76214680373209,1.2931151467466862],[124.76217712707285,1.2931151251629558],[124.76220610322912,1.2931151053778649],[124.76223373130176,1.293115085592774],[124.76226607631838,1.2931143850208855],[124.76233345622404,1.293106199391616],[124.76238870877194,1.2931027702766755],[124.76246013472746,1.293097972393582],[124.76253156428038,1.2930979220315066],[124.76258951569366,1.2930985596508435],[124.76265757728538,1.2931012252414007],[124.76272024744151,1.2931032163403984],[124.76276943945811,1.2931038602549734],[124.7628004363911,1.2931038377719233],[124.76283682296105,1.293102456413294],[124.76286377564281,1.2931004032610645],[124.76289409178901,1.2930895304575074],[124.76292373434296,1.2930786576539504],[124.76298098788232,1.2930433502704659],[124.76304161567805,1.2930168571422769],[124.76312110945173,1.2929849249143786],[124.76316287846419,1.2929692973951887],[124.76323969045939,1.292959070304903],[124.76329898276185,1.2929495329946121],[124.76335895225395,1.2929433870277194],[124.76340342642709,1.2929433564507917],[124.7634539647288,1.2929433213772086],[124.76351326422582,1.2929432791090676],[124.76359952000189,1.2929466101979301],[124.76364533866149,1.2929411522124497],[124.76369183091333,1.2929363723157508],[124.76374842165239,1.2929166636731111],[124.76380029185009,1.292892212006052],[124.76390606021653,1.2928528010160107],[124.76394850282122,1.2928385287751212],[124.76403001557287,1.2928045613814447],[124.76409064516724,1.2927787463420941],[124.76412769633623,1.2927631206215437],[124.76419267505196,1.2927389396504054],[124.76423794872244,1.2927252348817433],[124.7643209633419,1.2927190997067441],[124.76440397796125,1.2927129654310647],[124.76447340832124,1.2927068401485826],[124.76454132961874,1.2927037536753119],[124.76461227443701,1.292703704212613],[124.76466510511057,1.292705187194656],[124.76471341129491,1.2927112297394956],[124.76475870295189,1.2927248706562864],[124.76481305258039,1.2927385061771588],[124.76486136685867,1.2927567030594673],[124.76492628711856,1.2927779261603973],[124.76501439819594,1.2928004361912144],[124.7650778048968,1.2928155843717946],[124.7651366736186,1.2928170619579191],[124.76522876869274,1.29284586184707],[124.76529219068209,1.292882278994],[124.76533598137053,1.2929065561926336],[124.76539939706458,1.2929353767662519],[124.76549904644389,1.2929732867877988],[124.7655518906073,1.2929945188819829],[124.765633425842,1.2930309234384367],[124.76567269024247,1.2930582421441841],[124.76573007868024,1.2931022594617616],[124.76577838666333,1.293111339916436],[124.76585536773109,1.2931112859571385],[124.76591723659124,1.2930854160591707],[124.76594810941776,1.2930607062866102],[124.76596852942419,1.2930443620077199],[124.76603039108977,1.293007856727229],[124.76608171539885,1.293012379417803],[124.76613306039246,1.2930472848044019],[124.76618140524772,1.2931095385744129],[124.76622975729754,1.2931824268275705],[124.76627509661853,1.2932644333070016],[124.76630082082625,1.2933570868601123],[124.76636580134073,1.293464905680878],[124.76641717960922,1.2935484266186563],[124.76648364580365,1.2936228221356032],[124.76654860383508,1.2936972176524932],[124.766645280955,1.2938034950353199],[124.76672384123231,1.2939037082895766],[124.76679182098576,1.2939841787269302],[124.76685223923948,1.2940433855937954],[124.76695792846567,1.294084329927955],[124.7670288867738,1.2941070692858716],[124.76711798440749,1.2941647356141175],[124.76713160014333,1.2942103033628314],[124.76714522127497,1.2942619469313286],[124.76715431881678,1.2943211897711535],[124.76715435568906,1.2943758820413791],[124.76715287630429,1.2944184208734555],[124.76714988695778,1.2944609606049085],[124.76714842016349,1.2945217295941802],[124.76714543261573,1.2945688279890533],[124.767121375751,1.2947040554478235],[124.76710783375961,1.2947663523852952],[124.76707618841544,1.2948408162507121],[124.76704906036593,1.2949016041257551],[124.76701587987907,1.2949411257324073],[124.76696308427893,1.2949912971106983],[124.76692549441611,1.2950822779248483],[124.76692545304729,1.2950823777495657],[124.76692541077909,1.2950824757757005],[124.76688923914708,1.2951599820476076],[124.76688927601936,1.2952131553628874],[124.76689233461366,1.2952708819456689],[124.76689840683605,1.2953210119551954],[124.76691503889799,1.2953620192418498],[124.76694676428178,1.295399976927456],[124.76698149879724,1.2954257802755933],[124.76700701346294,1.2954348769180797],[124.76705971103695,1.2954652236412016],[124.76717747995679,1.295512236600473],[124.76721069192001,1.2955198097914149],[124.76724692380651,1.2955273811837174],[124.76731032960811,1.2955410086107122],[124.76736166021249,1.2955546459302241],[124.76740696985587,1.295594113577522],[124.76745530661719,1.2956442139093838],[124.7674870373969,1.2956897681683017],[124.76753991033866,1.2957520192403535],[124.76757163931973,1.2957960536450059],[124.76761091361288,1.2958385636987941],[124.7676652866237,1.2958871405791115],[124.76770456091685,1.2959281316780107],[124.76772419761369,1.2959493871545646],[124.76776799100003,1.2959767022630331],[124.76782128392517,1.2960100868960467],[124.76786808464442,1.2960222079585719],[124.76790110145475,1.2960312821180082],[124.76797659234592,1.2960585747434834],[124.76802338497134,1.2960600613228053],[124.76809432978951,1.2960615308150523],[124.76815923745892,1.2960630039045782],[124.76821357719484,1.2960644850879817],[124.76827244501737,1.2960644437191604],[124.76832980557617,1.2960674420588703],[124.76838112898599,1.296070443995859],[124.76843849134332,1.2960764811447234],[124.76851850582443,1.2960976943531364],[124.76858945334061,1.296103720710164],[124.76865587816633,1.2961173472378391],[124.76872985010255,1.296130968369539],[124.76877966265135,1.2961339712058475],[124.7688460802824,1.2961369632503192],[124.76888985388371,1.296136931774015],[124.76895475705646,1.2961338479987603],[124.76901060405623,1.2961307696193671],[124.76906644745861,1.2961216163195672],[124.77047124964849,1.2962455887629858],[124.7762434420813,1.2963419088520709],[124.77738407831259,1.2963609430031511],[124.77827648457219,1.2963603116791091],[124.77870614017627,1.2963267516782935],[124.7789439586968,1.2961170747432789],[124.7789703942683,1.2960937679131348],[124.7790363127757,1.295827668412187],[124.77903624442718,1.2957278976244311],[124.77893692509906,1.2954951710653404],[124.77854006687062,1.2951628841598222],[124.774572954978,1.2939351836618584],[124.7722199462936,1.2924895621436008],[124.77101032216865,1.2915119783951354],[124.7705106453501,1.2910363332601946],[124.77035275497576,1.2907455581610066],[124.77027378370826,1.290560504663631],[124.77024735623058,1.2903489688299032],[124.77027354628717,1.2902167307175887],[124.77029107137594,1.2900111645836319],[124.77040510810934,1.2899126429541639],[124.77047299972924,1.2898661057362233],[124.77058977939487,1.2897812556005306],[124.77068753480194,1.2897073520127265],[124.77079344705999,1.2896307117879928],[124.77087492833539,1.2895896361528116],[124.77095642579843,1.2895731659688749],[124.77110851824364,1.2894937621274494],[124.77117090960985,1.2894876089660556],[124.77131497740436,1.2894553295998321],[124.77144810134882,1.2894388324361898],[124.77153775476359,1.2894332989076815],[124.77163828727714,1.2894359591022635],[124.77173067732895,1.2894495667441674],[124.77180404941737,1.2894796023018671],[124.77189101565796,1.2895123583087411],[124.77195894774729,1.2895232428034547],[124.77202686364888,1.2895122620813027],[124.77213552423507,1.2894848399534453],[124.77224689717661,1.2894437436339103],[124.77238541885208,1.2893862149019242],[124.77253752928357,1.2893341567460084],[124.77262717190649,1.289298537297725],[124.77270321318281,1.2892520036770634],[124.77278468186762,1.2891945154145787],[124.77282267282817,1.2891343255886909],[124.77286882873352,1.2890850733175512],[124.77298833694226,1.2890248268343498],[124.77306984339862,1.2890193076949572],[124.7731649565975,1.2890493180716476],[124.77325192103933,1.2890766017038686],[124.77335788545815,1.2890874700107702],[124.77342854069468,1.2891010929411095],[124.77352331934583,1.289113382176879],[124.77361877878366,1.2891747860875284],[124.7736785639147,1.289202090404217],[124.7737614634209,1.2892239826007881],[124.77378183486383,1.2892293632445444],[124.77385792290488,1.2892511942872602],[124.77397476192573,1.2892675160830436],[124.77407257129221,1.2892701780763218],[124.77417852671772,1.2892564310395187],[124.77430891132724,1.2892153212301309],[124.77439038181069,1.2891605723025918],[124.77444026001001,1.2891415408494709],[124.77449088464664,1.2891222234119368],[124.77456423695003,1.2891112300992518],[124.77461390201006,1.2891204508482019],[124.77471096673776,1.2891384732619713],[124.77479519813994,1.2891384139066986],[124.77489571446574,1.289119198991898],[124.77499078269852,1.289083584939533],[124.77501702491588,1.2890714899573368],[124.77508584733403,1.2890397690701434],[124.77519177308193,1.2889959361136221],[124.77533575903806,1.2889794308561022],[124.77544171176567,1.2889629525782311],[124.77553678269646,1.2889300688676144],[124.77560198264541,1.2889136112742108],[124.77565629540175,1.2888752938597463],[124.77568887334292,1.2888479247919236],[124.77573230969836,1.2887904626098248],[124.77575130607795,1.2887549016174376],[124.77580561074046,1.2887056439503795],[124.77586534371073,1.2886591121283573],[124.77599302405883,1.2886316774100237],[124.77608265768856,1.2885960660556748],[124.77608378903574,1.2885955687305568],[124.77629068166971,1.2883349802751809],[124.77647439517727,1.2879646340606428],[124.77665808889969,1.2875678441807281],[124.77684185726594,1.2872768298618666],[124.77723569197371,1.2867212278024454],[124.77765584534109,1.2862184959868728],[124.77839118860254,1.2854511026862951],[124.77954716277145,1.2848685236634765],[124.78224981078017,1.2847218019696243],[124.78412947929212,1.28435437225653],[124.78570550790289,1.283376972869064],[124.78703917821554,1.2827048357596027],[124.79067289343936,1.2817747371144605],[124.79308264394888,1.2811579289952988],[124.79377779201161,1.2811815577827019],[124.79468880524428,1.2813979823310433],[124.79663020861733,1.2811554279806501],[124.79756475261127,1.2807447534676726],[124.79799599461955,1.2804309080599978],[124.79828523997196,1.2800422930174591],[124.79835520902577,1.279948285085311],[124.79827571165481,1.2794597193905588],[124.79792894116781,1.2780334908529767],[124.79772103859511,1.277407380146542],[124.79758229388779,1.2767812217759911],[124.79747807595254,1.2760854540804871],[124.79747756873485,1.2753548223672055],[124.79772884560975,1.2724911039813378],[124.79772885909961,1.2724908332853602],[124.79772915497654,1.2724903053833145],[124.79777290789343,1.2723976302464735],[124.79780269433888,1.2723971742902336],[124.7978494123206,1.2723957848376699],[124.79792892228204,1.2723907558287806],[124.79808210200747,1.2723829623039364],[124.79816475330074,1.2723734088058336],[124.7983031104003,1.2723674337101443],[124.79836869346047,1.2723624145938288],[124.79842799205824,1.2723632770436666],[124.79848819537403,1.2723736336363345],[124.79854750116635,1.2723862529232974],[124.79858973063165,1.2723893879599473],[124.79865846491623,1.2723938611877657],[124.79893384092406,1.2723954763702068],[124.79903805436277,1.2723850037649527],[124.79922133529647,1.2723817104476325],[124.79938934933909,1.2723874697060182],[124.79944011606858,1.2723937640610075],[124.79948863988886,1.2724050343649083],[124.79954211177915,1.2724253428553425],[124.79956682784689,1.2724379846253555],[124.79959783197444,1.2724492666204128],[124.79966387458819,1.2724596196158018],[124.79974923463953,1.272469506762377],[124.79982335676254,1.2724703593196978],[124.79987142462664,1.2724712289640934],[124.79993206771087,1.2724671181630356],[124.79998012927956,1.2724593983825798],[124.80002908837184,1.2724503197265449],[124.80010498665592,1.2724204262617036],[124.80023745859194,1.2723507027228038],[124.80033355924638,1.2723013533248491],[124.80039104301227,1.2722773486207757],[124.80043324729661,1.2722438614650855],[124.80045568807964,1.2722149077918061],[124.80047766840971,1.272167871450165],[124.8004875249793,1.2721307879056098],[124.80049467009303,1.2720701969820425],[124.80049776825751,1.2720028260696381],[124.80049819003955,1.2719625850053262],[124.80049725384526,1.2719092327249655],[124.80049359900045,1.2718201647688261],[124.80049086416216,1.2717636486734705],[124.8004876212068,1.2716212284369703],[124.80048890543867,1.2715294427296726],[124.80048707711694,1.2714851340317637],[124.80048702405702,1.2714078193154705],[124.80048735680612,1.2712409788881018],[124.80048987670648,1.2709873278029704],[124.80049109978449,1.2709622250267216],[124.80049386340113,1.270905487698144],[124.80050058403481,1.2708797113296555],[124.80051269340618,1.2708516704682893],[124.80053603081319,1.2708204558993543],[124.80054903141274,1.270780205841902],[124.80054990015788,1.2707381571402721],[124.8005431282628,1.2706884264297855],[124.8005349992909,1.2706269406808133],[124.8005282013155,1.2705414915965889],[124.80051870627335,1.2704528786974265],[124.80050878135523,1.2703918471061115],[124.80048715805594,1.270304600277143],[124.80046195545492,1.2702381529684317],[124.8004326987101,1.2701563362459751],[124.80037779240126,1.2700094301911236],[124.80034717588148,1.2699099813606267],[124.80032331776692,1.2698385599016433],[124.80031609531159,1.269787020654519],[124.80031741371772,1.2697467786909442],[124.80032368109312,1.2697137690752243],[124.80033803517222,1.2696834664188827],[124.80035418969419,1.2696590390334563],[124.8003784327185,1.2696373186074084],[124.80041076784278,1.2696237316499719],[124.80045972873359,1.2696182718657951],[124.80052621111577,1.2696137042091209],[124.8005922456357,1.2696118489077435],[124.80064974558934,1.2696113569786007],[124.80077058479469,1.2696081068287413],[124.80085593945012,1.2696098560101063],[124.80099429475092,1.2696034294547758],[124.8010401170078,1.2696047532568286],[124.80107336404456,1.2696106078433331],[124.80111290183902,1.2696205273654755],[124.80116368205836,1.2696453594458035],[124.80122121079035,1.2696873676779319],[124.80129986729514,1.2697469954275675],[124.80138525792336,1.2698034521676504],[124.80142750537516,1.2698314552574743],[124.80145626299623,1.2698431914101889],[124.8014877158854,1.2698535677879477],[124.80155779915322,1.2698598486531409],[124.80167819679139,1.2698679029813889],[124.8017693898455,1.2698696467668356],[124.80186776938217,1.2698682222406887],[124.80195042427272,1.2698645467115171],[124.80219525031066,1.269863922582033],[124.80228150428809,1.2698674794007161],[124.80238258628742,1.2698782595740568],[124.80243424874163,1.2698804835974897],[124.80248770534342,1.2698781858296684],[124.80255238728296,1.2698695496400774],[124.80260987914266,1.2698568503134311],[124.80269162302,1.2698359941358603],[124.80282321811706,1.2697961128004067],[124.80286588735089,1.2697861357216311],[124.80293101805205,1.2697775004313598],[124.80306802616849,1.2697697167990327],[124.80320459181848,1.2697727861851718],[124.8032845523403,1.2697700171726183],[124.80332902291616,1.2697672733410172],[124.80336630341219,1.2697591092954781],[124.80343412218701,1.2697396191881012],[124.80359355579799,1.2696816336005554],[124.80369236521051,1.2696526268672983],[124.80377231943703,1.2696412684298366],[124.80384553684212,1.2696344335822687],[124.80390528330224,1.2696325836768665],[124.80395110286122,1.2696325513012425],[124.80400680776802,1.2696338688080573],[124.80404049637184,1.2696288721747351],[124.80410382932837,1.269618428347826],[124.80415368414526,1.2696048287998565],[124.80417164900246,1.2695989382404491],[124.80419634978182,1.2695903299298266],[124.80420464782628,1.269585756877234],[124.80423002939244,1.269571768822118],[124.80425832026538,1.2695581854619604],[124.80430996203518,1.2695301158222492],[124.80435127688997,1.2695106446006434],[124.80439797778456,1.2694848412524493],[124.80442177474515,1.2694676426176557],[124.80443614141484,1.2694545206097132],[124.8045142502325,1.2693739854211117],[124.80455420441308,1.2693359782728066],[124.80458473010128,1.2693056630259889],[124.80462783460689,1.269275791144878],[124.80465747446294,1.2692613021674219],[124.80469519922417,1.2692481639716107],[124.8047437068567,1.2692359223999574],[124.80480210073642,1.2692295507032441],[124.80486768469598,1.2692249839458896],[124.80491934715019,1.2692272079693225],[124.80496516670917,1.2692262708757198],[124.80500020339673,1.2692212733431347],[124.80501771589491,1.2692122180694696],[124.80504106229523,1.2691932117973579],[124.80507023090649,1.2691484300560774],[124.80510029524248,1.2690995779831837],[124.80512183670351,1.2690692699309238],[124.80514114065113,1.2690520748934091],[124.8052057794232,1.2689796866632719],[124.80523136243744,1.2689471159167169],[124.80525165923677,1.2689280071218718],[124.80533865515486,1.2688830419189117],[124.80549005062539,1.2688039681286796],[124.80553096977849,1.2687842621839991],[124.80562868741401,1.2687350009196052],[124.80570747072329,1.2686955908288837],[124.8057575440755,1.2686598922402936],[124.80580822536933,1.2686211170709498],[124.80589980872924,1.2685380403983118],[124.80593461339174,1.2685091146040008],[124.80599872066443,1.2684500390381004],[124.80605243087507,1.2683737531462498],[124.80608050501132,1.2683325336195708],[124.80611774234001,1.2682888499505225],[124.80616048621755,1.2682568448775555],[124.80617758862491,1.2682512978591376],[124.80620813499752,1.2682494317659234],[124.8062502988123,1.2682635448267661],[124.80629002636374,1.2682862688962473],[124.80632853443433,1.2683120677477859],[124.80636400099786,1.2683593909731599],[124.80639458694066,1.2684147109702053],[124.80641541613863,1.2684977094017995],[124.80643196006702,1.2685677971661562],[124.8064387220694,1.2686274384055878],[124.80644058006874,1.2686643312939054],[124.80643999281153,1.2686987663350351],[124.80643637304024,1.2687639491969662],[124.80643154817744,1.2688543436530608],[124.80642914428961,1.2689115324413365],[124.80642979629818,1.268971177278047],[124.80643350690093,1.2690363547440029],[124.8064408813417,1.2690978395936554],[124.80645497191949,1.2691537873174639],[124.80646414860166,1.2691728421530115],[124.80648616400538,1.2692035719873047],[124.80650572515913,1.2692183163722461],[124.8065350583463,1.2692305939168023],[124.8065717192095,1.2692361022643581],[124.80667252511705,1.269237260591126],[124.8067403339993,1.2692298339896979],[124.80682015062951,1.2692232446570415],[124.80841281310086,1.2684205763485465],[124.81522021334229,1.2674387307129109],[124.81635558224434,1.2675013936744222],[124.81749114989668,1.2678496480428976],[124.81925809468544,1.2691176903292103],[124.82020444228124,1.269466074200011],[124.8208667363109,1.2694973373323251],[124.82152887475786,1.2693064751138081],[124.82229020033253,1.2685961860651673],[124.82239545158893,1.2684979890909744],[124.82239546507867,1.2684979207425044],[124.82239550374959,1.2684976923147246],[124.82255754539449,1.2679381970901886],[124.82270001239567,1.2670743452048896],[124.82277044100306,1.2654907496984151],[124.82262558810044,1.2629355869078722],[124.82232301569468,1.2609792421982888],[124.8215998744347,1.256303611122803],[124.8215998564483,1.2563035139960448],[124.82159984295845,1.2563034591373707],[124.81825761060031,1.2456893563787617],[124.81817003192145,1.2438081859990575],[124.81831349267361,1.2432871295973769],[124.81854336208653,1.2429396666323669],[124.81896146769759,1.2425850441645139],[124.81896177166846,1.2425847231065177],[124.81896232834879,1.2425847240058374],[124.81896304420923,1.2425847159119598],[124.81970480503276,1.2425427517466687],[124.81996092026031,1.2425793856301652],[124.82080257957546,1.2429101041180388],[124.82146011978875,1.2435307703288458],[124.82201063618197,1.2440504138955362],[124.82340168863709,1.2453010273205791],[124.82607511497463,1.2493483920147241],[124.828208407592,1.2531573599242734],[124.82906922426537,1.2546943372739179],[124.8290693312847,1.2546945809901899],[124.8290694122237,1.2546947212844088],[124.82906949675998,1.2546948390955777],[124.82906952733686,1.2546948687732424],[124.82907518677052,1.2547029599736561],[124.82933138383635,1.2550692178701297],[124.83279469192155,1.2600203418653564],[124.83458089928911,1.2621866288099],[124.834858981357,1.2623992905948285],[124.83502546295483,1.2625266067175858],[124.83521103176372,1.2626685197364509],[124.83521136001627,1.2626688183113401],[124.83521176381191,1.2626691663489851],[124.8352127836431,1.2626691123896876],[124.83521337090042,1.262669088107998],[124.8359094947275,1.2626740379765238],[124.83787713582126,1.2626880314275581],[124.83889930525879,1.2627292824304845],[124.84098145523001,1.2629257222443471],[124.84223176558362,1.2633439888340376],[124.84284332436005,1.2634223647503973],[124.84284566259737,1.2634227028954683],[124.84284811145119,1.2634230563290316],[124.84285097579198,1.2634233108371973],[124.84285334820356,1.2634234951981966],[124.84398867663617,1.2635353213980238],[124.84662679199289,1.2636737261615849],[124.84662824979398,1.2636738889388539],[124.84662977504411,1.2636746155910714],[124.84676439546058,1.2637465361737554],[124.84733409259434,1.2640508937337813],[124.84855495464751,1.2648685870157124],[124.85006367709707,1.2667213172350671],[124.85084098272523,1.2684882476345933],[124.85179331980589,1.2735391397195599],[124.85231584659914,1.275513212764622],[124.85308067863048,1.2784026769420507],[124.85308081083076,1.2784030546573035],[124.85308101407759,1.2784035510830449],[124.85380862496811,1.2797596738698758],[124.85497229823306,1.2819285301775949],[124.8576645527769,1.2869463613855032],[124.85895588480628,1.2892928463878093],[124.85896214408774,1.2893042201137064],[124.86127164986681,1.2935008335966245],[124.86128396428364,1.2935717352474398],[124.86130391574318,1.2936045119387245],[124.86137387940107,1.2937194497928317],[124.86146521814533,1.2938628592835926],[124.86148663999654,1.2939081653296398],[124.86159403703527,1.2938997278901638],[124.86180805229981,1.29394084309547],[124.86189847103765,1.2940217452074307],[124.86197937314967,1.2941502358447678],[124.86217337939797,1.2941865216906763],[124.86308857897484,1.2941010995861006],[124.86361205994865,1.2941106180106772],[124.86407367565971,1.2940915820609007],[124.8644134629111,1.2941010995861006],[124.86460614625673,1.294097394379321],[124.864660146049,1.2942385168940973],[124.86488670775543,1.2946871607838943],[124.86489350483146,1.2947324794204178],[124.8649295379679,1.2949726964328647],[124.86499684682713,1.2951890760151059],[124.86499944586774,1.2951974307168825],[124.86530364244925,1.2958589953963724],[124.86561871363278,1.295729654000354],[124.86563204338415,1.2959520986104849],[124.86566717090329,1.2965383819408203],[124.86550060926572,1.2967739476596307],[124.86547985471157,1.2972456636564971],[124.86554930845386,1.2978621552143181],[124.86548268307945,1.2983475651880099],[124.86601131986663,1.2985719091662986],[124.8660942859226,1.2986514182284168],[124.86623974766633,1.2987908194407964],[124.86634375516019,1.2989260271145326],[124.8665252842145,1.2991620146153195],[124.86671564101414,1.299521314457138],[124.86671615632565,1.2995250673280339],[124.86679892183281,1.3001280762497913],[124.86685246027287,1.3002874999681922],[124.86686028527402,1.3003030312599435],[124.86690151918981,1.3003848713647699],[124.86693095579903,1.3004432976201201],[124.86701108899058,1.3006023436233249],[124.86703968743166,1.3006752004002351],[124.86709972527217,1.3008281525972052],[124.86710633798714,1.3008490933110579],[124.8671425563839,1.3009637820529747],[124.86715326281285,1.3010387351495751],[124.8671853856971,1.3011172576553918],[124.86724963146537,1.3011743646052878],[124.86740667557763,1.3012064883888002],[124.8674851980835,1.3012635953386962],[124.86762555887253,1.3013834947525424],[124.86768000023187,1.3014299995948591],[124.8677294071864,1.3009183581957018],[124.8677348049174,1.3008750630338],[124.8677465113924,1.3007811711141812],[124.86775467094139,1.3006997950595292],[124.86775574383262,1.3006890967244544],[124.86776045088413,1.3006421602075875],[124.86777620430848,1.3005136291007489],[124.8677779849661,1.3005027518005932],[124.86778972111881,1.3004310803301564],[124.86779396232157,1.3004051816538436],[124.86779874401691,1.3003759770697343],[124.86780814912686,1.3003337673894748],[124.86781093072989,1.3003212794035903],[124.8678208646412,1.3002934750638815],[124.86783669001125,1.3002615617217543],[124.86786427401705,1.3002036606704337],[124.86791446877783,1.3001188599974398],[124.86793907962488,1.3000820399542476],[124.86794059228453,1.3000797790585921],[124.86794992275077,1.3000658197818211],[124.86794803327518,1.3000630390780543],[124.8679348779923,1.3000440786713625],[124.8676497344477,1.299633111878677],[124.86753670045846,1.2994701996900062],[124.86792790015249,1.2991867001061905],[124.86863560005293,1.2987140002509818],[124.86865540042641,1.298713600052622],[124.86870765373533,1.2988892007760455],[124.86871189673673,1.2989034613257218],[124.8687549877526,1.2990482692622436],[124.86875583401456,1.2990518872348389],[124.86875515682505,1.2990527209063885],[124.86875035624405,1.2990586321502064],[124.86850718585799,1.2993580560295186],[124.86849269598122,1.2993962259550926],[124.86842320176936,1.2995792847562484],[124.86841282359296,1.2996032346016477],[124.86836133560723,1.2997220521310737],[124.86833575798892,1.2998050002006494],[124.868389508669,1.3000072451383176],[124.868440550591,1.300199298958546],[124.86844461732528,1.300214600923141],[124.86863021491251,1.3007000108968327],[124.86914271516423,1.3015396629251654],[124.8693498748969,1.3019788027795585],[124.86949082923843,1.3023797250443181],[124.86954639924704,1.302709259125038],[124.86957475846839,1.3028774296496977],[124.86966722676118,1.3035475181035281],[124.86948393593491,1.3041959967479215],[124.86943431314307,1.3043715650957211],[124.86942125858423,1.3044177497793612],[124.86916470089034,1.304949926298093],[124.86941731325851,1.305608892836176],[124.86982782139694,1.3062519809442392],[124.87018713382918,1.3065644836640331],[124.87041910945436,1.3066099354002745],[124.87043707341229,1.306613455346735],[124.87062249383314,1.3066409692054322],[124.87080588987999,1.306668181791224],[124.87114853157948,1.3067895354087682],[124.87132748407623,1.306926916743862],[124.87165606487554,1.3071791693832324],[124.87166573888283,1.3071865959846605],[124.87200704239115,1.3074648264406505],[124.87237823846499,1.3079978249397186],[124.87240951868444,1.3082608334707402],[124.87240954206675,1.3082609539798682],[124.87240955195932,1.3082609998452881],[124.87240956365054,1.3082610250263542],[124.87240968865626,1.3082612939236355],[124.87241256288951,1.3082673580522055],[124.87241337497733,1.3082690739586269],[124.87244259125259,1.3083307242835645],[124.87248547632373,1.3084212203630727],[124.87250910870841,1.308471091367835],[124.87254314624931,1.308542914823704],[124.87255471782601,1.3085673350145726],[124.87320545646674,1.3099405206385768],[124.87345712094941,1.3104715819979447],[124.87463531376875,1.3129577838746513],[124.87524135700312,1.3142366450052236],[124.87527186560419,1.3144316324139709],[124.87586599461997,1.3182288677680845],[124.87589826679164,1.3182288443857146],[124.87594256020111,1.3207246833974864],[124.87595650508865,1.3215104822230046],[124.87577342020722,1.3232332882856781],[124.87573014842769,1.3236404689325241],[124.87588027765275,1.3255713889085428],[124.87605390976023,1.3258537598431985],[124.87628636292538,1.3262317898652327],[124.87696012331105,1.3269086843883429],[124.87926590769553,1.3284962252206469],[124.88091742899621,1.3295906183124089],[124.88212389829937,1.3303900922290381],[124.88212556384372,1.3303911111609068],[124.88212720960314,1.3303919511276945],[124.88303550238663,1.3308088498486086],[124.88320901488419,1.3308884911110113],[124.88414170267754,1.3313165881900204],[124.887520451108,1.3328673908174551],[124.88956321167291,1.3338049934057494],[124.892633060967,1.3352140152146603],[124.89263609707825,1.3352152778628579],[124.89263836067187,1.3352167572476219],[124.89382302860997,1.3359221863598805],[124.900197726344,1.3397180979119412],[124.90019884420133,1.3397188893153498],[124.90020008526574,1.3397196978058332],[124.90489525501209,1.3432552960950943],[124.90506890330732,1.3434414197857336],[124.90580614593694,1.3442316306852717],[124.90583385404921,1.3442613289971632],[124.9093367889617,1.3480159355870001],[124.90949727567875,1.3486263603183488],[124.90949749960998,1.3486274997593455],[124.90949716506213,1.3486283765983558],[124.90949249937944,1.3486380667933986],[124.90930325234331,1.3490310498431199],[124.90900303166461,1.3492428536748093],[124.90777190205165,1.349818078041892],[124.90500829979328,1.3511802883396626],[124.90500774671023,1.3511805554383045],[124.90500706682269,1.351180914267843],[124.90146798545925,1.3530193380720448],[124.90146685231343,1.3530199999730712],[124.901465399009,1.3530203857822016],[124.8911617386234,1.3562844373769281],[124.89115944535217,1.3562852782430355],[124.89115717906066,1.3562853438935463],[124.88423974946488,1.3568335724114604],[124.88007766814997,1.3568062635982301],[124.87852826306892,1.3567769079280083],[124.87716085379043,1.3563806000846625],[124.87174422541568,1.3527658299790914],[124.87161878437951,1.3526821165864362],[124.87161843544254,1.3526819142389854],[124.87161801366051,1.3526816669254345],[124.87161747946323,1.352681307196633],[124.87161702530557,1.3526809969305305],[124.87062107200495,1.352070200779167],[124.86883710664722,1.3514078806692282],[124.86658929166254,1.3511883858353713],[124.86475650121167,1.3515077647715543],[124.86475444446205,1.3515080552526229],[124.86475241559162,1.3515092531495725],[124.86409785663079,1.3518785984186366],[124.86381637872296,1.3521014747033178],[124.86341420100462,1.3524199228411931],[124.86231710814809,1.3547226504300056],[124.86221579772098,1.3549352924298432],[124.86192629246443,1.3555429472492619],[124.86097465685498,1.3574073722524531],[124.85931847976406,1.3606521207987612],[124.85729489724179,1.3633922579463729],[124.85729444218487,1.3633927777545409],[124.8572939250746,1.3633933470254078],[124.85510687997862,1.3653907754639363],[124.85060740630684,1.3695001421178858],[124.85060703938348,1.3695005558060416],[124.85060658432644,1.3695011277748677],[124.84897265016775,1.371830944742328],[124.84894261461,1.371825118034792],[124.84888396262488,1.3718240073720835],[124.84882876493566,1.3718286793501306],[124.84880691680587,1.3718321687196635],[124.8487724916572,1.3718521930243242],[124.84874714246666,1.3718669383085853],[124.84863565800924,1.3719561483575831],[124.84858049809156,1.3720094340881701],[124.84849200570159,1.3720882093034561],[124.8484346991022,1.3721278828955406],[124.84839660382022,1.3721542573131842],[124.84830808894719,1.3722029394141941],[124.84820461924789,1.3722458442703669],[124.84813017966417,1.3722825024356098],[124.84801609616602,1.3723524759860197],[124.84795979860587,1.3724231240279892],[124.84791041503365,1.372509969759335],[124.8478759718987,1.3725852313233986],[124.84785646740215,1.3726454328404998],[124.84784045857032,1.3727658196868902],[124.84780761802722,1.3728984687893444],[124.84780262589049,1.3729186315896413],[124.84774978262647,1.3729950640710058],[124.84764176775343,1.3731097348264711],[124.8475716611033,1.3731676619580639],[124.84752110661384,1.3732290460836793],[124.84745560629131,1.3732950707109808],[124.84742634504983,1.3733473330130437],[124.84741541019309,1.3733668635899221],[124.84737521409488,1.3734386573681832],[124.84735456745943,1.3735092766318644],[124.84732131412738,1.3736366224322296],[124.84731218780723,1.3737326970064032],[124.84731108343976,1.3737917267068838],[124.84732955191737,1.3738808360317876],[124.84735950563675,1.3739491017696537],[124.84741777990666,1.3740480253961209],[124.84745968921334,1.3741191680651923],[124.8474907859711,1.3741793309114314],[124.84755644637301,1.3743204876004711],[124.84757259100229,1.3743783481822902],[124.8475864504544,1.3744547276036201],[124.84758396292966,1.3745265726432763],[124.8475840096944,1.3745874927186605],[124.84757559114064,1.3746229098194931],[124.84756437389683,1.3746753375967842],[124.84755455330003,1.3747206760184554],[124.84754613834366,1.3747603523084422],[124.84754616981991,1.3748028524697133],[124.84754728767723,1.374806697071449],[124.8475560533692,1.3748368441450793],[124.84756981209716,1.3748636340495182],[124.8475941630403,1.374895880140798],[124.84748990823277,1.3749891182532679],[124.84747618817562,1.3750000000500222],[124.84730732607227,1.3751339405789622],[124.84708432298316,1.3752912976553375],[124.84695711567838,1.3753813728521322],[124.84680744780553,1.3754719147970604],[124.84671464676364,1.3755322736955122],[124.84660987934251,1.3755926415871613],[124.84647815744108,1.3756650846759726],[124.84640631060279,1.3757043220968512],[124.84636440039685,1.3757314816226085],[124.84632250817731,1.3757706956611173],[124.84627163622713,1.3758280112537591],[124.84622377520714,1.3758973687686193],[124.8461819126652,1.3759878270765853],[124.84614004742537,1.3760722617255396],[124.84608921414599,1.376168749987869],[124.84602041241214,1.3762773143466234],[124.84596360133924,1.376391899666487],[124.84592172530745,1.376464272608132],[124.84586788919182,1.376557750839595],[124.84582302201488,1.3766301273785189],[124.84574822899765,1.3767296526514201],[124.84572954198484,1.3767484898509679],[124.84567939668682,1.3767990362465525],[124.84562552909495,1.3768503218848878],[124.84555369394786,1.3769046328425816],[124.8454998137654,1.3769408449441016],[124.84546689498131,1.3769770408578097],[124.84544896699629,1.3770313104466823],[124.84544004122495,1.377106669137504],[124.84541912389352,1.3771639514552589],[124.84537725325765,1.3772423561498499],[124.84533838725679,1.3773267800069675],[124.84531146964866,1.3773750340306492],[124.84527854456928,1.3774021872611684],[124.8452396371996,1.3774323559185291],[124.84520372367297,1.3774655427006905],[124.84515285172279,1.3775228501993979],[124.84513190831103,1.377543961784454],[124.84509598489183,1.3775650949532405],[124.84505706223365,1.3775741682133571],[124.84499716378809,1.3775772259082828],[124.84493121740184,1.3775792871544468],[124.84489833459054,1.377580314180193],[124.84482645267872,1.3775743480777578],[124.84471264167519,1.3775714171871982],[124.84461381067888,1.3775714936296026],[124.84455091928953,1.3775715430923015],[124.84449102713927,1.3775715889577214],[124.84441614688774,1.3775686355841117],[124.844338286283,1.3775686967380238],[124.84428737026599,1.3775687372075254],[124.84423946158199,1.37757781676288],[124.8441586188253,1.3776019959354358],[124.84412269360746,1.3776201091807252],[124.84407780124957,1.3776593259171932],[124.84405385769946,1.3776834610229685],[124.84399998201366,1.3777256949848606],[124.84396706592736,1.3777649108220089],[124.84391917073322,1.3777920757437414],[124.84385330798386,1.3778192550546464],[124.84380538760865,1.3778253146865609],[124.84377245083795,1.3778253398675702],[124.8437502654624,1.3778281871211675],[124.84369459023321,1.3778374636281114],[124.84366764294748,1.3778465269956541],[124.84364669144168,1.3778585967968411],[124.84362575072782,1.3778977946475379],[124.84356294027748,1.3780033435795076],[124.84347622224993,1.3781691884573206],[124.84344929115196,1.3781993571146813],[124.84341037658771,1.3782325367022281],[124.8432636998599,1.3783230768485737],[124.84312004575361,1.3784528049530422],[124.84298834003994,1.3785463443383605],[124.84290453041979,1.3786036761188143],[124.84280575428215,1.3786760940265594],[124.84275785998727,1.3787032589482919],[124.84271894812105,1.3787394593585987],[124.84265908924567,1.3787817068103436],[124.8426112183331,1.3788510742177209],[124.84258730895715,1.378908359233435],[124.84250955537175,1.3790591323731292],[124.84247668515093,1.3791586261697262],[124.84242587975064,1.379291283366058],[124.84238102426491,1.3793787334418539],[124.84230920890298,1.3794601724490576],[124.842222434218,1.3795627194439817],[124.84215061435941,1.3796381347921169],[124.84208478758296,1.3797135384490957],[124.84203389944491,1.3797497478526566],[124.8419590488711,1.3797739234278765],[124.84189617007223,1.3797920573576334],[124.8418512309496,1.3798140664660536],[124.84183330836061,1.3798312875838974],[124.84181536598646,1.379867471806449],[124.84180344817071,1.379954895801859],[124.84177954958659,1.3800272552536512],[124.84172270433942,1.3801086816703787],[124.84168679081279,1.3801418603586058],[124.84165088987675,1.3801901206775824],[124.84162097842545,1.3802353565765202],[124.84159706545222,1.3802986742444432],[124.84157615981201,1.380371030998333],[124.84156423210368,1.3804343378744193],[124.84153732618677,1.3804976573410386],[124.84150442089242,1.3805519377218047],[124.84144156097932,1.3805941788783116],[124.8412293263724,1.3807740810590303],[124.84116022606361,1.3808295053773918],[124.84110933342902,1.3808596929205237],[124.84104646991875,1.3808989231468445],[124.84096994930383,1.3809689578511666],[124.84092377631134,1.3810286260703037],[124.84086395880468,1.3811251296210685],[124.84080413860022,1.381230675855079],[124.84077425772591,1.3813150943162213],[124.84072342984246,1.3814296751394295],[124.84071149583895,1.3814839402317034],[124.84069958162047,1.3815773860875424],[124.84069964906962,1.3816648010897552],[124.84070269417407,1.3817220654210018],[124.84072070309799,1.3817732953014001],[124.84074169867051,1.3818184916301561],[124.84077467591067,1.381857647212712],[124.84084661627833,1.3819389738046652],[124.84086459912203,1.3819570447818137],[124.84092453983567,1.3820202967992827],[124.84096351735252,1.3820684896691091],[124.84102644921131,1.382119685375244],[124.84108339788054,1.3821829391913525],[124.84114931908584,1.3822311113767114],[124.84120627674838,1.3822943651928199],[124.84127221683934,1.3823666535982397],[124.84132917270324,1.3824389500975371],[124.84141009819757,1.3825202703941954],[124.84149402383025,1.3826015870936317],[124.84153298875651,1.3826467699325349],[124.8415749484252,1.38268290739029],[124.84164086063731,1.3827190259623308],[124.84177566811263,1.3827671540809661],[124.84186853480514,1.3828032510692196],[124.84195542730117,1.3828514079661431],[124.84201235708463,1.3828905437636081],[124.84207230589232,1.3829537957810771],[124.84214125871222,1.3830411559246727],[124.84222519873401,1.3831526116038049],[124.84230913515853,1.3832580463218278],[124.8423764997757,1.383342598781951],[124.84237873189306,1.3835169080788887],[124.84239678308518,1.3836223931589871],[124.84243280003375,1.3837248439264727],[124.84247779581369,1.3838182547087285],[124.84251680120951,1.3839146719246287],[124.84254079961829,1.3839628863781286],[124.84254981801973,1.3840050717766985],[124.84254686104885,1.3840623495977979],[124.84253199705404,1.3841979997379212],[124.84252009272814,1.3843034992071921],[124.84250819289889,1.3844029768159771],[124.84249026131658,1.384451223645101],[124.84245139081906,1.3845296166485355],[124.84240650025981,1.3845718542077634],[124.84237060112241,1.3846231263562458],[124.84232872778864,1.3846985111274535],[124.84231979482274,1.3847648271350863],[124.84231983619156,1.3848190823348432],[124.84232588683028,1.3848944383277058],[124.84233189160352,1.3849215609812973],[124.84233492321823,1.3849607399462229],[124.84235594487097,1.3850390951781719],[124.84236499744679,1.3851264939925727],[124.84236505320473,1.385198833659274],[124.84236510176811,1.3852621324414827],[124.84235320913331,1.3853706518341369],[124.84233168386015,1.385420103754825],[124.84231376217042,1.3854804050966436],[124.84228385611516,1.3855437263619024],[124.84225693221174,1.3855829287092547],[124.84222104206754,1.3856462553704318],[124.84216122905752,1.3857487807816824],[124.84210140075913,1.3858422743015808],[124.84205355772554,1.3859357480363883],[124.8420057012022,1.3860231999107668],[124.84197580773741,1.3860925430364546],[124.84197283457877,1.3861166619544179],[124.84197289573262,1.3861950342734417],[124.84197590396491,1.3862161278720464],[124.84199692112111,1.3862884522503123],[124.84205688521718,1.3863697878354628],[124.84213783319456,1.3864812471119308],[124.84222776180184,1.3865866764340353],[124.84229668944067,1.3866408767751182],[124.84237159577253,1.3866890417659192],[124.84241955122138,1.3867402491632106],[124.84253047090453,1.3868727894477502],[124.84253165800965,1.3868742697318339],[124.84243700796162,1.3871781182755853],[124.84174510465289,1.3873374079950054],[124.84088498135691,1.386905611105135],[124.84054054011392,1.3862283451620669],[124.84047353612482,1.3856711737856813],[124.84033795163521,1.3851951068687072],[124.84024743936789,1.3847190048782068],[124.8400669742116,1.3844923973063601],[124.83957345595024,1.3844341859889369],[124.83957249097773,1.3844341671031657],[124.83957179130516,1.3844343568601403],[124.83876008211212,1.3847655160158183],[124.83826454577218,1.3851060272214113],[124.83765680102056,1.3860588490367149],[124.8373516079904,1.3871521989149187],[124.83720731716403,1.3876691202337383],[124.83718257771386,1.3891478143202107],[124.83718257501585,1.3891479348293956],[124.83718257141857,1.3891480562378433],[124.83715144588257,1.3900313280833529],[124.83715053846663,1.3900715871340594],[124.83722775695549,1.3901664889922927],[124.83726339079294,1.3902079819129085],[124.83730305719041,1.3902910882631545],[124.83734600701268,1.3903775140111065],[124.83735853726671,1.3904495074388592],[124.83736346195428,1.3905267511087231],[124.8373618539664,1.3905468941239292],[124.83736059131832,1.3905627158966922],[124.83735531319724,1.3907124044539501],[124.83735411440091,1.3907464339008584],[124.83735023472559,1.3908564623558846],[124.83734863213374,1.3909019257832824],[124.83735138046188,1.3910967423208263],[124.83735141013949,1.39109889529783],[124.83735327443412,1.3912310974372417],[124.83735827466467,1.3914410558600707],[124.83736507443871,1.3915433879170678],[124.83737494180014,1.3916950981503078],[124.83737547869544,1.3917033503294078],[124.83737941502807,1.3917638621126116],[124.83738031165217,1.39177764782022],[124.83739167818351,1.3918250169110706],[124.83741659929672,1.3919220492632007],[124.837462199421,1.3920270424140995],[124.83751123675427,1.3921330329131933],[124.83751660121027,1.3921444740882407],[124.8375286602195,1.3921572570517924],[124.83755745920939,1.3921774324426224],[124.83757487098353,1.39218684384781],[124.83758558460715,1.392192221793664],[124.83760834644806,1.3921948972767382],[124.83776780973665,1.3922028850551555],[124.83784126546209,1.3922024929507302],[124.83792420094119,1.3922020495849665],[124.83807225273233,1.3922178057072188],[124.83815509737985,1.3922322479199352],[124.83820242060528,1.3922537875822627],[124.83821974694388,1.392261674636643],[124.83825057570357,1.3922858367220101],[124.8382693850242,1.3923137876512328],[124.83830263296022,1.3923449689452241],[124.83831917329132,1.3923540260175287],[124.83835299859209,1.3923668494505819],[124.8384605880857,1.3923850346416771],[124.83856138410067,1.3924221001998376],[124.83872451032801,1.3925059736718026],[124.83872954113542,1.3925088820793121],[124.83892681282225,1.3926229350004746],[124.83900563480222,1.3926894569529509],[124.83904504759096,1.3927265099205215],[124.83905763540156,1.3927484138083059],[124.83908031090766,1.3928132935986923],[124.83909489341465,1.3928559736243074],[124.83913649065653,1.3929777247422521],[124.83919679739438,1.3931178903783916],[124.83925302120997,1.3932839996568873],[124.83926787441294,1.3933700270051759],[124.8392673447122,1.3934224017224892],[124.83926592917931,1.3935627364311927],[124.83926045860335,1.3936970627692631],[124.83925661220292,1.3937915392481841],[124.83926618998271,1.3938681282115795],[124.83928418181961,1.3939169757878744],[124.83930539862536,1.3940391136142694],[124.83932356493062,1.3941967791581078],[124.83932908496934,1.3943045952809143],[124.8393333108836,1.3943871278636948],[124.83933896761937,1.3945010180076451],[124.83934001622879,1.394637716757245],[124.83935777873853,1.3947892417301659],[124.83935354742835,1.3948909217786536],[124.83934770183498,1.3949164877058138],[124.83933533975414,1.3949420590288355],[124.83932753004149,1.3949538617313806],[124.839317109597,1.3949623909016395],[124.83930473402631,1.3949696097597553],[124.83922288312965,1.3949895369376009],[124.83908092604395,1.395024096984514],[124.83897083013971,1.3950630367298231],[124.83894604032753,1.395066535991873],[124.83892586133948,1.3950677123051491],[124.83881659101291,1.3950701530651486],[124.83878141582977,1.3950655422410136],[124.83874393028816,1.3950545534249272],[124.83870586738192,1.3950424053827533],[124.83863246291787,1.3950191408207502],[124.838592086056,1.3949977162716323],[124.83858578270781,1.3949900378599978],[124.83857102213506,1.3949720586136891],[124.83850754618641,1.3949167718915305],[124.83842919185383,1.394874516345908],[124.83837027187064,1.3948517769879913],[124.83830211315205,1.3948342303155528],[124.83823931978884,1.3948258162584466],[124.83819983685305,1.3948278001628864],[124.83817977207889,1.3948284674598312],[124.8380885241661,1.3948526268472961],[124.83804582435539,1.3948780497822213],[124.83797907577377,1.3949384851230207],[124.83795286503278,1.3949905360844355],[124.83795138295,1.3949934786661515],[124.83793753968575,1.3950254891350369],[124.83793184967521,1.3950517493387906],[124.83792861121651,1.3950829297334622],[124.83792462811914,1.3952343467877313],[124.83792220534554,1.3952663473640996],[124.8379294988473,1.395291704648514],[124.83793447479627,1.3953090031080819],[124.83794918860428,1.3953483754272042],[124.83800346538771,1.3954537319042402],[124.83802088525567,1.3954795091720484],[124.83807220057167,1.3955190757448008],[124.83821802204409,1.3955908362481182],[124.83823158831717,1.3955968104444878],[124.83852451099744,1.3957258002055823],[124.83871592270168,1.3958100891643426],[124.83887919821643,1.3958819881632962],[124.83919264162716,1.3959353260544844],[124.83941816101935,1.396018553813235],[124.83946613085732,1.3960550060337482],[124.83951937791699,1.3960988335943512],[124.83954521993599,1.3961201043593974],[124.83962853043238,1.396279070322862],[124.8396939111451,1.3963578554307219],[124.83974310496035,1.3963953229858248],[124.83976084408778,1.3964121016372246],[124.83981739435728,1.3964655933125414],[124.83987343561068,1.3965391839362269],[124.83998694534137,1.3966722422302382],[124.84001952957772,1.3966984196963494],[124.84005156882495,1.3967202300545978],[124.84008143081348,1.3967338538843137],[124.84013044026767,1.3967469920800681],[124.84016464058573,1.3967562452045854],[124.84019178032645,1.3967584080741062],[124.84025094222727,1.3967605439639783],[124.84030803568737,1.3967588748222397],[124.84036287005051,1.3967790304279788]]]},"properties":{"OBJECTID":535,"nama_kawasan":"Wilayah Metropolitan Manado Kota Tomohon","delineasi_asal":"Kota Tomohon","Shape_Length":0.63046521587520754,"Shape_Area":0.013738553430901679}}]}