{"type":"FeatureCollection","features":[{"type":"Feature","id":617,"geometry":{"type":"Polygon","coordinates":[[[123.06219294145114,0.58997563286919785],[123.06200833311811,0.59013055638013157],[123.06199761589733,0.59011677067246637],[123.06188887617077,0.58997691889970838],[123.06180034690851,0.58987543400411369],[123.06169376015896,0.58975324941297913],[123.06157002873385,0.58960334321977825],[123.06140108659099,0.58944867781428911],[123.06127735516588,0.58934636194510404],[123.06113934610403,0.58923452675207955],[123.06089902117299,0.58907272342747774],[123.06073959745447,0.58892757644656513],[123.06064917691799,0.58876577312196332],[123.06057541362452,0.58861586692876244],[123.06049451241188,0.58844930439192922],[123.06043502585578,0.58828036314827159],[123.06028036134967,0.58807810921740611],[123.06014949020687,0.5879519972868934],[123.06008092499474,0.58789179307183304],[123.06005193175133,0.58786633596270121],[123.05994247706371,0.58772832780010731],[123.0597782950324,0.58761173429417113],[123.05964266467731,0.58757366329399474],[123.05954034790875,0.58756414486941821],[123.0593856843019,0.58755224773807413],[123.05927622781576,0.58755462734421826],[123.05904542130918,0.58758317991987496],[123.05868612236668,0.58761649440572228],[123.05845769366772,0.58759031873825052],[123.05842764192221,0.58758443267549865],[123.05822688626188,0.58754510981901831],[123.05809839472522,0.58746896602002607],[123.05796276616877,0.58738330559509677],[123.05769864607566,0.58724053822032829],[123.05739645408312,0.58701211042063051],[123.05728845809597,0.58692327538886957],[123.05724892839544,0.58689075770234922],[123.05712281646493,0.58679081964066881],[123.05690390619043,0.58665281237745148],[123.05676351662305,0.58660284334661128],[123.05663264727889,0.58657428987163485],[123.05637090589266,0.58655763262868277],[123.05635623345347,0.58655672970934347],[123.05635428732057,0.58655661009953519],[123.05621624138644,0.58654811510348281],[123.05611630422413,0.58655763262868277],[123.05596401842479,0.58658142689137094],[123.05582362975679,0.5866099812656671],[123.05570227793783,0.58665043187198762],[123.05555237174462,0.58671229803417191],[123.05542626071338,0.58678130211546886],[123.05527635541955,0.58685030619670897],[123.05512882793312,0.58691931117732565],[123.05493371192131,0.58702638715806188],[123.05479570285945,0.58711204758299118],[123.05465252809176,0.58722554112586067],[123.05453872068551,0.58734523459492038],[123.05447685542265,0.58741185907007321],[123.05440547083583,0.58749752039432224],[123.05435550270431,0.58756414486941821],[123.05433967733427,0.58758815676804943],[123.05428649772375,0.58766884214338688],[123.05421234322512,0.58775359065572275],[123.05420321780434,0.58776402009351614],[123.05405331071177,0.58791630589286115],[123.05395337444872,0.58798768868092566],[123.05382726341759,0.58804241602473439],[123.05373684288111,0.58806621208606202],[123.05362738819349,0.58808048882355024],[123.05352507142493,0.58809000634875019],[123.05343703139397,0.58807572871194225],[123.05331567777637,0.58805431405539821],[123.05320622308875,0.58800672463070214],[123.05312294227008,0.58793296223649349],[123.05306107610784,0.58786157675041295],[123.05298471737092,0.58774806971769067],[123.05297303607676,0.58773070740625144],[123.05289213396486,0.58759983716282704],[123.05283740662105,0.58745230967639372],[123.05277316085278,0.58723815861418416],[123.05273608180482,0.58706520189758749],[123.05271942546119,0.58691053739141807],[123.05271942546119,0.58685119202891656],[123.05271942546119,0.58677966624867395],[123.05271974472055,0.58676140281653488],[123.05272180416796,0.58664403679290444],[123.05273132169316,0.58649175099355944],[123.05277760889965,0.58625707290565288],[123.05282412093652,0.58610390037472371],[123.05284610036733,0.58602880608458463],[123.05285267531076,0.58600634191918743],[123.05285598211799,0.58595922194058403],[123.05286219283596,0.5858707133627945],[123.05286219283596,0.58583165310835739],[123.05286219283596,0.58574222092681794],[123.05282650144193,0.58561610989562496],[123.05282084560565,0.58560088527269727],[123.05280222604199,0.58555075436385096],[123.05279556836081,0.58553282907683979],[123.05276761023708,0.5854906175979977],[123.05267421564258,0.58534961109575079],[123.05252430944938,0.58516401170982135],[123.05252084166352,0.58516023006063733],[123.05241961307479,0.58504979780997246],[123.05232205461914,0.58495937907213147],[123.05221735914392,0.58489037409151479],[123.05216861229167,0.58486144290134234],[123.05207989057453,0.58480878579689488],[123.05202467489892,0.58476608328817292],[123.05194847983853,0.58470715611042579],[123.05189137288858,0.58463577332230443],[123.05183188723186,0.58454773239196811],[123.05178667741325,0.58447158859297588],[123.05173670838246,0.58439068827971141],[123.05170339479594,0.58429075021797416],[123.05168312497631,0.58418360498944821],[123.05167149314491,0.58412212103911543],[123.05167008300793,0.58411467015594098],[123.05162963240173,0.58393383088161954],[123.05160107802737,0.58377440716321871],[123.05155348860274,0.58355787739418474],[123.0514844854207,0.58332468858355924],[123.05142023965243,0.58321761260276617],[123.05132030338939,0.58308436365251737],[123.05125843632788,0.58301535867190069],[123.05116325837776,0.58291780111568414],[123.05109663300323,0.58284879703438719],[123.05102762802267,0.58280120760969112],[123.05096338315366,0.5827607570033706],[123.05087772182947,0.58270602965956186],[123.05081808868385,0.58266627422921147],[123.05080633814202,0.58265844023486579],[123.05073257484855,0.58260847120402559],[123.05064215611071,0.58256326228479338],[123.05062225501308,0.58255448220364769],[123.05056125399869,0.58252756999138455],[123.05046131683639,0.58247997966736875],[123.05023526774346,0.58236576666683959],[123.05013295097501,0.58228010624196713],[123.05004253223717,0.58221110126135045],[123.04991642030666,0.58209212814927014],[123.04981648314424,0.58200884733048497],[123.04966895565781,0.58186131984410849],[123.04954284462667,0.58170665623725881],[123.04950186431961,0.58165226344124221],[123.0494554853824,0.58159070574652105],[123.04941197438313,0.58153295488199319],[123.04930251879625,0.58138780790108058],[123.04920015436369,0.58126041983257437],[123.04919544281552,0.58125455805145521],[123.04908360942113,0.58109989264596607],[123.04897891304643,0.58095950487728487],[123.04889325172223,0.58083815305838016],[123.04878855534764,0.5806715896222272],[123.04872430957926,0.58055499701555391],[123.04869855389518,0.5804999081443043],[123.0486386500537,0.58037177813508833],[123.04853463086863,0.58016374336210674],[123.04853157317359,0.58015762707287877],[123.04852925382204,0.58015230218705938],[123.04846732830458,0.58001009958650229],[123.04840047090511,0.57987829674607383],[123.04830076576775,0.57968173372506726],[123.04823331301702,0.57954923660804525],[123.04816751591818,0.57941999323816162],[123.04812624962676,0.57937713964332715],[123.04804378359381,0.57929150260082451],[123.04791529295642,0.57920108296366379],[123.0477249361569,0.5790868690638149],[123.04752982104446,0.57900120773956587],[123.04729489924023,0.57889127191469925],[123.04716433926296,0.5787993728927745],[123.04710627723296,0.57875850410175644],[123.04696350895881,0.57865380772710751],[123.04688595592222,0.57857625379114097],[123.04684929505902,0.57853959292793888],[123.04675411620951,0.57843013824032141],[123.04666369657241,0.57826357570348819],[123.04651202770799,0.57797720458438562],[123.04642099203522,0.5777448530425886],[123.04629725971085,0.57751642524289082],[123.04624064828738,0.57743922833776651],[123.04624058443551,0.57743914020420561],[123.04608786786082,0.57723088959392044],[123.04591654701107,0.5770214968446794],[123.04575950199944,0.57682162162058148],[123.04555010925026,0.57657891708339548],[123.04541210018829,0.57640759623365057],[123.04525505607603,0.57624103369681734],[123.04512180712572,0.57606971194769585],[123.04489813673968,0.57582700830982958],[123.04483151226452,0.57571279261134123],[123.04481993978845,0.57569779191959469],[123.04470302072787,0.57554623097382773],[123.04469990187908,0.57554218762192022],[123.04457453009059,0.57537966933631424],[123.04442700440279,0.57516551737478494],[123.04432230712882,0.57502274999995961],[123.04424858070752,0.57490383714241489],[123.04417478144103,0.57478480377574215],[123.04405104911666,0.57460396540074044],[123.04389400410503,0.57439457175212283],[123.0438200501552,0.5743175358256849],[123.04366557630533,0.57415662642722509],[123.04357761721337,0.57406866733515471],[123.04355136240554,0.57404241162805647],[123.04344666513157,0.57396626872838397],[123.04328486180702,0.57389488594026261],[123.04308498658293,0.57384253730327828],[123.04299551662984,0.57383213304655101],[123.04288035394529,0.57381874214127038],[123.04257102403358,0.57381398382835869],[123.04232831859713,0.57379494787858221],[123.04197615937233,0.57378067114109399],[123.04172393641056,0.57375687597908609],[123.04151930197429,0.57375687687840582],[123.04129087417459,0.57375687687840582],[123.04110527568798,0.57377591192886257],[123.04103450174091,0.57379503960942202],[123.04092919562595,0.57382350225287837],[123.04081498172604,0.57387109077825471],[123.04074359803872,0.573932956940439],[123.04070076692688,0.57399958141559182],[123.04063890166401,0.57411379621476044],[123.04063857431083,0.57411456063852029],[123.04056751797668,0.57428035785227394],[123.04051516933964,0.57443264275229922],[123.04048185845102,0.57457065181415601],[123.04040571465202,0.57475149108847745],[123.04037240196487,0.57489901677627131],[123.04031329042607,0.57503201841296914],[123.04029625906514,0.57507033942465569],[123.04023439290302,0.57521310590016128],[123.04007248885432,0.57545922786113124],[123.03997741162834,0.57558906208561211],[123.03987271525364,0.57564140982327672],[123.03977277809133,0.57566996329819631],[123.03960145634221,0.57568899924797279],[123.03944917144213,0.57566996419751604],[123.03934897977172,0.57564733995280903],[123.03930164485507,0.57563665061098845],[123.03917315421779,0.5755747853481239],[123.03906845784309,0.57549864244845139],[123.03899231494347,0.57540346359900241],[123.03895205859067,0.57529880139861689],[123.03894472461945,0.57527973217395356],[123.0389177206763,0.57516271238932859],[123.03891617204374,0.57515599984958499],[123.03888286025585,0.57499419562566345],[123.03888259945245,0.57498166087498248],[123.03888156882942,0.57493222514210629],[123.0388781001443,0.57476576782596567],[123.03889107196551,0.57459281110936899],[123.03889237688179,0.57457541102644427],[123.03891617204374,0.57424704606438581],[123.0389646131265,0.57386821564568891],[123.03899707415576,0.57357127839185296],[123.03901611010542,0.57332381464237869],[123.03903990436811,0.5730240022559201],[123.03903990436811,0.57283840376936723],[123.03903810932138,0.5728208130301482],[123.03901610920616,0.57260521675738119],[123.03899707325638,0.57243865511986769],[123.03893044878123,0.57223877989582661],[123.03884954666933,0.57209125420808959],[123.03874960860765,0.57192469167125637],[123.03864491313232,0.571791441821631],[123.03853417331356,0.57168513206323723],[123.03852594002012,0.57167722792178211],[123.0384534708511,0.57164020463176257],[123.03841648533262,0.57162130987558157],[123.03822612763372,0.57156420292568555],[123.03805480678398,0.57154040866299738],[123.03785969077217,0.57156896213791697],[123.03770264576053,0.5716308283001581],[123.03748849469832,0.57176883736201489],[123.03737904001071,0.57183070262487945],[123.0371553714233,0.57203533706120879],[123.03698404967417,0.57219238117352234],[123.0367270683995,0.57243984492293976],[123.03653935740545,0.57261800691554754],[123.03633207716371,0.57275869325911799],[123.03616551462687,0.57283007604723934],[123.03587046235202,0.57287766637125515],[123.03562775691546,0.57289194220942363],[123.03531842700386,0.57287290715896688],[123.03528652984949,0.57286825496606752],[123.03508999920416,0.5728395935724393],[123.03488536476789,0.57278724583477469],[123.03475687413049,0.57274441562231004],[123.0346521777559,0.57266351440972585],[123.03464594275613,0.572652602035987],[123.03457603485617,0.57253026545942021],[123.03455801424104,0.57248766997003031],[123.03452368711851,0.5724065322357319],[123.03450465116873,0.57220189869872229],[123.03450465116873,0.57182594431191092],[123.0345071440895,0.57165644368996027],[123.03450941038102,0.57150233766282099],[123.03449989195656,0.57115017663937806],[123.03451892790622,0.57086940110201567],[123.0345213066131,0.57085644996521978],[123.03456175811868,0.57063621409002963],[123.03463446291016,0.57048225105506845],[123.0346426602307,0.57046489324028471],[123.03465580202374,0.57044834391598442],[123.03477115086798,0.57030308901642002],[123.03477812061385,0.57029660490445622],[123.03497578530425,0.57011273221684178],[123.03524894987925,0.56987828525473105],[123.03540360898944,0.56969476510136019],[123.03545643516645,0.56963208145543831],[123.03557455931855,0.56947598882584316],[123.03558968501602,0.56945600139340513],[123.03559319506996,0.56944266444747882],[123.03566106870346,0.56918474158260324],[123.03567058712792,0.56901817994508974],[123.03564679196597,0.56878975214539196],[123.03560396175351,0.56867553734622334],[123.03554685480356,0.56856132434569417],[123.03540884664108,0.56835668990936483],[123.03520421310407,0.56809019021017093],[123.03497102609208,0.56774278929833599],[123.03475687413049,0.56745725275004588],[123.03445230343107,0.56700039715065031],[123.03420007957004,0.56669106723899176],[123.03396689345743,0.56644360259025461],[123.0338003309206,0.56630083611474902],[123.03360521490879,0.56613903189088433],[123.03341961732156,0.56601530046577864],[123.03310552819767,0.56582970197922577],[123.0328628227611,0.5656964521296004],[123.03261535901163,0.56557747901746325],[123.03233934178729,0.56546802432990262],[123.03205380613826,0.56534905121776546],[123.03177778891393,0.56530622100535766],[123.03158267290212,0.56529194426786944],[123.03146957326226,0.56528745665087854],[123.03131306244791,0.56528124683211445],[123.03098780824087,0.56527290921741269],[123.03081648559237,0.56525863158060474],[123.03073634790417,0.56522237900964001],[123.03061661216702,0.56516821194350086],[123.03050239826712,0.56508255061925183],[123.03034376685139,0.56491440257764225],[123.03019148195142,0.56469549230320126],[123.03019063838735,0.56469405158924246],[123.03004608046228,0.56444745388694173],[123.0300296777275,0.56441947507875057],[123.02989296009207,0.56413910783362553],[123.02975490966139,0.5638604430050691],[123.02975366140242,0.56385792220538633],[123.02974925382512,0.56385131128905641],[123.02962041065348,0.56365804698134525],[123.02949667922837,0.56349624365674345],[123.0293634293788,0.56338202975689455],[123.02919908906676,0.56326093694275414],[123.02918259010448,0.56324877990732602],[123.02898652261001,0.5631793000846983],[123.02864388001115,0.56320785445893762],[123.02852152095147,0.56323454993457744],[123.02844757509558,0.56325068377208254],[123.02830038845218,0.5632801212806271],[123.02821557698735,0.56329708339370654],[123.02813367932595,0.56333499881117177],[123.02802284058168,0.5633863132277952],[123.02786487196636,0.56345623281896451],[123.02780512011032,0.56348268098099652],[123.02763379926046,0.56358975696178959],[123.02740536966212,0.56370040235174201],[123.0272768799241,0.56372538641750225],[123.02716980394337,0.56371467908923023],[123.02709128233687,0.56366114064917383],[123.02699389205452,0.56359418522350779],[123.02697706843708,0.56358261814335719],[123.02694086263079,0.56352629899953399],[123.02693437492155,0.56351620590822904],[123.02691282266869,0.56348268098099652],[123.02689827343659,0.56344509381608532],[123.02689817181329,0.56344483391200129],[123.02686999245623,0.5633720355910441],[123.02686029416725,0.56334009077261271],[123.02685186392239,0.56331231970784756],[123.02680931609711,0.56317216216558563],[123.02678790144057,0.56302225507306503],[123.02678790144057,0.562850935122583],[123.02680217727868,0.5625832447209973],[123.02681712491039,0.56239383131031673],[123.02686285363779,0.56222632628396241],[123.02691639117859,0.56206571186316978],[123.02694494465356,0.56193008330672001],[123.02695325978516,0.56186688974520393],[123.02696279080021,0.56179445385100735],[123.02695208257262,0.56168380936037465],[123.02693215809268,0.56161158031022751],[123.02692352999702,0.56158030188947805],[123.02685571481948,0.56148393413627673],[123.0267557767578,0.56139470430218807],[123.02667368574203,0.56131975120558764],[123.02635959661814,0.5611412906380906],[123.026118456002,0.56100444170169794],[123.02605122178647,0.560939098760457],[123.02592341193599,0.5608208675890296],[123.02583484130491,0.56073893395466712],[123.02577068097219,0.56062019016968634],[123.02569215846643,0.56046671366794953],[123.02567740328959,0.56043209696377971],[123.02559935922307,0.56024899319652377],[123.02550656087919,0.56005625679085824],[123.0254280392727,0.55985638336545662],[123.02537407095667,0.55970797094613545],[123.02535665468588,0.55966007665125517],[123.0252447043797,0.5594585664597389],[123.02523173345776,0.55943521826077358],[123.02516688244577,0.55933330978444928],[123.02515678036116,0.55931743495170849],[123.02513541786527,0.5592911135940426],[123.02495690513717,0.55907116010598656],[123.02484625974716,0.55894980828708185],[123.02470349237228,0.55882845466948083],[123.02469592817465,0.55881764931513089],[123.02462854017506,0.55872137958806434],[123.02461029023277,0.55868595259465792],[123.02456786291657,0.55860359627899925],[123.02455358617908,0.55845012067658217],[123.0245484402584,0.55824941178099152],[123.02458570996259,0.55812175571452372],[123.02460944936661,0.55807258078505129],[123.02463567809411,0.55801824914294684],[123.02469635445323,0.55792187959110606],[123.02478915369659,0.55779338985308868],[123.0248783826313,0.55770059060984067],[123.02498545861204,0.55762206900334377],[123.02511395014869,0.55752213184098309],[123.02525671842284,0.55742933259767824],[123.02534659037292,0.55733945974833432],[123.02535665468588,0.55732939543531756],[123.02546730007589,0.55721518063614894],[123.02551311244019,0.55711522638665656],[123.02554582168239,0.55704385888702745],[123.02556711582974,0.55690392437668379],[123.0255708057482,0.55687967685565809],[123.0255779454659,0.5567083551065366],[123.02556723723831,0.55658700328763189],[123.0255315449449,0.55633002201295767],[123.02548157591411,0.5561230079704842],[123.02541376163583,0.55590885690827463],[123.02535308527672,0.5557125510933929],[123.02530366842961,0.55548193794112422],[123.02527813218012,0.55536276967615095],[123.02526028693273,0.55516289625069248],[123.02526742485179,0.55495588310753874],[123.02528170158928,0.55481668424260988],[123.02532096239258,0.55469533062506571],[123.02537954962656,0.55458834457647299],[123.02540305430762,0.55454542533118456],[123.02553511525343,0.55443121143133567],[123.02567074291051,0.55437410358206307],[123.02584206465963,0.5543277048597588],[123.02605264721194,0.55430271989467883],[123.02620255340514,0.55429915138478236],[123.02634889018918,0.55429558197556617],[123.02651742493924,0.55430071710446782],[123.02669510219732,0.55427416731902213],[123.02670688691342,0.55427023908032425],[123.02683430016293,0.55422776769734128],[123.02696279080021,0.55414567578236529],[123.02705915945273,0.55406358476665218],[123.02714125046839,0.55396007909439504],[123.02719966233462,0.55385387725465307],[123.02721977297415,0.55381731082030683],[123.02728401784316,0.55363528084359359],[123.02730832921611,0.55355829527917422],[123.02732586599598,0.55350276214278438],[123.02732684805562,0.55349965228714382],[123.02739109382401,0.55333189994729537],[123.02747318483966,0.55312845711267755],[123.02753386209815,0.5529856888385325],[123.02756598408291,0.55291073574193206],[123.02766235273543,0.55280366066045872],[123.0277801360445,0.55268230794217743],[123.0278375802402,0.55262978843404653],[123.02790505727262,0.55256809404232854],[123.0280085638442,0.552525262930601],[123.0281977308407,0.55248957063724902],[123.02837262199898,0.5524752938997608],[123.02860461920784,0.55247172538986433],[123.02888855316428,0.55249163098403642],[123.02918996724327,0.5524967103549443],[123.02940768681538,0.55248243271813635],[123.02953744639615,0.5524720518437789],[123.02958614738282,0.55246815598064813],[123.02971820563073,0.55240391111163945],[123.02984669806676,0.55225400401911884],[123.02992306309898,0.55202490982179597],[123.02992307928673,0.55202486215773661],[123.02993949731001,0.55197560808790058],[123.02997518870404,0.5516436728173062],[123.0299787581132,0.55143309026493625],[123.02998004234519,0.55134319223458306],[123.0299823266231,0.5511832469093747],[123.02999831926707,0.55084725209906082],[123.03004300298221,0.55054436223258563],[123.03008226378552,0.5503516258269201],[123.03013580222557,0.55012319712790259],[123.03024644671621,0.54980554039343588],[123.03034535775214,0.54958727673147223],[123.03039166564292,0.54948509216330876],[123.03050531746646,0.54910978528840815],[123.03052484444606,0.54904530119972605],[123.03056767375915,0.54881687340002827],[123.03059199862196,0.54859565096859342],[123.03061169377474,0.54841652939933283],[123.03064854169691,0.54819807598045145],[123.03065333508346,0.54816966010179158],[123.03069497459342,0.54783058691208453],[123.03072174471276,0.5475331541318269],[123.0307276928288,0.54735469536296932],[123.03070687622142,0.54717772137479415],[123.03069165609509,0.54704832871743747],[123.03067712934615,0.5469115202504895],[123.03066523311406,0.54685203279512962],[123.03062954082077,0.54678362406502856],[123.03062497676137,0.54678083526738419],[123.03057600238071,0.54675090672901661],[123.03051651582462,0.54674198365569282],[123.03046595324122,0.54673603374101276],[123.03045456692473,0.5467368467281517],[123.03042431193251,0.54673900869835279],[123.03033507310522,0.5467668957756473],[123.03032913308311,0.54676875197634445],[123.03031932957344,0.54677101377131976],[123.03025180127963,0.54678659812304886],[123.03021192803806,0.54680454139651147],[123.03019231382427,0.54681336734307706],[123.03013282816755,0.54686095676777313],[123.03010010993216,0.54692044332387013],[123.0300287271441,0.54709890209272771],[123.02998113771935,0.54721192708882427],[123.02994841858469,0.54728925979156884],[123.02993949641075,0.54734874634760899],[123.02988298481193,0.54747069261838988],[123.0298472934179,0.5475599233518551],[123.02977590793182,0.54765510130192752],[123.02970749920178,0.54774730519403647],[123.02962719334039,0.54786033019013303],[123.02962621218001,0.5478611152983035],[123.0295506322559,0.54792159830316223],[123.02949334724019,0.54795550814026228],[123.0294130413788,0.54795253408224198],[123.02931488757201,0.54790494465754591],[123.02924945289999,0.54785140711680924],[123.02916914613922,0.54774135617867614],[123.02912445972606,0.5476945626539873],[123.02907712031288,0.54764499112349085],[123.02903719401138,0.54756722584681938],[123.02899068557178,0.54747664163375021],[123.02894158978256,0.54744179919970293],[123.0289001867942,0.54741241565051268],[123.02889848167968,0.54741120606234972],[123.02884494503826,0.54737253971097743],[123.02879140569883,0.54736064257963335],[123.02876761233551,0.54736064257963335],[123.02868433061747,0.54740823290364915],[123.02859510078338,0.54745284737106203],[123.02855369869428,0.54747186983098572],[123.02848505074451,0.5475034108537784],[123.02840771894114,0.5475331541318269],[123.02825602759367,0.5475569492938348],[123.02814002943887,0.54757181958387946],[123.02796454382872,0.54757479544048238],[123.02779798219115,0.54757479544048238],[123.02764629084368,0.54758371671522355],[123.02744106195553,0.54757181958387946],[123.02736264377108,0.54755993774097078],[123.02734290994738,0.54755694839451508],[123.02729665421725,0.5475599323450524],[123.02729655529185,0.54755993774097078],[123.0272732367705,0.54756144320606381],[123.02725070515601,0.54756289740981856],[123.02715255314786,0.54759264068786706],[123.02711388679654,0.5476372551552231],[123.0270990147078,0.54774433113601617],[123.02709009163448,0.54780976670741666],[123.02710198876582,0.54795550903958201],[123.02711686085456,0.54806555817901881],[123.02713768105923,0.54817560911709506],[123.02714183143041,0.54820818346092892],[123.0271629214318,0.54837370638148286],[123.02715552810525,0.54852955439548623],[123.02712621919977,0.54863897131150452],[123.02707522044511,0.54872585931099138],[123.02697508633128,0.54879016803187142],[123.02694432681926,0.54880992164061126],[123.02686701839821,0.54884185836510824],[123.02674507122811,0.54888349787518109],[123.02664394336341,0.54892513828457368],[123.02654579135526,0.54896082967860593],[123.02642979230109,0.54899949602997822],[123.026340562467,0.54902031713396582],[123.02623051242824,0.54907088061668219],[123.02612938546281,0.5491154959834148],[123.02605120200144,0.54909329082278191],[123.02599177569994,0.54905717315006086],[123.02571063683649,0.54888630735723609],[123.02541340460505,0.54857910793953124],[123.02519345291557,0.54857312385064461],[123.02486055177314,0.54848934390815884],[123.02456331864232,0.54828587409383545],[123.02432553339668,0.548130279688678],[123.02416648559495,0.54802760139273232],[123.02405207924016,0.54795374097238891],[123.02376970920477,0.5480225633906457],[123.0239777727561,0.54848336341655113],[123.02413530789818,0.54874667681775691],[123.0241412533162,0.54896211570911646],[123.02381726985118,0.54915960323313584],[123.02346356469184,0.54924139207662392],[123.02327925403438,0.54931460138777766],[123.02317227787842,0.54935709165647495],[123.02285721119142,0.54933515089652474],[123.02271032941826,0.54925634420499136],[123.02249657046048,0.54914165636239431],[123.02230435835952,0.54882647636082993],[123.02210947707079,0.54868421530431988],[123.02196551179895,0.54857912232870376],[123.02157911088727,0.54857114264416396],[123.0212105426325,0.54863098892906237],[123.0209192549197,0.54860306318084895],[123.020596758034,0.54859109500307568],[123.02029903207472,0.54882648445476434],[123.02015091283442,0.54921946120919074],[123.01996464165495,0.54933765460913264],[123.01990569739007,0.54937505741304449],[123.01973627410985,0.54914764944453509],[123.01967474969001,0.54908797942675847],[123.01949254344618,0.54891126534266732],[123.01914393204686,0.54894263099765794],[123.01908236176166,0.54894817082146119],[123.0187910758475,0.54911174581047817],[123.0186008476511,0.54927332610316171],[123.01829864846388,0.54943904237796914],[123.01823525345424,0.54947380567165283],[123.01773493272105,0.54964899720351923],[123.01768834693974,0.54966530910678557],[123.01754355968762,0.54971557041727692],[123.01746313061903,0.54974348987019539],[123.01725736033893,0.54981492122169584],[123.01693635003255,0.54983586823078667],[123.01659156075198,0.54982090710922193],[123.01622893701585,0.54982988504121977],[123.01576822782147,0.54985681613919724],[123.01532535128399,0.54977602824118321],[123.01522996019457,0.5497501736316508],[123.01508872526449,0.5497118939887855],[123.01496470965367,0.54967828182731182],[123.01468278208483,0.54968635414195433],[123.01454660314323,0.54969025270304428],[123.01435974110927,0.54971652999392973],[123.01423450871562,0.54973413961891993],[123.01381392637165,0.5497760309391424],[123.01342306662127,0.54995157590457211],[123.0131243478105,0.55027573293875776],[123.01266010697839,0.55059027442166553],[123.0125016482325,0.55069763638687164],[123.01208255066922,0.55098788178537461],[123.01177942428103,0.55119753174074049],[123.01169317839754,0.55125718197342621],[123.01166627967518,0.55128102210153429],[123.01141972424091,0.55149955196282008],[123.01117004905859,0.55170601382150153],[123.01092632019356,0.55193043064491576],[123.01067664501124,0.55212193318072877],[123.01027240874475,0.55243910787856976],[123.01001084632355,0.55266053175819252],[123.00976711565988,0.55284006611623226],[123.00949960692139,0.55306747498400455],[123.00941126741611,0.55314225810877815],[123.00940681936925,0.55314602446952676],[123.00932201419971,0.55321781375113233],[123.00923804180229,0.55328889886362731],[123.00909982859423,0.55340110817462573],[123.00896161718492,0.55351331568704154],[123.00880408384148,0.55360607446078802],[123.00864655139731,0.55369883323459135],[123.00845879903443,0.55376416358535607],[123.00827104757082,0.55382949393606395],[123.00816899790095,0.55394220057212351],[123.00806694823109,0.55405490720823991],[123.00805211841055,0.55408731158019009],[123.00803728769074,0.55411971685151684],[123.00799456359834,0.5540609722361296],[123.00796245959987,0.55401682991282541],[123.00789704920953,0.55392688961433123],[123.00769479527867,0.5541648358385487],[123.0074925413478,0.55440278206276616],[123.00731408167962,0.55447416485088752],[123.00713562201145,0.55454554943759149],[123.00696905857524,0.55464072828704047],[123.00680249693778,0.55473590713643262],[123.00665973046227,0.55487867541057767],[123.00651696218813,0.55502144188608327],[123.00657644874423,0.55521179868560466],[123.00663593530021,0.55540215638444579],[123.00649316702606,0.5555330257286073],[123.0063503996513,0.55566389597208854],[123.00626978172511,0.55581706940228059],[123.00618916559756,0.55597024013451346],[123.00615080861303,0.55604311669651452],[123.00611245342702,0.55611599325851557],[123.00605296687104,0.5560684038338195],[123.00599348031494,0.55602081530844316],[123.0056841513026,0.55585425277160994],[123.005374821391,0.55561630744665536],[123.0051844636921,0.55533077089842209],[123.00494651836721,0.55537836122243789],[123.00470857214293,0.55537836032311816],[123.00442303739328,0.55514041499822042],[123.00411370568304,0.55509282467414778],[123.00375678814532,0.55514041409890069],[123.00366160929593,0.55485488024856977],[123.00389955462083,0.55468831681241682],[123.00428026911914,0.5545931388623444],[123.00392334978278,0.55440278206276616],[123.00394714404547,0.5541410406765408],[123.00366160929593,0.5539506838770194],[123.00363781413387,0.55442657722483091],[123.00335227938422,0.55445037058819935],[123.00309053799799,0.55452175427558359],[123.00282879841041,0.55449796001289542],[123.00261464644882,0.55430760321337402],[123.00232911079991,0.5541410406765408],[123.00216254826307,0.5539744790390273],[123.00199598572624,0.55368894339005692],[123.00199598572624,0.55337961257907864],[123.00218634342502,0.55342720290315128],[123.00209116457563,0.55307028446611639],[123.00173424613865,0.55261818628031278],[123.00142491622694,0.55247541800616773],[123.00149629991438,0.55271336423044204],[123.00149629991438,0.55307028266747693],[123.00152009417707,0.55333202495302203],[123.0016152721272,0.55361755880335295],[123.0016152721272,0.55399827330171547],[123.00128214795279,0.55428380805136612],[123.00102040746594,0.55433139837538192],[123.00104420172863,0.55409345215116446],[123.00118697000278,0.55368894428937665],[123.00104420172863,0.55371273765274509],[123.00078246124167,0.5537841222395059],[123.00078246124167,0.55354617601523159],[123.00092522861644,0.55333202495302203],[123.00056831017946,0.55326064126563779],[123.00025898026774,0.55349858659053552],[123.00016380141835,0.5533082288916944],[123.00025897936848,0.55302269504136348],[123.00014000715566,0.55278474791782628],[123.00025897936848,0.55247541890548746],[123.00023518510579,0.55218988325657392],[123.00004482830627,0.55221367661994236],[122.99983130317219,0.5524272026533481],[122.999806882082,0.55214229383182101],[122.99975929265725,0.5518329639202193],[122.99959273101979,0.55157122343325682],[122.99959273101979,0.55130948204703145],[122.99987826576944,0.55107153672207687],[123.00018759568104,0.55088117902323575],[123.00025897936848,0.55069082222371435],[122.999806882082,0.55035769804936763],[122.9994975521704,0.55016734214916596],[122.99928340110819,0.55016734214916596],[122.99895027603452,0.55038149321137553],[122.99859335669817,0.55059564427358509],[122.99845058932328,0.55107153582275714],[122.99852197301072,0.55140466089642359],[122.99861715186012,0.55178537539478612],[122.99861715186012,0.55200704029272174],[122.99840299989864,0.55214229383182101],[122.99823546699326,0.55228589397887617],[122.99798552741026,0.55245263817874957],[122.99760967644545,0.55254973258411155],[122.99727619613964,0.55256728465252536],[122.99718258121118,0.55233762568093425],[122.99689723801714,0.55228975117114487],[122.99684968096801,0.55259615289020303],[122.99684016883873,0.55285468099879154],[122.9967355426113,0.55280680469030585],[122.99628561898624,0.55275081559773298],[122.99626903638693,0.55274875165360982],[122.99623084487769,0.55278419213681218],[122.99591755974768,0.55307490698140782],[122.99537044369106,0.55350599520556898],[122.99563957390728,0.55281951840612464],[122.99575096213721,0.55251551517892494],[122.99586308511334,0.5521352764218932],[122.9955966483667,0.55208588205783826],[122.99539402301582,0.552015347330439],[122.99525578372754,0.55194099767896887],[122.99511943841139,0.55180183388756632],[122.9950361162239,0.55162644810212669],[122.99528608368587,0.55128425696295835],[122.99551711412357,0.55095255012014377],[122.99575179221154,0.55013903239046158],[122.99601081764513,0.54911982262177617],[122.99610725284754,0.54811782857495928],[122.9963382841845,0.54736928326587986],[122.99672765106027,0.54647120678083638],[122.99729527076022,0.54533491787219646],[122.99909676570326,0.54411991580150243],[123.00009462376795,0.5416078719057964],[123.00168839959997,0.53759564192540665],[123.00192907526662,0.53698975787108338],[123.00218110757214,0.53635528167097846],[123.00294484422921,0.53443262646459289],[123.00307484392897,0.53410535777607038],[123.00464204479465,0.53016003016131208],[123.00854647124277,0.52763982581734581],[123.00866345685313,0.52756431424177208],[123.01320687229941,0.52463232112478408],[123.01464891181786,0.52370173234913864],[123.01585981837593,0.52292029973210674],[123.01655906195117,0.52246905770090279],[123.01951143460508,0.5205638088727369],[123.03001977888971,0.51384455118511596],[123.03270871763323,0.51203331208773761],[123.03494622818596,0.51061066375115161],[123.03640519024736,0.5097939570255221],[123.03697438106292,0.5095370890654749],[123.03762208179376,0.50916166887594727],[123.03801212765768,0.50875806303423587],[123.03837319826459,0.50838443879086981],[123.03918670430301,0.50732577576400217],[123.03982516629844,0.50596465814248859],[123.03986131544741,0.50588759343776246],[123.04017877073375,0.50373032489460456],[123.04056383435352,0.50196841361145061],[123.04060495315616,0.50178026644618967],[123.04053800402573,0.50134893090847754],[123.04060494686087,0.50090411543260416],[123.04065850418669,0.50062105112067457],[123.04067043908958,0.50015526525334053],[123.04070182273097,0.49893040121708054],[123.0407018308249,0.49892845958078169],[123.04070347568495,0.49854768482782674],[123.04070693807478,0.49774629175800555],[123.04068307006764,0.49730990472835401],[123.04065848170364,0.49686034083208597],[123.04064390818985,0.49608401276702807],[123.04064310959188,0.49604152879356889],[123.04079702945944,0.49594279222611704],[123.04091884083186,0.49589822812077955],[123.04098717311956,0.49589228899799309],[123.04107333176887,0.49589822991941901],[123.04112383859433,0.4959190249430776],[123.04119514404067,0.49597844405002434],[123.04121297040228,0.49601112271517422],[123.04123376632526,0.49606162774199447],[123.04126050496836,0.4960972786665252],[123.0412969131221,0.49611382799082548],[123.04135380423475,0.49613419943381132],[123.04178755625082,0.49618566583586698],[123.04215357312899,0.49612370794284288],[123.04322715860656,0.49599175491562164],[123.04367148035465,0.4959313519503894],[123.04410745999132,0.49573444358975394],[123.04441318002432,0.49539766546990904],[123.0445889381291,0.49503341935684375],[123.04473915458834,0.49463991470037172],[123.0450151987925,0.49421578363154595],[123.04512982638039,0.49378134992940659],[123.04543352293877,0.49332098517538725],[123.04525540681163,0.49313948759731829],[123.04525004505365,0.49308089496736329],[123.04525154961937,0.49304453897434541],[123.04525301731292,0.49300908140401134],[123.04526193319168,0.49291931467467975],[123.04527084907045,0.49279364161333206],[123.04527073305792,0.49278589665186701],[123.04526927975348,0.4926888930780251],[123.04525315041258,0.49259177439091673],[123.04523867042838,0.49255895363285163],[123.04520895862663,0.49248171086230741],[123.04518519134353,0.49235396216568006],[123.04514953862042,0.49223215618911809],[123.04510200315497,0.49217867980229357],[123.04504258314876,0.49212817567479306],[123.04499504678404,0.49208064110877103],[123.04496236721957,0.49202716472194652],[123.04494454085795,0.49195289331140657],[123.04495642360018,0.49180731915248543],[123.04499504678404,0.49166768681436679],[123.04502475768652,0.49157261858152879],[123.04507823587198,0.49145081170564708],[123.04512280087658,0.49135871483287019],[123.04516142406055,0.49130523934536541],[123.04522084316739,0.49123393929488657],[123.04527134909358,0.49119828837035584],[123.04531888635756,0.49116560700718992],[123.04535453818141,0.49113589790340484],[123.04537533500377,0.49106756741434765],[123.04539316136538,0.49096952782150538],[123.04541098592836,0.49091605323332033],[123.04546446591246,0.49085663502575017],[123.04560707320798,0.49077939225520595],[123.04580909961032,0.49068432312304822],[123.04593982416361,0.4906546158179026],[123.04602301325156,0.49062490581479778],[123.04610025782074,0.49057737304735838],[123.04615967692757,0.4905476639435733],[123.04632011328272,0.49050607119829692],[123.04646866329824,0.49047041937438962],[123.04655779330756,0.49044665388998965],[123.04660532697437,0.49041694388688484],[123.04673605242692,0.49029216565099887],[123.04677170335151,0.49025057470430511],[123.04677556414106,0.49024671481407722],[123.04680735607474,0.49021492288045465],[123.04684300699921,0.49020898105965216],[123.04687865972244,0.49021492198113492],[123.04692025336703,0.49024463198423973],[123.04699749973486,0.49032187565410368],[123.04704503430094,0.49036346660074059],[123.04709851338578,0.49039911932396762],[123.0472054697567,0.49050607029897719],[123.0472470634013,0.49058925578958679],[123.0472708306844,0.49068432312304822],[123.0472886570459,0.49076156679291216],[123.04731242432899,0.49082692502264536],[123.04734752037189,0.49086786845742836],[123.04738372797669,0.49091010961393522],[123.04742532342004,0.49094576143778568],[123.04748474162761,0.49099923692529046],[123.04753227889159,0.49104677239068906],[123.04760358164003,0.49107647969583468],[123.0476092500669,0.49107850406977605],[123.04776995801717,0.49113589880272457],[123.04784126166498,0.491159666085764],[123.04790068167119,0.49120125883109722],[123.04790662439132,0.49125473341928227],[123.04787097166809,0.49132009434691781],[123.04781749528127,0.4913854507779547],[123.04773301836417,0.49142457038766452],[123.04765458579061,0.49148636370478016],[123.04762131087489,0.49154340590348511],[123.0475927879769,0.49160044540428771],[123.0475761514183,0.49166223872140336],[123.04757139670266,0.49169551543570833],[123.0475761487204,0.49174542421201295],[123.04757377361079,0.4917905827692266],[123.04755618017361,0.49185766230129957],[123.04756632632495,0.49193304977046637],[123.04777100033141,0.49227044122790176],[123.04800767671293,0.49262406185101781],[123.0482322850919,0.49298849502309849],[123.04854859644058,0.49326717693872979],[123.04858644710691,0.49329999679747516],[123.0486306739665,0.49332297717370466],[123.0486863159208,0.49334882908522104],[123.04872626380609,0.49335601017179442],[123.04878118720205,0.4933592117582748],[123.048840606309,0.49334257430041362],[123.04892854831394,0.49330930118333072],[123.04895231739556,0.49330454646769795],[123.04896657614665,0.49331167719219593],[123.04898083759565,0.4933211830262394],[123.049009358695,0.49337584831681625],[123.04903074996923,0.49342575979102321],[123.04905451815159,0.49349230602513217],[123.04909492289244,0.49356836079124378],[123.04916384873275,0.4936610539145363],[123.04923277817022,0.49374186159769806],[123.04930883473503,0.49381553945562473],[123.0493587471085,0.49387258165438652],[123.04938964691473,0.49392011262312963],[123.04939915274872,0.49398191043684392],[123.04939439983173,0.4940460806621445],[123.04939439983173,0.49411738161194307],[123.04940152875758,0.49418392964469149],[123.04941341509709,0.49425523059449006],[123.04942292093108,0.49430989498569033],[123.04942784831655,0.49434272743496877],[123.04942893379837,0.49434996068220016],[123.04943005435359,0.49435742775312974],[123.04942767474745,0.49440733922739355],[123.04942560900474,0.49441312366678858],[123.04941579110596,0.49444061324373934],[123.04938489399774,0.49446913434314865],[123.04935161818264,0.49449290072681151],[123.04931359034993,0.49452379873434893],[123.04928982216757,0.49455707185143183],[123.04926367797646,0.49462361988418024],[123.04925654635258,0.49472344283265102],[123.04923040216136,0.49478999086545628],[123.049206633979,0.49484227565056926],[123.04917335726464,0.4948803025839652],[123.04914483706466,0.49492070912344843],[123.04912106708366,0.49496348897389453],[123.0491044296258,0.49500627062292324],[123.04909750394677,0.49504609889839912],[123.04909492379181,0.49506093501418036],[123.04909967760807,0.49510371486456961],[123.04911393725843,0.49515838015514646],[123.04913057471629,0.49520829073009054],[123.0491947476396,0.49531524260441984],[123.04926130016895,0.49544596086246884],[123.04930645962543,0.49551488580340219],[123.04936112401674,0.49556955019465931],[123.04940628257395,0.49560044730282016],[123.04945857365431,0.49562896660359002],[123.04950848692715,0.49565273388662945],[123.04955602239261,0.49567412516080367],[123.04957741546536,0.4956978924438431],[123.04959405112459,0.49573116646018889],[123.04960831257358,0.4957715712010895],[123.04961781930695,0.49581435015215902],[123.04963207985668,0.49585475489305963],[123.04965584803904,0.49588327599246895],[123.04967723931316,0.4959141731006298],[123.0496796162214,0.49594031729185417],[123.04967010768939,0.49597359040893707],[123.04964396529681,0.49600686442528286],[123.04961306459131,0.49604251534987043],[123.04954651475987,0.49609955574993592],[123.04954518736054,0.49610073745913041],[123.04950373401016,0.49613758268333186],[123.04946332567204,0.49618511635009099],[123.04943817433229,0.49624228265525971],[123.04943718327945,0.49624453365834142],[123.04942292183046,0.4963087065816012],[123.04940628527186,0.49639426718175628],[123.0493944007311,0.49645843920563948],[123.04938251619024,0.49652498813776447],[123.0493825170895,0.49657727472151691],[123.0493682556405,0.4966438218549456],[123.04933260291739,0.49672225262992242],[123.04930645872616,0.49680781412934039],[123.04924960898234,0.4969909916409847],[123.04924228490358,0.49701458895214046],[123.04918761871374,0.49717382920891851],[123.04918197366919,0.49720205443134091],[123.04914246105579,0.49739961569974867],[123.04914246015642,0.49748042428223016],[123.04914721217415,0.49753508777411071],[123.04917335906339,0.49759688199054608],[123.04919950415388,0.49763728493280723],[123.04924703871995,0.49768957331519914],[123.04926605308594,0.49770858768124526],[123.04928506745193,0.4977252251390496],[123.04930645872616,0.49775136933027397],[123.04931596545953,0.49781078573920468],[123.04930408181804,0.49786307322227685],[123.04930408091866,0.49790823088017078],[123.04931834326703,0.49797002509660615],[123.04933022600915,0.49804132694572445],[123.04933022690852,0.49810312116215982],[123.04932547219289,0.49819581158749315],[123.04931121074389,0.49827186905156395],[123.04931596635879,0.49839070276874509],[123.04933497982552,0.49850953828462252],[123.04936350092487,0.4987068063740594],[123.04936350092487,0.49878048243334661],[123.04935161728338,0.49886604393282141],[123.04933735673364,0.49893496797443504],[123.04933022690852,0.49900864673168144],[123.0493278500004,0.49907281695698202],[123.04931834416629,0.49913698808160234],[123.04929932800167,0.49919165337217919],[123.04927793762681,0.49924156304774669],[123.04926130016895,0.4992938514301386],[123.04924941562808,0.4993532678390693],[123.04924941742672,0.49941981497255483],[123.04924228490358,0.49947685717125978],[123.04922564744572,0.4995077551787972],[123.0492185176206,0.49952676774620386],[123.04915671980689,0.49956954939523257],[123.04900460487863,0.49973591767849257],[123.04897608467866,0.49978107623570622],[123.04895944542216,0.49983811843446802],[123.04894518397316,0.49992367903462309],[123.0489309243228,0.50000210980954307],[123.04892141758944,0.50005915110898513],[123.04888576486621,0.50018273864253615],[123.04886801134967,0.50022179619895724],[123.04882634486,0.50031345779990488],[123.04882345443889,0.50033080392353213],[123.04881446211778,0.5003847614476058],[123.04880733229265,0.50047269805662609],[123.04880970830141,0.50053686918118956],[123.04881683812664,0.50060104030580987],[123.04882396795188,0.50064857487188874],[123.04884773613412,0.50072700474754583],[123.04887863594035,0.5008006826054725],[123.04889289559071,0.50083395572249856],[123.04889527159958,0.50084346515382094],[123.04892854831394,0.50091951812129309],[123.04899747505351,0.50108826421205777],[123.04905214124335,0.50120710062725493],[123.04907115560945,0.50132831305126047],[123.04906938304566,0.50141159297066906],[123.04906877780195,0.50144001604394361],[123.04905214124335,0.50150418896720339],[123.04901173560313,0.50157548991700196],[123.04894756267993,0.50166342832460487],[123.04891666287381,0.50171333800017237],[123.04890953484721,0.50179176967446892],[123.04892141758944,0.50185118788203908],[123.04896895305478,0.50192724174883097],[123.049009358695,0.50197477631490983],[123.04904738742709,0.50201755706467566],[123.04906877870121,0.50205083018170171],[123.04909016997544,0.50209836474778058],[123.04909967580943,0.50214114459816983],[123.0491139381578,0.50217679732139686],[123.04914483796392,0.50221957717178611],[123.04918524270488,0.50225998191268673],[123.04924941562808,0.50231464630394385],[123.04934448835752,0.5023716858046896],[123.04946570527818,0.50245011657966643],[123.04959167421646,0.50252617134577804],[123.04977706406032,0.50263074721124212],[123.04991016462247,0.50269491833586244],[123.05004326608389,0.50274245110330185],[123.05016210609642,0.50278523185301083],[123.05033561229868,0.50286841824294015],[123.050409293754,0.50290406826820799],[123.05046158213634,0.50294209610092366],[123.05050911940043,0.50300389031735904],[123.05056378379163,0.50309182692632248],[123.05061145505465,0.50315562932888724],[123.05069094163366,0.50322936114616823],[123.05074540008025,0.5032693441049787],[123.0507854567835,0.50329875463387452],[123.05120749333116,0.50359058193987494],[123.05154489737913,0.50379623261011375],[123.05169034203573,0.50385766619837113],[123.05189268140214,0.50394312967176802],[123.05190305058534,0.50394751026942686],[123.05231404076039,0.50415424732068459],[123.05241084018814,0.50421002597198594],[123.05261102208112,0.5043253793128315],[123.05268592031905,0.50436853777785018],[123.05274537360015,0.50439644014363694],[123.05285067341993,0.50444585699074196],[123.05309145340789,0.50455885590650951],[123.05314149528385,0.50458234080241482],[123.05318546134004,0.50460742109567036],[123.05352727746197,0.50480240400776211],[123.05389514694355,0.50494525771750887],[123.05431930319332,0.50512513291857886],[123.05475396532336,0.50530170490981163],[123.0549081909603,0.50536408998078741],[123.05496467827732,0.50538693995537187],[123.05519871065201,0.50548160709053036],[123.05547659576837,0.50560820195698852],[123.05549925778462,0.50561852617408931],[123.05560509000293,0.50566673882900659],[123.05601486699254,0.50584653219175379],[123.05641576497567,0.5060365040814645],[123.05680052192656,0.50622767926404322],[123.05722187498964,0.50646766425137457],[123.05724528704047,0.50647534086431278],[123.05728471421821,0.50648827131669805],[123.05735259144899,0.50651971611205227],[123.05738590413625,0.50654351127406017],[123.0573965745923,0.50655175625860238],[123.05740684305147,0.50655969097698517],[123.05744436186785,0.50660400507081249],[123.0574850184189,0.5066426264560846],[123.05756345189184,0.50671867942355675],[123.05760861134843,0.50675908416445736],[123.05764901698865,0.50681136984889008],[123.0576751602805,0.50685890531428868],[123.05770843699486,0.50689693314700435],[123.05774408881871,0.50692545334703709],[123.05778449535819,0.50693971389671333],[123.05781539336579,0.50694208990557854],[123.05786292793186,0.50693258407153508],[123.05788430661551,0.50692545694431601],[123.05811486131188,0.50689614174359576],[123.05816007922431,0.50689352111913877],[123.05831188028912,0.50688472125295903],[123.05846478662068,0.50690127687249742],[123.05855577373006,0.50692417630972386],[123.05859032478372,0.50691302291772899],[123.05862335418453,0.50690236145487688],[123.0607587431216,0.50621303560313891],[123.06276484102466,0.50556544728760855],[123.06278811098264,0.50555793525057879],[123.06281566441146,0.50554904095554321],[123.06281566441146,0.50553735876212613],[123.06282442021086,0.50547471198842686],[123.06284129059316,0.50541809426965756],[123.06287544234783,0.50536019771499241],[123.06294095616022,0.50529083210625458],[123.06299898131795,0.50525019713893471],[123.06317044246202,0.5051673416995186],[123.06318327039173,0.5051634584269209],[123.06321547241623,0.50515370797728565],[123.06331352819689,0.50512401865859147],[123.06338405033375,0.50507994738171647],[123.06347209036471,0.50498833794148368],[123.06362618560001,0.50479822305959487],[123.06381401170734,0.50442854773933732],[123.06408955319034,0.5040375207150305],[123.06438863982396,0.50371923445516131],[123.06457072286059,0.50344027914559319],[123.06464440791319,0.50332739264507609],[123.06498438672008,0.50303208586211667],[123.06502607119626,0.50301311466353127],[123.06541756317006,0.502834940979767],[123.06577470733691,0.50260604103601736],[123.06601097362761,0.50225482160277579],[123.06610892958349,0.50195010791117056],[123.06610491590925,0.50192864738920662],[123.06600449491157,0.50139179979174742],[123.06629261880937,0.5012837723282928],[123.06641220975575,0.50103817647072901],[123.0664389259158,0.5009833097320211],[123.06658972783373,0.50083927521245641],[123.06687479583525,0.50064059428802921],[123.0669804679743,0.50055845291029755],[123.06722699732813,0.50036681907346292],[123.06753641986995,0.50010941961409117],[123.06789904540472,0.49978117965775937],[123.06802260685788,0.49965314677535844],[123.06820927643707,0.49945972598561639],[123.06836861292118,0.49908245229340764],[123.06864448715339,0.49877123110746879],[123.06867713614099,0.4987343993730633],[123.06881266577193,0.49860020973193286],[123.06899302840554,0.498421631353267],[123.06914841057073,0.49807348940004204],[123.06915004014229,0.49795655684965823],[123.06915045293113,0.49792685404111126],[123.06915063009751,0.49791416011044021],[123.06911496028727,0.49763887493418224],[123.06981641529535,0.49704042557522143],[123.07045181959586,0.49618391215784641],[123.0704608263062,0.49617177131023027],[123.07061856019845,0.49613662040877671],[123.07063139892,0.49614194169731718],[123.07071998214155,0.49617866101641539],[123.07072614159824,0.49624634219497921],[123.07058920183022,0.49627441273401018],[123.07044653428022,0.49635819357581568],[123.07034436500055,0.49651362340506466],[123.06997368243958,0.4970775334014661],[123.06991153029298,0.49717208182613604],[123.07024718695823,0.49747854559842608],[123.07035045700809,0.49740971778430776],[123.07056921889443,0.49751025479446298],[123.0708032188935,0.49735160629165875],[123.07181378977464,0.49646589998133095],[123.07186133513255,0.49542460915841957],[123.07185806429834,0.49534202531424398],[123.07192940032166,0.49529175501055533],[123.07205067120162,0.49534920370285818],[123.07218172220882,0.49533905395423972],[123.07223614198438,0.49533483883180907],[123.07231411770238,0.49530591843341654],[123.07239333628354,0.49523097792734916],[123.0724277794186,0.49514575996892063],[123.0724457379805,0.49510132536590845],[123.07272658006764,0.49478086724326431],[123.072961678139,0.49440178231645859],[123.07320782977763,0.49403364483686119],[123.07348022363351,0.4936821538083791],[123.0736346758996,0.49355000562832174],[123.07375082244255,0.49345063144153301],[123.07393642362706,0.49336319125831096],[123.07409169967229,0.49329003680577443],[123.07441232057215,0.49322831813242374],[123.07454338866648,0.49320308765243226],[123.07500721041447,0.49301535057799128],[123.07548900511358,0.49281576223768297],[123.07560296000861,0.49273849698408867],[123.07605033675372,0.4927900614122791],[123.07714172341184,0.49253265295959636],[123.07727548587502,0.49250540709891766],[123.07745932618707,0.4924679611275451],[123.07786492132914,0.49224756517304513],[123.07789672405465,0.49223028380060896],[123.07805940241951,0.49203290419524137],[123.07817307222956,0.49189498686422439],[123.07832046841497,0.49166787387332533],[123.07839073514435,0.49155960179422209],[123.0785823357063,0.49131830829333012],[123.07854036524577,0.49114767632426037],[123.07861189911989,0.49087308992119461],[123.07851132793553,0.49043764538106416],[123.07871892473861,0.49006950790152359],[123.07874083492163,0.48994524767510939],[123.07876223339042,0.48978725837531556],[123.07876775882505,0.48966776545506718],[123.07876775792579,0.48958876990587896],[123.07877489134819,0.48950738216001355],[123.07880342323949,0.48933742378312672],[123.07881768918503,0.48928476128276088],[123.0788509775906,0.48923449097901539],[123.07887237785803,0.4892009777429962],[123.07889140031796,0.48915549722846663],[123.0789104218785,0.48906692659744522],[123.07891279878675,0.48899990102466973],[123.07888901891317,0.48888021295152839],[123.07889139672068,0.48883233844173901],[123.0789080413731,0.4887677059649036],[123.07895321881608,0.4887270107429913],[123.07903644207818,0.48865280318437954],[123.07917911142692,0.48854747638495155],[123.07928849057146,0.48849002409536979],[123.07935982479614,0.48844932887345749],[123.07941926998342,0.48839666637309165],[123.07959284993012,0.48825782543832474],[123.07967131757732,0.4881979800528029],[123.07975454173879,0.48814531575374076],[123.07982349815597,0.48810940762308519],[123.07989483328004,0.48809504545005211],[123.07993763381478,0.48809743764667246],[123.0799804352489,0.48811419381502219],[123.08006366030975,0.48816685631538803],[123.08014450666371,0.4882003677528246],[123.08032046711594,0.4882338782908846],[123.08065426758048,0.48824609198362623],[123.08113444619778,0.48815326126401715],[123.0815851450385,0.48799963187758522],[123.08199225733688,0.48780610586715056],[123.08227229093359,0.4876431604035929],[123.08266915815523,0.4874723422748275],[123.08323731834764,0.48732450272365213],[123.08359176634701,0.48720027936946053],[123.08400229427048,0.48706492600558704],[123.08448346124283,0.48706781462800564],[123.08503949227884,0.48718551340078875],[123.08534999220842,0.48699045044895684],[123.08564296704935,0.48671305636253237],[123.08571429138146,0.48647090490840128],[123.08576509588249,0.48629841673857754],[123.08577847059996,0.48621653076833127],[123.08582702229933,0.48591929583886895],[123.08583545883937,0.48586763967989555],[123.08583833487137,0.48585003185354481],[123.08595264499866,0.48548551504455872],[123.08612905511188,0.48497135374503841],[123.0862475893548,0.48453916385136608],[123.0862696020605,0.48414633008911778],[123.08629494135857,0.48375385785431035],[123.08641994442496,0.4832627686619162],[123.08657595431691,0.48285165797767604],[123.08677717043008,0.48247745906752471],[123.08687997642983,0.48206110083918929],[123.0869492602003,0.48158439810151776],[123.08704990962565,0.48114695976443045],[123.08704936643517,0.48078217315878646],[123.08702900038816,0.4807022504085694],[123.08691193743607,0.48024284972780151],[123.08685808872985,0.47998100581878589],[123.08679614072935,0.47967977700017173],[123.08736250137838,0.47995740491035122],[123.08785180181928,0.48020040172718836],[123.08850343258746,0.48040415392858904],[123.08914548557573,0.4809571740344154],[123.08991171605294,0.48279193759788086],[123.09088092261652,0.4837807457848271],[123.09209444800047,0.48443747840696005],[123.09319543312279,0.48454529542908631],[123.09408059264524,0.48486630933274455],[123.0953427461709,0.48599840020602869],[123.09564496784105,0.48626947925311015],[123.09643636584565,0.48697932493593044],[123.09660976682733,0.48720126142910658],[123.09712006104201,0.4893880241380657],[123.09742988108417,0.49071569597265352],[123.09742992335237,0.49357558594459761],[123.09764869782919,0.49527265970550616],[123.09817997682455,0.49662402777670422],[123.09890575399743,0.50000000089937657],[123.09920836417473,0.5012156441866864],[123.09994000043071,0.50233000042919684],[123.0994902188985,0.50340010283252923],[123.0986278320089,0.50464933310030347],[123.0969892861267,0.50634968129281788],[123.09668440965788,0.5066030338030032],[123.09619588173462,0.50700900216378386],[123.09576468109526,0.5071651613431527],[123.095160997682,0.50723457101867098],[123.09162267984289,0.50752122632360397],[123.09160788779388,0.50754692714900784],[123.09140091062363,0.50759897990906211],[123.09076273101527,0.50765103986367421],[123.09026667486717,0.50771271536956419],[123.08888682796476,0.5080250391242771],[123.08820932370134,0.50839587546931853],[123.08771396362863,0.50866701387161584],[123.08733450728175,0.50887522221376003],[123.08652385569144,0.50969069417027413],[123.08630692212682,0.50998725640681641],[123.08585119157931,0.51061026625080785],[123.08567871959724,0.51133897881089752],[123.0857024401156,0.51157755725853349],[123.08570800512041,0.51163353376063014],[123.08557687497284,0.51238761979288938],[123.08540362867461,0.51338390044668358],[123.08607763187729,0.51458293865175619],[123.08686184160081,0.51569401416747951],[123.08801189733128,0.51729135041551899],[123.08904421381942,0.5188106749727126],[123.08897022569545,0.52039134408528298],[123.08896552314047,0.52046694289515472],[123.08893184982503,0.52049722306844615],[123.08881830322218,0.52059933119420521],[123.08821462880212,0.52136275039066504],[123.08726619387983,0.5223458469832849],[123.08700747601426,0.52264080572865623],[123.08686949483138,0.52300516245833251],[123.08659353696225,0.52394207886391087],[123.08645556207455,0.52472284058666219],[123.08617959880951,0.52527805323961729],[123.08500673357401,0.52605883115018059],[123.08333333266728,0.5272498806775161],[123.08317844422993,0.52736012407052613],[123.08289521893926,0.52737307700596148],[123.08279898428577,0.52737747918735067],[123.08223303372756,0.52735229637141856],[123.08176978934432,0.52733168391011986],[123.08155204818854,0.52732199461439677],[123.08109166005215,0.52730150985684077],[123.08084993757461,0.52729075396518965],[123.08034339982805,0.52751059323935579],[123.0799811942768,0.52799640431067019],[123.08004502006168,0.52824036699939825],[123.07991166499141,0.52819428214047548],[123.07975808057097,0.52815124688260084],[123.0796961253759,0.52813388547048135],[123.07950503203165,0.5281092881132281],[123.07949335433489,0.5281097584586405],[123.07954308234741,0.5285452929309713],[123.07967986023743,0.52899243225499504],[123.07968596573483,0.52905231541205922],[123.07974825457836,0.52966314393898983],[123.08000470974957,0.53000709505141685],[123.08063729017886,0.53057461222863367],[123.08065439708287,0.53136570806100281],[123.08074824043899,0.53173576109657006],[123.08079289897319,0.5319118627423336],[123.08080419176008,0.53213696215112805],[123.08080807683132,0.53221441266504144],[123.08075219745604,0.53240174594384371],[123.08074896709127,0.53243487337073248],[123.08075025941696,0.53245176263880012],[123.08075413459574,0.53249170782612509],[123.08077201221863,0.53252020014718937],[123.08076736182431,0.53252176766551429],[123.08079830569727,0.53257259015293812],[123.08085180186924,0.53266044762159481],[123.08085657636991,0.53274314118306165],[123.08087019300501,0.53303670418057436],[123.08087030991692,0.53303921418842037],[123.08085728413641,0.53332121460243798],[123.08085716362723,0.53343442216089443],[123.08089514829248,0.53374575666140345],[123.08089777880946,0.5337644337816414],[123.08139207138709,0.53472975707268233],[123.08148785008427,0.53488399619953952],[123.08155855478356,0.53499785666582511],[123.08174066030324,0.53529111389383388],[123.08175352330647,0.53529264274129673],[123.08178098140718,0.53533890926331651],[123.0818390218534,0.535436704240567],[123.08196385045142,0.53564703318409101],[123.08219685580036,0.53599550968505127],[123.08248138420856,0.53642104099827748],[123.08269788789733,0.53678080399095052],[123.08281281136226,0.53709876919288035],[123.08288622212149,0.53742494970168764],[123.08291661920669,0.5375861729635858],[123.08304711623146,0.53788323882048417],[123.08310643281573,0.53803176725227786],[123.0831205269908,0.53818776994967266],[123.08315064708472,0.53834543369487164],[123.08316944201624,0.53844381772807992],[123.08319079372018,0.53855558727059361],[123.08329739395958,0.53951766490837372],[123.08343536525001,0.54021412508183175],[123.0835886510954,0.5409563166807061],[123.08364231633993,0.54119245077100686],[123.08386435805369,0.54221809518901409],[123.0838834020974,0.54227783625316306],[123.08388598315162,0.54228593284955195],[123.08392148838607,0.54239731208633657],[123.08396992677081,0.54254926333788944],[123.08402376018842,0.54271813623302023],[123.08404709759554,0.54277930631997151],[123.08418707077681,0.54314618295001083],[123.08423883035778,0.54328184298270799],[123.08434604123693,0.54354127041335687],[123.08439271515169,0.54365421177249118],[123.08467098337928,0.54432756026875495],[123.0853364664049,0.54589817945748109],[123.08557181898436,0.54637609897781658],[123.08589847523456,0.54702967138229042],[123.08596507093137,0.54713878702546026],[123.08612963697328,0.54740842625790265],[123.08647062841681,0.547967133676309],[123.08656783973413,0.54812806016190052],[123.08664554475615,0.54825669469073546],[123.08673168182168,0.54839928939571791],[123.08674136302352,0.54841531531457122],[123.08674452683852,0.54842055296620629],[123.08693112716981,0.54878093019584639],[123.08734548170867,0.54958116314020344],[123.08730403195557,0.54963567914330724],[123.08678155012853,0.550133197589048],[123.08768931411066,0.55138241526628917],[123.08873796768307,0.5531774072116491],[123.08874579538224,0.55319080531148757],[123.08836508088382,0.55338116211100896],[123.08836023893389,0.55337632016107818],[123.08807954613417,0.55309562736135831],[123.0877464210605,0.55344778658610494],[123.08785111833447,0.55361910833522643],[123.08786063496041,0.55399030440906927],[123.08790822528442,0.55441860743280813],[123.08791160133944,0.55442912500416242],[123.08798538172005,0.55465898182660567],[123.08801719613678,0.55475809341135118],[123.08803195670953,0.55480408024413919],[123.08821755519602,0.55521810563112695],[123.08840315278337,0.55567496212984224],[123.08853164342065,0.55616037210353397],[123.08854592015814,0.5566457820772257],[123.08876007211973,0.55711691621274895],[123.08853164342065,0.55725968268825454],[123.08938158009596,0.55891627796393095],[123.08928013566981,0.55896853576933836],[123.0891872213133,0.55901640128593044],[123.08866608667063,0.55926199804281396],[123.08828890740722,0.55933284213699608],[123.08828436133422,0.5602484778850112],[123.08827960212204,0.56072674904027053],[123.08828436133422,0.56106701203304965],[123.08825903732475,0.56106951574560071],[123.08812525417716,0.5610827438735555],[123.08809288038219,0.56108594546003587],[123.08824147446455,0.56145346780334648],[123.0883235358026,0.56165643669527299],[123.08839594381777,0.56184416027980433],[123.08881511692414,0.56293090373827681],[123.08882818407346,0.56296221813192915],[123.08891196311663,0.56316298638273565],[123.08912583269114,0.56367550911750186],[123.089571039372,0.56480759009826897],[123.08996616820411,0.56576351997051688],[123.08999073678319,0.56582296066113713],[123.08999118104828,0.56582457044760304],[123.08999511558216,0.56583883009795954],[123.09005559768775,0.56605800567245979],[123.09006030204137,0.56607505412051751],[123.09009508691884,0.56637616602728258],[123.09012987269557,0.56676364162882464],[123.09016466117021,0.56724215290307711],[123.09020046497949,0.56798281475516887],[123.09020641129689,0.56810580783678688],[123.09022745903007,0.56838273607445444],[123.09027134774453,0.56896012421043451],[123.09029333257126,0.5692167115820439],[123.09037549103618,0.57017559572722121],[123.09038034557659,0.57023226200931276],[123.09041819174627,0.57087566128279832],[123.09041819444417,0.57087568736312733],[123.09046615978548,0.5716911368365345],[123.09047175177,0.57174492438878133],[123.09051471598139,0.57215814578182744],[123.09052877508293,0.57229335975080176],[123.09054077113979,0.57250432091774428],[123.09057284186326,0.57306831365178823],[123.09060299793009,0.57392263182407532],[123.09061227713494,0.5741723906433549],[123.09061651563979,0.57420065004004073],[123.09071662906922,0.57486798117241733],[123.09073982078621,0.57516909307923925],[123.09074214463431,0.57553906427642687],[123.09074313838516,0.57569704098568764],[123.09074314468046,0.57569811117895142],[123.09074315637167,0.57569989723253912],[123.09074447028115,0.57590903457435161],[123.09078390375419,0.57694541959546086],[123.09086275990853,0.57821989293375964],[123.09090732761115,0.57906650661402637],[123.09091842614453,0.57927728521860899],[123.09095968344275,0.58031520808043524],[123.09096017896911,0.58032767538196595],[123.0902158209035,0.5804673355991099],[123.08962385026052,0.58057840636843139],[123.08868590772852,0.58071478316077219],[123.08841831895029,0.5807536896311376],[123.08834955318935,0.58076251827566239],[123.08695001203353,0.5809421947265605],[123.08569192434288,0.58112409160361267],[123.08551130630178,0.58116532102280871],[123.08469681100905,0.58135124236599722],[123.0846423219856,0.58136367998986316],[123.08408893765443,0.58149777879947351],[123.08339255931924,0.58172264978048815],[123.08248242922082,0.58201581437839423],[123.08201513339179,0.58218189218064254],[123.0815859157575,0.58233443698475185],[123.08113064386419,0.58248182507622914],[123.08074829529767,0.58260560596397681],[123.08058037928117,0.58266468512715619],[123.07985483773064,0.58291995858928658],[123.07946065138799,0.5830586493372607],[123.07945480309672,0.58306093901114764],[123.07941043414428,0.5830783130138002],[123.07940152366143,0.58308180238333307],[123.07938632242087,0.58308520271998532],[123.07822232270212,0.58334561490823944],[123.07818942370295,0.5833529749598938],[123.0772565380588,0.58358115274802458],[123.07715480315176,0.58362611705172185],[123.07703850192536,0.58367751870258644],[123.07698718391146,0.58370019960455011],[123.07663199577007,0.58389308439836896],[123.07619555208316,0.58413009262972082],[123.07611889477118,0.58416954858586223],[123.0759450414306,0.58425903382737943],[123.07565501546662,0.58440831499177648],[123.07563702902576,0.58441757261294924],[123.07532179506484,0.58457982829651201],[123.07489583297638,0.58479094234814966],[123.07489477087699,0.58479146845155583],[123.07489088580576,0.58479204401766083],[123.07467132262354,0.58482462016013415],[123.07458270882501,0.58483776734914272],[123.07418196102878,0.58486422720238807],[123.07357825243446,0.58483864598679247],[123.07355784411925,0.58483778083893867],[123.0729682926526,0.58488479919418523],[123.07289431082381,0.58489069874678989],[123.07261510640205,0.58498329204536503],[123.07188952887873,0.58533264538533558],[123.07073290899666,0.58589268829695129],[123.06935986006954,0.58647800215811685],[123.06778875884424,0.58708707161110851],[123.06773059429156,0.58710962211142714],[123.06668943117234,0.58747157045667109],[123.06668893564597,0.58747174222719423],[123.06637052887686,0.5875824316839271],[123.06583568496899,0.58779407273829065],[123.06578034968345,0.58781219317819478],[123.06552870228779,0.58789459715796966],[123.06528551661336,0.58797423032649476],[123.06514124107548,0.5880838073218797],[123.06492361143557,0.58824909641873546],[123.06423832623784,0.58865836259343496],[123.06425593406414,0.58881207561682913],[123.06419168829586,0.5889191515976222],[123.06397753723365,0.58893342923443015],[123.06389187590946,0.58887632228447728],[123.06352067983562,0.58891201277918981],[123.06352781865394,0.58905478105333486],[123.0634207426732,0.58906191987176726],[123.06322800716691,0.58900481202249466],[123.06308523889277,0.58903336639679083],[123.06295674825537,0.58913330265983177],[123.06308523889277,0.58928320885303265],[123.06257127544404,0.58953305310797077],[123.06264979794992,0.58975434298861273],[123.06243564598833,0.5899185250199821],[123.06236426230089,0.589882833625893],[123.06219294145114,0.58997563286919785]]]},"properties":{"OBJECTID":617,"nama_kawasan":"Kawasan Pesisir dan Konservasi Teluk Gorontalo dsk Kota Gorontalo","delineasi_asal":"Kota Gorontalo","Shape_Length":0.46212785691331376,"Shape_Area":0.0057629040149230924}}]}