{"type":"FeatureCollection","features":[{"type":"Feature","id":635,"geometry":{"type":"Polygon","coordinates":[[[126.37575826902901,-7.734611812585058],[126.37555000043221,-7.7348299998046173],[126.37500000024988,-7.735219999803121],[126.37358000041672,-7.7349899999884428],[126.37221000019144,-7.7347000001048514],[126.36845999992909,-7.734020000222813],[126.36835999981417,-7.7339600001538429],[126.36798000027682,-7.7339099996466985],[126.36759000027837,-7.7338100004311059],[126.36728999993363,-7.7337700003851637],[126.36695000044222,-7.7337799999469894],[126.36646999989068,-7.7338499995777852],[126.36618000000703,-7.7339899997386397],[126.3659599997543,-7.734075000061182],[126.36574000040071,-7.7341600003836675],[126.36539777778523,-7.7344555562788742],[126.36537919959051,-7.7344716001841789],[126.36529999989511,-7.7345399999210258],[126.36498000042673,-7.7346600000589092],[126.3644300002444,-7.7348200002427916],[126.36343999955636,-7.7352900003331797],[126.3627799996973,-7.7352999998950054],[126.36230000004502,-7.7353700004251209],[126.36182999995458,-7.7354099995718002],[126.36147000044025,-7.7354800001018589],[126.36082000014301,-7.7355699997556258],[126.36051000023633,-7.7357000003547114],[126.35983000035435,-7.7361100003761862],[126.35957999961738,-7.736249999637721],[126.35940000030985,-7.7363200001678365],[126.35909999996511,-7.7363499997526333],[126.35879999962037,-7.7363800002367498],[126.35840999962181,-7.7363899997986323],[126.35776999978577,-7.736249999637721],[126.35753000040927,-7.7362200000529242],[126.35708999990368,-7.7359500001923038],[126.35497999972722,-7.7359399997311584],[126.35431999986815,-7.7362299996147499],[126.35384999977771,-7.7365600004436033],[126.35368999959383,-7.736739999751137],[126.35329000003355,-7.7370299996347285],[126.35269000024334,-7.7374399996562033],[126.35195000029239,-7.738129999999444],[126.35117999985721,-7.7385400000209188],[126.35043000034432,-7.7389799996272473],[126.34949000016343,-7.7394800002018087],[126.34820999959186,-7.7397999996701969],[126.34680999978173,-7.7399199998080803],[126.34561999976324,-7.7401299995997306],[126.34524000022589,-7.7403299998295552],[126.34506000001909,-7.7403899998985253],[126.34489000027338,-7.7403600003137285],[126.34460999995156,-7.7402600001988162],[126.34364000018593,-7.7404099999214964],[126.34323000016445,-7.7405300000594366],[126.34206999973071,-7.7412900000334162],[126.34134000024085,-7.7418600002387734],[126.34107999994205,-7.7417299996397446],[126.34046000012893,-7.7414799998020953],[126.34025000033728,-7.741359999664212],[126.33902000027285,-7.7414199997331821],[126.33822999981476,-7.7412900000334162],[126.33756000039375,-7.741209999941475],[126.33643000044424,-7.7408599999889702],[126.3351699998957,-7.7406199997131466],[126.33473000028937,-7.7405199995982343],[126.33426999976075,-7.7406300001743489],[126.33389999978522,-7.740779999897029],[126.33344000015597,-7.7411600003337071],[126.33291999955838,-7.7414399997561532],[126.33225000013749,-7.7419499998925403],[126.33120000027986,-7.7427299998895478],[126.33050999993657,-7.7436999996552345],[126.32991000014647,-7.7443699999754472],[126.32894000038073,-7.7451799995573083],[126.32849000031331,-7.7463899995987617],[126.32825000003754,-7.7469300002192654],[126.32767999983218,-7.7475500000324473],[126.32697999992706,-7.7477399998011265],[126.32683000020438,-7.7479200000079231],[126.32654000032085,-7.748049999707689],[126.3260599997692,-7.7481800003067178],[126.32576000032384,-7.7482925000987279],[126.32558000011693,-7.7483599996142516],[126.32535999986419,-7.7484100001213392],[126.32463999993615,-7.7491900001183467],[126.32408999975371,-7.7495400000709083],[126.32369000019344,-7.749999999700151],[126.32314999957293,-7.7506799995822462],[126.32279000005849,-7.7512600002487488],[126.32248000015193,-7.7519499996926697],[126.32176999978572,-7.7524799998520848],[126.32151999994812,-7.7528099997816184],[126.32032000036781,-7.7539100001463339],[126.31956999995555,-7.7546500000973992],[126.31887000005054,-7.7554300000944068],[126.31655000008254,-7.7567299997896271],[126.31571999957839,-7.7572599999489853],[126.31460000008997,-7.7577399996012559],[126.31365000034725,-7.7582699997606142],[126.31154000017091,-7.7593300000793874],[126.3106499995979,-7.7598000001698324],[126.31037999973728,-7.759749999662688],[126.30984000001604,-7.7597699996857159],[126.30932999987965,-7.7598600002387457],[126.30864999999756,-7.7600299999844538],[126.30811999983814,-7.7601799997071907],[126.30747000044028,-7.7604199999829575],[126.30729000023337,-7.7605000000748987],[126.30688999977372,-7.7607499999124911],[126.30651000023636,-7.7610300002342569],[126.3062000003298,-7.7611799999569939],[126.3058700004002,-7.7612400000259072],[126.30563899964022,-7.7612329997031111],[126.30553999957135,-7.7612299995647618],[126.30483999966634,-7.7609500001423726],[126.30423999987613,-7.7606400002357532],[126.30403999964631,-7.7605600001438688],[126.30382999985466,-7.7605400001208409],[126.30310999992662,-7.7611300003491692],[126.30245000006755,-7.7615400003707009],[126.30177999974728,-7.7621099996766816],[126.3011199998881,-7.762719999927981],[126.30037000037532,-7.7633300001793373],[126.29920999994158,-7.7639299999694913],[126.29898000012702,-7.7639299999694913],[126.29896000010399,-7.7639299999694913],[126.29855000008251,-7.7639900000384046],[126.29832999982966,-7.7640599996692004],[126.29744999971774,-7.7644800001518206],[126.29713000024935,-7.7646099998515865],[126.29664999969782,-7.7647299999894699],[126.29615000002252,-7.7647900000583832],[126.29580000007002,-7.7647900000583832],[126.29537000002551,-7.7647900000583832],[126.29518000025689,-7.7647900000583832],[126.2946599996593,-7.7647599995742667],[126.29397999977721,-7.7646899999434709],[126.29309999966529,-7.7646499998975287],[126.29305000005752,-7.7647399995512956],[126.29280000021993,-7.7654899999635063],[126.29262999957484,-7.765710000216302],[126.29223000001457,-7.7661400002607479],[126.29196999971577,-7.7665300002592517],[126.29177999994715,-7.7667800000969009],[126.29204000024583,-7.7674199999329971],[126.29227999962234,-7.7681199998380634],[126.29237000017542,-7.7684800002517704],[126.29237999973725,-7.7687199996282175],[126.29231000010645,-7.7690199999729543],[126.2917500003623,-7.7697399999010486],[126.29155000013247,-7.7700600002687565],[126.29140999997162,-7.7702199995532624],[126.29128999983368,-7.7702900000833779],[126.291140000111,-7.7702799996222325],[126.29030999960685,-7.769750000362194],[126.29009000025337,-7.7696300002243106],[126.28997000011543,-7.7695999997401373],[126.28970999981675,-7.7697799999469908],[126.28913000004957,-7.7706800000818816],[126.28893999938157,-7.7708499998275897],[126.28904000039574,-7.771349997704192],[126.28931999981819,-7.7718799987628699],[126.2902300013136,-7.7732099989422636],[126.29053000075896,-7.7738800001618529],[126.29065999955935,-7.775959998954761],[126.29036000191263,-7.7768699995507973],[126.29039000239675,-7.7786400002357823],[126.29145000001756,-7.7802400011750592],[126.29130000119414,-7.7813299992799898],[126.29309999966529,-7.7820999988158519],[126.29358015130299,-7.7825030857487718],[126.29506000101833,-7.7840499988083707],[126.29578999960881,-7.7844199996831662],[126.29651999909879,-7.7845700003052229],[126.29741999923363,-7.7850099999114946],[126.2980699986316,-7.7851399996112605],[126.29857999966737,-7.7854899986644455],[126.29916000033381,-7.7863699987763653],[126.29980999973179,-7.7870499986584605],[126.30003239487917,-7.7872976359770973],[126.30014000056065,-7.7872600002487502],[126.3003199989688,-7.7874799987029064],[126.30074999901331,-7.7883499983536808],[126.30143000069404,-7.7890550002879877],[126.30218000020693,-7.7908599980904114],[126.30415000022242,-7.7916499994478841],[126.30601000235981,-7.79250000087427],[126.30824999863864,-7.7929999987508722],[126.30936000036377,-7.7939599989547332],[126.30994000013095,-7.7949099995967686],[126.3103400005906,-7.7955799990177184],[126.30993499990041,-7.7964949989449792],[126.30930999895736,-7.797539998572006],[126.30914000011103,-7.7995800009162508],[126.30924000022594,-7.8001199997381718],[126.30922999976474,-7.8008799979135119],[126.30965000114668,-7.8011749989270243],[126.30979870404701,-7.8015102347094967],[126.31005500093761,-7.8021799994073717],[126.31048948590114,-7.8031943456425097],[126.3104950014432,-7.803459999079621],[126.30997000061507,-7.8043699978770746],[126.30923000066412,-7.8064299993449708],[126.30938999994862,-7.8077499981638425],[126.31031999966831,-7.8090399991965569],[126.31145000141646,-7.8103549995835237],[126.31226999966077,-7.811259999049696],[126.31384000011599,-7.8111799989577548],[126.31485000082694,-7.8118799997621409],[126.31526000174779,-7.8115099988872885],[126.31622999971478,-7.8105800000669205],[126.3174599997792,-7.8097400000009429],[126.32147000034035,-7.8120199999229953],[126.3223100013056,-7.8131000011640594],[126.32305999991911,-7.8136299986255153],[126.32456000164279,-7.8142400006754542],[126.32563000062407,-7.8153499997026756],[126.32539000124757,-7.8160200000229452],[126.32474999961289,-7.8179099999464938],[126.32375999982423,-7.8194400003557121],[126.32251000063604,-7.8202399976777315],[126.32117000089488,-7.8205599989447592],[126.31889000187221,-7.8214600008782895],[126.31728603941929,-7.8226130018884987],[126.31659000012849,-7.8243299992300308],[126.31582000059257,-7.8258099982327849],[126.31519000031835,-7.826529999060142],[126.31565000084697,-7.8272600003487014],[126.31628000022192,-7.8281099999764479],[126.31718999991858,-7.8281699991460982],[126.3178400011152,-7.8279949991698459],[126.31872000122712,-7.8280499990082149],[126.31945683736319,-7.8281272957380565],[126.31965000184618,-7.8280299989852438],[126.32387000040023,-7.828099997716663],[126.32702999863557,-7.8298599988398223],[126.32996000065361,-7.8314700002402446],[126.3319099997467,-7.8325699988063775],[126.33465999885993,-7.8336799987329186],[126.33756000129313,-7.8344200013818863],[126.34131000065611,-7.8360199987239412],[126.34324000062554,-7.8383100000064587],[126.34288000201059,-7.8389399993814095],[126.34144999991759,-7.8412499997876353],[126.34063000077401,-7.8427800001967967],[126.34103999989611,-7.8435600001938042],[126.34300000124915,-7.8442899987843475],[126.34337000212395,-7.8457099977181883],[126.34221183091131,-7.846788169738204],[126.34311999958834,-7.8492900000334203],[126.34410000071455,-7.8505499987833787],[126.34536000126309,-7.8550500003572097],[126.3459994713985,-7.8580574528891134],[126.34731000125566,-7.8606199982143039],[126.34927000080995,-7.8620300002842214],[126.34980000006999,-7.8637799991475958],[126.35150000022486,-7.8658499983786783],[126.35205999996913,-7.868580000166844],[126.35308999980373,-7.8702800003217135],[126.35295000234078,-7.873180000056891],[126.35298000102625,-7.8746900004431382],[126.35488000141095,-7.8764600011281232],[126.3558999998852,-7.8781099998765285],[126.3561800002069,-7.8803900006979006],[126.357240001425,-7.8825699978070816],[126.35852999886038,-7.8836200003626686],[126.35918000005699,-7.8862599988997886],[126.35950000042476,-7.8882499998375692],[126.35852999886038,-7.8901700002452912],[126.35844000100531,-7.8926399990367031],[126.35913000224787,-7.8931599987349159],[126.35901000031129,-7.8938600013379414],[126.35879586543695,-7.8956440647217505],[126.35951091909374,-7.8966706273475324],[126.35955999959435,-7.8977299990401661],[126.35909999996511,-7.8993700000254421],[126.36018000030685,-7.9011500002722528],[126.36047999885295,-7.9029099995967726],[126.35959999874103,-7.9046199993134678],[126.36003000058417,-7.9064199986839299],[126.36014500139072,-7.9091149979587385],[126.35971999977824,-7.9110499990581502],[126.35992999956989,-7.9118499990781288],[126.35954499980198,-7.9138799991625888],[126.35846000012896,-7.9150799996422165],[126.3565500010817,-7.9171449986427547],[126.3556701205797,-7.91864416489625],[126.3555530998957,-7.9188435490904681],[126.35499999885099,-7.9202499997376776],[126.3550654038454,-7.9213644540063228],[126.3552543819842,-7.9245844936793901],[126.35526726477246,-7.9248040136942564],[126.35527326325052,-7.9249062207454699],[126.35528999873452,-7.9249099996966947],[126.35548000030178,-7.9249899988893162],[126.35565999871005,-7.925090000802868],[126.35636000131308,-7.925609999601761],[126.35729999969533,-7.9264100014203791],[126.35848999971381,-7.9271800000569215],[126.35971000021641,-7.9279699996157547],[126.36082000014301,-7.9288499997276745],[126.36175999942452,-7.9295499996327408],[126.36180000036984,-7.9295499996327408],[126.36195000009252,-7.9296099988023343],[126.36232999962988,-7.9298400013149717],[126.3628300011037,-7.9302800009212433],[126.36405961715764,-7.9314637929196579],[126.36444000070549,-7.9318300013534326],[126.36519999888094,-7.9326299995747718],[126.3651999997802,-7.9326399991365975],[126.36548999876447,-7.9329400003806541],[126.36683999986622,-7.9341300003991364],[126.36685745930436,-7.9341380907002872],[126.36724999988769,-7.9343200001678156],[126.36771999997814,-7.9344699989912328],[126.36772481314972,-7.9344707544217385],[126.36834119409093,-7.9347081313750891],[126.36983261358432,-7.9347284137851943],[126.37211689697733,-7.9343500797922957],[126.37361000000158,-7.9339700002153108],[126.37438999909921,-7.9337200003776616],[126.37499999935051,-7.933520000147837],[126.3750015470838,-7.9335195010240795],[126.37531000015645,-7.9334200000329247],[126.37566000100833,-7.9333300003791578],[126.37639999916064,-7.9331399997111589],[126.3773299997797,-7.9328899998735665],[126.37783000035427,-7.9329000003347119],[126.37792000180673,-7.9329099998965376],[126.37845000106677,-7.9329600004036251],[126.37925000018743,-7.9329299999195086],[126.37963999928661,-7.9329400012799738],[126.37970000025484,-7.9329799986280136],[126.3805699990063,-7.9334299995947504],[126.38188000006198,-7.9341500013214841],[126.38249000121266,-7.9344800012510177],[126.38331000125561,-7.9348899985745334],[126.38449999857619,-7.9354900001633268],[126.3848500012266,-7.935689998594512],[126.38526999901126,-7.9359499988933067],[126.38565999900982,-7.9361200004375974],[126.386239998777,-7.9362999988458114],[126.38695999960441,-7.9364100012205085],[126.38793999893187,-7.9365100004361011],[126.38800000079948,-7.9365100004361011],[126.38997999857816,-7.9360100007608594],[126.39158000041675,-7.9355199997481236],[126.39234000129011,-7.9352600003487055],[126.39292000105729,-7.9349800009262594],[126.39367999923263,-7.9344200011820476],[126.39436999867655,-7.9339399988318178],[126.39496000070358,-7.9334800010012145],[126.39518000005705,-7.9332700003102445],[126.39532999977973,-7.9331300001493332],[126.39579000030835,-7.9326800000819162],[126.39610000111418,-7.9324199988838018],[126.39676999963581,-7.9320099997616467],[126.39778000034676,-7.9317300003392006],[126.39829183959682,-7.9316183252254859],[126.39832999962982,-7.9316099993019975],[126.3986299990753,-7.9315399996712017],[126.39878836339233,-7.9314456562919418],[126.39956999925607,-7.9309799999269899],[126.40005000070698,-7.9305600003436894],[126.40059999999005,-7.929970000115361],[126.40084999982764,-7.9297099998165663],[126.40197000021544,-7.9290200003726454],[126.40274999931307,-7.9286899986444723],[126.40324999988763,-7.928519999798084],[126.40330107418526,-7.9285171624370605],[126.40397906857925,-7.9283395607221223],[126.40416823737428,-7.9283681141970419],[126.4046072477264,-7.9285858355677874],[126.40487493722867,-7.9288035560392132],[126.40538999964883,-7.9291499991730916],[126.40655000098184,-7.9293599998640616],[126.40692999872056,-7.9294599999789739],[126.40745999887986,-7.9296800011310893],[126.40813999966133,-7.9300500002073022],[126.40858674688093,-7.9303421054037813],[126.40890455380213,-7.930570305675019],[126.40874617779389,-7.9308708537068924],[126.40925956567651,-7.9311627583545601],[126.4096114434135,-7.9305383248837416],[126.4100145726145,-7.9305845824125072],[126.41136015804489,-7.9308415645865011],[126.41318044522143,-7.9313019895951129],[126.41422978767457,-7.9314840186724496],[126.41510845858852,-7.9316021023551002],[126.41636059456584,-7.9314661734251217],[126.41708514056688,-7.9315375562131862],[126.41753128973733,-7.9316125093097867],[126.41809174543778,-7.9316194457807683],[126.41833435824412,-7.9316446321939793],[126.41858420159974,-7.9315875252440264],[126.41886973724866,-7.9314126349850653],[126.419116011195,-7.93126986761024],[126.41937656187883,-7.9310628535677665],[126.41968351218441,-7.9308558413239894],[126.42002615478327,-7.9307023657215723],[126.42034024390716,-7.9306095655789477],[126.42065790244033,-7.9305952897407792],[126.42105408168061,-7.9306523966907321],[126.42135032465785,-7.930766610590581],[126.421557337801,-7.9308629792430452],[126.4217300004392,-7.9309900003881353],[126.42231000110576,-7.9313299989802317],[126.42276000027391,-7.9316199997631429],[126.42297000096482,-7.9317599999239974],[126.42336598595159,-7.932042286322428],[126.42473423339823,-7.9333166409501814],[126.42483999996614,-7.9334499987184017],[126.42498000102626,-7.9336099989022841],[126.42529999959538,-7.9339600006534852],[126.42574000010097,-7.9343699997756403],[126.42582999885542,-7.9344600012280466],[126.42629000118268,-7.9350299996347076],[126.42652999965981,-7.9353299999794444],[126.42682000134209,-7.9358299996546862],[126.42708000074151,-7.9362500001373633],[126.42712000078745,-7.9362900001833054],[126.42717000039522,-7.9363700002752466],[126.42723999912675,-7.9364399990067227],[126.42742999979475,-7.936640000135867],[126.42781294101451,-7.9368577340970887],[126.42794856957084,-7.9369148410470416],[126.42808776843583,-7.9370005005725943],[126.42813773656735,-7.9371182847809791],[126.42811632191081,-7.9372467754183162],[126.42807904681058,-7.9373680193185692],[126.42804976578418,-7.9376284845668579],[126.42808999875456,-7.9378900002232626],[126.42820000022994,-7.9382400001758242],[126.42834000039079,-7.9384399986070093],[126.42849000011347,-7.9385399987219216],[126.42879999912077,-7.9386199997131826],[126.429240001425,-7.9386900011426178],[126.42957999911778,-7.9388300004041525],[126.42978999980869,-7.9389299996197451],[126.43005999876993,-7.9389800001268327],[126.43031999996811,-7.9389699996656873],[126.43046999879152,-7.9389200000579194],[126.43095999980426,-7.9392600004485985],[126.43126000104826,-7.9394499993179579],[126.43152489995418,-7.9395239199928938],[126.43178545243677,-7.93960601100855],[126.43200674141804,-7.9398380091167837],[126.43221732307109,-7.9401485288315143],[126.43244218236089,-7.940526862824413],[126.43268488779745,-7.9408480898674156],[126.43278536815023,-7.941025219438302],[126.43321999880402,-7.941389999748651],[126.43371000071602,-7.9419599999540083],[126.43468999914421,-7.9429000010341611],[126.4350800009413,-7.943270000110374],[126.43581000133054,-7.9439900000384114],[126.43655999994405,-7.944830000104389],[126.43682999980467,-7.9451600000339226],[126.43742000093232,-7.94566999927099],[126.43793999973127,-7.946139999361435],[126.43842999894537,-7.9466599990596478],[126.43889000037325,-7.9470800013409644],[126.43900000004999,-7.9471900010177023],[126.43912999974975,-7.9473500003022082],[126.43932999997958,-7.9474799991026543],[126.4399600002539,-7.9478400004156242],[126.44006999993064,-7.9479500000923622],[126.44012000043779,-7.9481100011755643],[126.44013999956144,-7.9482000008293312],[126.44022999921515,-7.9482699995608073],[126.44035999981418,-7.9482899995837784],[126.44044999856862,-7.9482299986154885],[126.44054000092035,-7.9480599997691002],[126.44058999962886,-7.9480099992620126],[126.44098000142594,-7.9479600005535076],[126.44115000027239,-7.9479700010147099],[126.44168000133106,-7.9482199990536628],[126.44216000008396,-7.948509999836574],[126.44261000105075,-7.9488699993509613],[126.44305000065708,-7.9493000002947269],[126.44327000001056,-7.949579999717173],[126.44362802821104,-7.9499959280695975],[126.44385645691,-7.9503564159157918],[126.44402777775974,-7.950638382155546],[126.44421694565563,-7.9509845941636286],[126.44437398976788,-7.951255852175791],[126.44452032655192,-7.9515485266431369],[126.4447737393167,-7.9519875369952047],[126.44508782844059,-7.9524979310346566],[126.44532339415935,-7.9529405107958837],[126.44549114559993,-7.9532474611013981],[126.44565176002072,-7.9535080126846083],[126.44585877316388,-7.9538934845965628],[126.44603343769302,-7.9541961352434214],[126.44634999995264,-7.9545600000438981],[126.44698000022686,-7.9553400000409056],[126.44795999865505,-7.9564999995752714],[126.44841635243279,-7.9569139781974627],[126.44904249191757,-7.9573163393775417],[126.44953147130047,-7.9576982427796565],[126.44982057455991,-7.9579480870345378],[126.45000617394578,-7.9581443919500998],[126.45027386344805,-7.95848346513975],[126.45055226027864,-7.9588618000320253],[126.45074499668431,-7.9591330580441308],[126.45114117682397,-7.9596470205934793],[126.4515587734187,-7.9601288629565943],[126.45182646112232,-7.9604500899995969],[126.45206287040526,-7.9607085236793864],[126.4528299993051,-7.9613700002252585],[126.45353999967131,-7.9620599996691794],[126.45394000013096,-7.9624800001518565],[126.45516000063355,-7.9638500003771924],[126.45542000093235,-7.9641499998226095],[126.45575999862513,-7.9645500002822587],[126.45622998792362,-7.965145758869653],[126.45648782535295,-7.9653720049140588],[126.45663773244542,-7.9655361878447479],[126.45680191357746,-7.9658074467562301],[126.45695182067004,-7.9660001822625759],[126.45719452520723,-7.9663856550738501],[126.457651381706,-7.9670495247157191],[126.45807850661788,-7.9677121838701623],[126.45864893759847,-7.9686890310738931],[126.45908619697047,-7.9694908522209857],[126.45927999907281,-7.9698800005615453],[126.46006000086845,-7.9708300012035238],[126.46043999860706,-7.9712499989882417],[126.46089999913568,-7.9718299996546875],[126.46170000005498,-7.9727000011041014],[126.46282000044278,-7.9736899999934394],[126.46326000004899,-7.9740500004071464],[126.46365000094681,-7.9743299998295925],[126.46404999960782,-7.9745600014428533],[126.46440238905905,-7.9746812498397617],[126.46467412011464,-7.9747383729774697],[126.46492587003297,-7.9748002229518988],[126.46530658363201,-7.9748597104072587],[126.46575273280246,-7.9749251441800197],[126.46612749828546,-7.974960835574052],[126.46648441762181,-7.9749013499173316],[126.46679374843279,-7.9748002229518988],[126.46703764187373,-7.9747169412337939],[126.46723699818892,-7.974638669638864],[126.46822000035274,-7.974039999946001],[126.46919000011849,-7.9734199992335562],[126.46954000007099,-7.9732799999719646],[126.47018999856959,-7.9730299992350524],[126.47088000071153,-7.972509998637463],[126.47127999937254,-7.9723300011286256],[126.47175000036225,-7.9720699999305111],[126.47270000010496,-7.9717600000239486],[126.47296999996558,-7.9716700012695014],[126.47352999970974,-7.9713900009477356],[126.4741499986236,-7.9710600001188823],[126.47454000132007,-7.970879999012709],[126.47520000117913,-7.9703499997526137],[126.47550999928706,-7.9700599998690791],[126.476790000758,-7.9682500000374148],[126.47812999870052,-7.9665200002977485],[126.47881000038126,-7.9653199989187442],[126.47903999929656,-7.9648499997276758],[126.47931999871901,-7.9642699990611732],[126.47970000095438,-7.9637000006544554],[126.47990000028483,-7.9634199994333699],[126.48005000000751,-7.9630599999190395],[126.48028999938401,-7.9625300006589441],[126.48054999968281,-7.9620200014218767],[126.48066999982075,-7.9616800010311977],[126.48097000016548,-7.9608200000429292],[126.48106000071857,-7.9605200005975121],[126.48109999986514,-7.9603800013359205],[126.48119999908079,-7.9603000003447164],[126.48203000138346,-7.9591299985505657],[126.48253000015939,-7.9583399998910522],[126.48303000073406,-7.9576000008393066],[126.48346999944101,-7.9569900005880072],[126.48361000140051,-7.9567800007963569],[126.48395999955437,-7.9561899996687089],[126.48411999973825,-7.9557700000854084],[126.48429000038323,-7.9554999993254683],[126.48467999858315,-7.9552399999259933],[126.48483000100384,-7.9551199997881099],[126.48528000017188,-7.9547499989132575],[126.48571000111576,-7.954430000344189],[126.48592000000804,-7.9541899991691025],[126.48626000129809,-7.9535500002322692],[126.48631000090586,-7.9533900009477634],[126.48629999864613,-7.9531899989192425],[126.48635999961436,-7.952980000026912],[126.48649999977522,-7.9527799997970874],[126.4866599999591,-7.9526900010426402],[126.48698000122613,-7.9527000006045228],[126.4872599997492,-7.9526900001433205],[126.4873399998412,-7.9526600005585237],[126.48739999991017,-7.9523899997985836],[126.48739999991017,-7.9522000000299045],[126.48756999965588,-7.951959998854818],[126.48782000039273,-7.9516499989482554],[126.48847999935253,-7.9504100002212681],[126.4887339732943,-7.9499351806639993],[126.48894000078053,-7.949550001031696],[126.48973000033925,-7.9480799997921281],[126.48990999874752,-7.9477099998165954],[126.49001999932352,-7.9473700003252361],[126.49016999904632,-7.946989999888558],[126.4902599995994,-7.9466300003741708],[126.49023999867711,-7.9465599989447355],[126.49009000075296,-7.9465100002362874],[126.48997000061513,-7.9464700001902884],[126.4898999991857,-7.9464100010206948],[126.48988999962387,-7.9462899999834917],[126.4902499991382,-7.9462099998915505],[126.49048000075152,-7.9460899988542906],[126.49057999996705,-7.9459900014373943],[126.49148999876445,-7.943979999577266],[126.49162000026286,-7.9434999999249953],[126.49162999982468,-7.9432799987728799],[126.49162000026286,-7.9431700008947814],[126.4917400004008,-7.9430099989122596],[126.49196000065353,-7.9426900012425108],[126.49198999933901,-7.9426199998130755],[126.49187999966227,-7.9424699991910757],[126.49176999998554,-7.9423800004366285],[126.49174999996262,-7.9422600002987451],[126.49179000000856,-7.9421699997456585],[126.49207000033027,-7.9420300013833867],[126.49218999866957,-7.9419700004151537],[126.4922800010213,-7.941750000162358],[126.49267999968231,-7.9410199997731183],[126.49308000014196,-7.9398399993164617],[126.49316000023384,-7.939619999063666],[126.49340999917217,-7.9392000003796852],[126.49359999894091,-7.9386199997131826],[126.49367999993217,-7.9378500001773205],[126.49369999995508,-7.9374999993254391],[126.49378999960891,-7.9372199999030499],[126.49380000007,-7.9368299999045462],[126.49387999926262,-7.9365400000209547],[126.49402999988467,-7.9363400006904499],[126.49426999926106,-7.9362599987998692],[126.49443999990615,-7.9361999987308991],[126.4946499996978,-7.9360399994463933],[126.49476000117318,-7.9358899997236563],[126.49482000124215,-7.9357300004391504],[126.49511000022642,-7.9351500006719675],[126.49525000128665,-7.9347900011575803],[126.49556999985566,-7.9344200011820476],[126.49572999914017,-7.9342500014363964],[126.4958100010308,-7.9341000008143396],[126.49590000068451,-7.9340199998230787],[126.49635999941449,-7.933569998856342],[126.49687000134952,-7.9328899989742467],[126.49710000026482,-7.9325300003591792],[126.49729999959538,-7.932029998885298],[126.49750000072447,-7.931360000363668],[126.49831999986816,-7.9293200007174391],[126.49858000106622,-7.9287499996127622],[126.49860551123538,-7.9286516029890208],[126.49871999942854,-7.9282099989922017],[126.4987399985522,-7.9280499997076959],[126.4990399997962,-7.9278599999390167],[126.4992400009254,-7.9277100002162797],[126.49936999972579,-7.9275599986949601],[126.49945000071705,-7.927389998949252],[126.49948000030179,-7.9269299993199525],[126.49948000030179,-7.9264899988143611],[126.49991000124567,-7.9252100000414316],[126.49991000034629,-7.924410000021453],[126.49987999986217,-7.9240899996536882],[126.49973999970132,-7.9237399997011835],[126.49963999958641,-7.9235199994483878],[126.49961000090093,-7.9232599991495931],[126.49961000090093,-7.9230699993809139],[126.49956999905623,-7.9229799997271471],[126.49936000016396,-7.9229899992889727],[126.49915999903476,-7.9229700001653214],[126.4985999992906,-7.9229199996582338],[126.49847999915266,-7.9228999996352059],[126.4983700003753,-7.9228300000044669],[126.4982900002833,-7.9226600002587588],[126.49830999940696,-7.92152999940987],[126.4983700003753,-7.9211399994114231],[126.49883000090392,-7.9205799996672113],[126.49889999963534,-7.9205100009357352],[126.49899963282689,-7.9204655870171905],[126.49913347712834,-7.9204150244337939],[126.49927327044509,-7.9203823061984053],[126.49939521941394,-7.9203942033297494],[126.49948742240667,-7.9204328696811217],[126.49957367818274,-7.9205072283259028],[126.49961999956338,-7.920609999252008],[126.49963911285488,-7.9206380985693272],[126.49963316473884,-7.9206856879940801],[126.49967777920619,-7.9207005591833877],[126.4997432147776,-7.9206618928320154],[126.49975808596696,-7.9205756379552668],[126.49975511190894,-7.9204626129591702],[126.49970752158492,-7.9203823061984053],[126.4996837282215,-7.9203198455843449],[126.49971347060023,-7.9202484618969606],[126.4997699830983,-7.9201978984142443],[126.49985326481635,-7.9201175916534794],[126.49998382029707,-7.9200556724313174],[126.50003172358527,-7.9200134897307066],[126.50010608222999,-7.9199510291166462],[126.50017746591743,-7.9199212858385977],[126.50021315821073,-7.9198528762092337],[126.50029049091347,-7.9197993386684971],[126.50040054095223,-7.9197695953904486],[126.50050464197568,-7.9197220059657525],[126.50060576894111,-7.9196416992049876],[126.50065930558253,-7.9195732895756237],[126.50069202471718,-7.91946324043613],[126.50073366512663,-7.9193829327761023],[126.50078089841975,-7.9193222447257767],[126.50100730274494,-7.919284779868633],[126.50116494220833,-7.9192639596639651],[126.50131365859852,-7.9192431385599775],[126.5014326317106,-7.9192193451965522],[126.50152483560271,-7.9191687808145161],[126.5015950124,-7.9191409917632996],[126.50178000024687,-7.9190299992350219],[126.50281999964329,-7.9186499987983439],[126.50312999865059,-7.9185100004361288],[126.50330000019494,-7.9183799989377803],[126.50355000003253,-7.9179600002537427],[126.50361999966333,-7.9176100012005577],[126.50363000012442,-7.9170899997036486],[126.50362999922515,-7.9165700000054358],[126.50365000014745,-7.9161399999609898],[126.50365999881001,-7.9159100010456882],[126.50355999959436,-7.9155200001478647],[126.50322487532776,-7.9148583437375351],[126.50316999959591,-7.9147499997126829],[126.5031100004262,-7.914669998721422],[126.50285000012752,-7.9145999999899459],[126.50231000130555,-7.9146799991825674],[126.50192999996955,-7.9146899996437128],[126.5017223689922,-7.9146405639108366],[126.50171999927863,-7.9146400000359449],[126.50156999865658,-7.9145700013044689],[126.50145999897984,-7.9144700002902368],[126.50135000020236,-7.9142900009827031],[126.501240001425,-7.9137999990706476],[126.50113094963365,-7.9131638762118541],[126.5011200003878,-7.913100000064901],[126.50125000008745,-7.9128100001813095],[126.50130967370251,-7.912607105933148],[126.5013499993031,-7.9124700006899502],[126.5013499993031,-7.9123800010361833],[126.50128000057168,-7.9122199999529812],[126.50124999918819,-7.912110001175563],[126.50110999902734,-7.9119399996312154],[126.50096000110318,-7.9118699991011567],[126.50038999999856,-7.9118299990551577],[126.50011000057611,-7.9118200012919715],[126.50000122667529,-7.9118200003926518],[126.50000000000011,-7.9118200003926518],[126.49973000013949,-7.9113700003252347],[126.49955000083196,-7.9109699998655287],[126.49950999898738,-7.9108400001658197],[126.49946000027887,-7.9107899996587321],[126.49899999975025,-7.9102099989922294],[126.49874000035084,-7.9098199998930454],[126.49854999968284,-7.9094000003097449],[126.49837999903775,-7.9088599996891844],[126.49835000035227,-7.908609999851592],[126.49831000030633,-7.9083399990916519],[126.49831999986816,-7.9078699999005266],[126.49836150268129,-7.9073858094075149],[126.49838000173577,-7.9071699990961406],[126.49693000141849,-7.9075500013314581],[126.49526496060946,-7.908366810579821],[126.49452000089741,-7.9085499988833021],[126.4932000002799,-7.9079700000154389],[126.49222999961489,-7.9081100001762934],[126.49095500017313,-7.9081399988618273],[126.48930999895731,-7.9079399986320027],[126.48833999919168,-7.9070599994194026],[126.4869200002579,-7.9067949988900637],[126.48610999977677,-7.9066599989597535],[126.48495000114167,-7.9060200018215596],[126.48366000100827,-7.9058199997930956],[126.4834900003633,-7.9053200001178539],[126.4830999985661,-7.9043199989687309],[126.48210999967682,-7.9036499977491417],[126.48174595770979,-7.9023312759675832],[126.48152999990964,-7.901120000687456],[126.48085000002754,-7.9002300001143908],[126.48068000118121,-7.8991200001877928],[126.48041000132059,-7.8986099991520859],[126.47955000123159,-7.897640000285719],[126.47849000001361,-7.8966699996207126],[126.47680999988165,-7.8953899990491436],[126.47649999997509,-7.8952399993264635],[126.47292999991964,-7.8954799996022302],[126.47188000006201,-7.8954599986799394],[126.47021000129064,-7.8948899993739019],[126.46611999973823,-7.8895999991406143],[126.46493485965607,-7.8876905756595193],[126.46457000110468,-7.8870399979974763],[126.46297999972728,-7.8855600007933617],[126.46204000134503,-7.8847300002892098],[126.46060462760158,-7.8841253114339338],[126.4615600007935,-7.882939998681934],[126.46347000074002,-7.8811200001878206],[126.46657000070502,-7.8807499993129682],[126.46664000033581,-7.8786800000818857],[126.46769999975527,-7.8785300012585253],[126.46788065376927,-7.8768664830017201],[126.47176000082345,-7.8743000013439541],[126.47465000009754,-7.8735399995712783],[126.47752999980969,-7.8733399993414537],[126.47955000033232,-7.8713700002252835],[126.48117000039531,-7.8691100003262022],[126.4839800022753,-7.8678699989012557],[126.4872700002104,-7.8666299992750055],[126.49024000137501,-7.8655300007089295],[126.49123999892686,-7.8645100013354181],[126.49155999929462,-7.8633799986879467],[126.49093000081893,-7.8615000001248632],[126.49125000028732,-7.859719998079413],[126.49235588581553,-7.8569389912414067],[126.49318000025687,-7.8562199976547049],[126.49424041876034,-7.8530557096532334],[126.49378356226168,-7.8504858933092692],[126.49342000143201,-7.8482600001988203],[126.49281000028134,-7.8482000001298502],[126.49242000028289,-7.8481400000608801],[126.49238000023684,-7.8470399996961646],[126.49220999959186,-7.8466099996517187],[126.49195999975427,-7.8461999996302438],[126.49146000007897,-7.8454999997251775],[126.49140999957183,-7.8450800001418202],[126.4915499997328,-7.8440300002842491],[126.49154000017097,-7.8437099999165412],[126.4914699996408,-7.843520000147862],[126.49135999996406,-7.8434400000559208],[126.49121000024138,-7.843480000101863],[126.49039999976026,-7.8437499999624833],[126.48979000040822,-7.8437999995702512],[126.48920000017995,-7.8437299999395123],[126.48864999999762,-7.8435000001248341],[126.48858999992865,-7.8434600000788919],[126.48813999986112,-7.8430300000344459],[126.48776000032387,-7.8427499997126802],[126.48737999988714,-7.8424199997830897],[126.4856999997553,-7.8419400001308759],[126.48407999969231,-7.8414599995792855],[126.48275999997406,-7.8414500000174598],[126.48167999963232,-7.8413400003407219],[126.48025999979916,-7.8411099996267239],[126.47929000003353,-7.8403800001368609],[126.47888000001205,-7.8399599996542406],[126.47832999982973,-7.8394899995637957],[126.47783999971625,-7.8387600000738757],[126.47709000020336,-7.8376100001013924],[126.47652999955994,-7.8362599998990277],[126.47604000034585,-7.835290000133341],[126.47565999990911,-7.8347899995587795],[126.47518999981867,-7.8345100001363335],[126.47463999963634,-7.8352799996721956],[126.47321000024135,-7.8352199996032255],[126.47227000006046,-7.8341699997456544],[126.47218000040675,-7.8333699997256758],[126.47200999976178,-7.8324300004441056],[126.47190999964687,-7.8314100001713314],[126.47151000008648,-7.8303099998066159],[126.46980000036979,-7.828919999558309],[126.46987000000058,-7.8285899996287185],[126.46987000000058,-7.828170000045418],[126.4697099998167,-7.8273500000024683],[126.4696400001859,-7.8266100000514029],[126.46964000108528,-7.826289999683695],[126.46960999970179,-7.8257699999854822],[126.45952000024784,-7.8227100000664223],[126.4465214673919,-7.8209584237922058],[126.44573000103878,-7.8214199990337079],[126.44457000060515,-7.8215399991715913],[126.44352000074753,-7.8216699988713003],[126.44249000001355,-7.8217800003466778],[126.44259999969029,-7.8211200013869302],[126.44235999941452,-7.8207400000509324],[126.44154000027083,-7.8204399988068758],[126.44054000002109,-7.8202249987846244],[126.4391242018205,-7.819961628726162],[126.43828000012195,-7.8200900006529537],[126.43742000003306,-7.8199199991086061],[126.43682999980467,-7.819270000610004],[126.43674000015096,-7.8187399995512692],[126.43676999973582,-7.8179550002230371],[126.43727000031038,-7.8171000012640093],[126.43770000035477,-7.8168700014493879],[126.4381500004223,-7.8168699996506916],[126.43928499970309,-7.8166300002742446],[126.43960000073946,-7.8163400003906531],[126.43963000032431,-7.8160800000918584],[126.43913000064913,-7.8156600014078776],[126.43859999869107,-7.8154299988952971],[126.43819488198824,-7.8152923954276616],[126.43791000014642,-7.8150799980434158],[126.43579000130762,-7.8131700007948552],[126.43573638282783,-7.81296477100733],[126.43534000034083,-7.8127499994129153],[126.43495000124165,-7.8121000000149365],[126.43468999914421,-7.8109199995582799],[126.43445757116001,-7.8102337961527155],[126.43423000041423,-7.8098049994011376],[126.43412000073749,-7.8095499984336243],[126.43395000009252,-7.809269999910498],[126.43315000097186,-7.8092199994034104],[126.43269350420189,-7.8091560369215358],[126.43209000065303,-7.8096599999090017],[126.43162000056259,-7.809809998732419],[126.43075141644476,-7.8102453920112112],[126.4299700000156,-7.8101999996302425],[126.42980500139981,-7.8095449991023997],[126.42953780202799,-7.8092388410996136],[126.42930000059459,-7.8087099992670232],[126.42911000082597,-7.8081399999609857],[126.42908000034186,-7.8075800002167739],[126.4294599998791,-7.8072100002412981],[126.42971000061607,-7.8070700000803868],[126.42978999980869,-7.8069699999654745],[126.42974999976275,-7.8067499997126788],[126.4295399999711,-7.8064500011665814],[126.42918999911922,-7.8062999996452049],[126.42795999995406,-7.8061000003147001],[126.42758999997852,-7.8058800000619044],[126.42732000011802,-7.8051199991885483],[126.42699999975025,-7.8043400009901802],[126.42638000083639,-7.804439999306453],[126.42491462660882,-7.8050329241301029],[126.42431000070599,-7.8052700007099247],[126.42386999930113,-7.8053199994183728],[126.42366000040874,-7.8052999993954018],[126.42334000004098,-7.8051199991885483],[126.42241000122067,-7.8041199989387451],[126.42217000004553,-7.8037499998625321],[126.42171999997811,-7.8024599997291375],[126.42164958575984,-7.8024112969437738],[126.4216199998632,-7.802169999845546],[126.42143053519112,-7.8019173802828163],[126.42116999979567,-7.8016599997091589],[126.42071999972825,-7.8015999987409259],[126.42042604102903,-7.8016285863901089],[126.42014612974015,-7.8017885119302264],[126.41959164373941,-7.8017247553930815],[126.4194349998254,-7.80167999973213],[126.41903500116439,-7.8015000004246531],[126.41871499989736,-7.8012200001028873],[126.41855000038231,-7.8010500003571792],[126.41835999971431,-7.8007500009117621],[126.41825430329357,-7.8003565762949165],[126.41816999904631,-7.7992700001103685],[126.41800500043053,-7.7982299989152466],[126.41794999969284,-7.7981100005760027],[126.41720999974177,-7.7977500010616723],[126.41700760641595,-7.7976830105624231],[126.41673000098876,-7.7977399997011503],[126.41635999921471,-7.7977300001393246],[126.41591999960838,-7.7975299990101803],[126.41575000076193,-7.7971599990347045],[126.41552999960982,-7.7967200003276957],[126.41521000014143,-7.79644000000593],[126.41463999903681,-7.79644000000593],[126.41386000083844,-7.7965299996596968],[126.41360999920221,-7.7963699985765516],[126.41333999934159,-7.7958999993854263],[126.41334999980268,-7.795589998579544],[126.41354000137005,-7.7947700012344967],[126.41380914507602,-7.7939914959107455],[126.41406000106826,-7.7933299995797825],[126.41408000109129,-7.7927899998585417],[126.41389000132256,-7.7921599995842712],[126.41364275341039,-7.7919350962276894],[126.41220118513661,-7.7911094898110491],[126.41190000038478,-7.790899999934993],[126.41171000061615,-7.7904899999135182],[126.41162999962489,-7.7901699986464905],[126.41160000004004,-7.7895800002168016],[126.41160000004004,-7.7893500004021234],[126.41148759827411,-7.786418018077029],[126.41004027703718,-7.7829203253127162],[126.41055646810662,-7.780781818426135],[126.4109499997428,-7.7798600007383811],[126.41121999960342,-7.7790599998190828],[126.41124999918816,-7.7784199990836669],[126.41116999999554,-7.7779299998695706],[126.41071999902874,-7.7777200000779203],[126.41002999958482,-7.777729999639746],[126.40907999984222,-7.7778999993853972],[126.40835999991418,-7.7778200001928326],[126.40755999989415,-7.7776699995707759],[126.40677000123458,-7.7775100002862132],[126.40613000139854,-7.77772000097724],[126.40556999985563,-7.7783399998910454],[126.40493999868204,-7.7785800001668122],[126.40412000133711,-7.7784300013434517],[126.40343000009454,-7.7780999987159021],[126.40260000138903,-7.7777800010461533],[126.40148999876453,-7.7776499986484851],[126.40035139410156,-7.7781050618990548],[126.39984000001607,-7.7785300005590443],[126.39909000140256,-7.7794400011550806],[126.39839000059806,-7.7802800003217385],[126.39790499981598,-7.7809699997656026],[126.39774000030081,-7.7812300000643972],[126.39708000044175,-7.7817499997626101],[126.39673203925224,-7.7817800002467834],[126.39628000132109,-7.7816099996017556],[126.39592999867057,-7.7810099998116016],[126.39577041037614,-7.7804978287117592],[126.39540999987162,-7.7794400011550806],[126.39504000079546,-7.7785600010431608],[126.39470000040478,-7.777790000607979],[126.3945299997597,-7.7772200004026217],[126.39439999916067,-7.7757899992090529],[126.39444999966781,-7.7748899999734817],[126.39452539613023,-7.7747351762873222],[126.39448157216691,-7.7745982266268356],[126.3949640116798,-7.7724272443218183],[126.39520523233568,-7.7700150422603542],[126.39553999867212,-7.7697499985635545],[126.39549999862606,-7.7690799991426047],[126.39514999957294,-7.7683400009901789],[126.39466999992067,-7.7677000002547629],[126.3941900002684,-7.767259998849795],[126.39340999937201,-7.7668400001658142],[126.39284999962786,-7.766419999683194],[126.39247999875295,-7.7659299995697779],[126.39196807676535,-7.7655300863443699],[126.39176000062355,-7.7651200008872934],[126.39156000039372,-7.764640000335703],[126.3915500008319,-7.7639099990471436],[126.39163999958635,-7.7630099989122527],[126.39202000092234,-7.7624199995832441],[126.39286000008894,-7.7613899997486442],[126.39304000029585,-7.7609799997271693],[126.39277000043523,-7.7600799995922785],[126.39240000135908,-7.75963999998595],[126.39204999960782,-7.7593099991570966],[126.39177000108475,-7.7588100003811746],[126.39165000094681,-7.7578399997161682],[126.39092000055768,-7.7569599987049287],[126.39085000092689,-7.7563699993759201],[126.39078000039672,-7.755599999840058],[126.3904500013665,-7.7553100008557863],[126.38914000031082,-7.7546500000973992],[126.38807000132954,-7.7541800000069543],[126.38674000025082,-7.7535300006089756],[126.38633000022935,-7.7531799988578314],[126.38606000036873,-7.7529299990201821],[126.38582428356392,-7.7526228562597339],[126.38562499919442,-7.7524599998290569],[126.38543999965634,-7.7523799997371725],[126.38482962258911,-7.7523048119174973],[126.38451500106646,-7.752104999645951],[126.38411780109573,-7.7517836916640022],[126.38366000030885,-7.7511899988193704],[126.38358051912576,-7.7510246746489884],[126.38294999994264,-7.7502099985925383],[126.38266999962082,-7.7499500000923831],[126.38244010232893,-7.7497657856624187],[126.38218999996855,-7.7495300014084023],[126.38201772224011,-7.7494232258011948],[126.38135000080194,-7.7488200001428709],[126.38099999995006,-7.7485450000516494],[126.3808100010807,-7.7483399995912805],[126.38069353168123,-7.7481041290022858],[126.38065999955938,-7.747947557034081],[126.38064000043573,-7.7474899990641575],[126.38062939383155,-7.7468032416762185],[126.38075000011247,-7.746489999713674],[126.38082499997381,-7.7460599987699084],[126.3808100010807,-7.7450400002957167],[126.3809199962609,-7.7445300136491824],[126.38108000004206,-7.7441400001608258],[126.38120999974171,-7.7436100009007873],[126.38122000020292,-7.7431199998880516],[126.38120999974171,-7.7427499999125189],[126.38112000098727,-7.7425400010201884],[126.3802800009214,-7.7419949992697639],[126.38004999930808,-7.7418149999622301],[126.37952999960987,-7.7411899990191841],[126.37933000027931,-7.7409200000578835],[126.3788499988284,-7.7405799996672044],[126.37860190195624,-7.7403151511232977],[126.37849999977527,-7.7402600010981359],[126.378320001367,-7.7399100011455744],[126.3782399985771,-7.7395699998555756],[126.37810000021489,-7.7387099988673071],[126.3779251153519,-7.738144533943057],[126.37781999989318,-7.7380600003686482],[126.3770772803922,-7.7372301977154052],[126.37695000024235,-7.7370149998423017],[126.37671000086596,-7.7366700001203412],[126.37652000109722,-7.7363449986227693],[126.37625999989916,-7.7357200003776825],[126.37606099162156,-7.7350811273920499],[126.37575826902901,-7.734611812585058]]]},"properties":{"OBJECTID":635,"nama_kawasan":"PKSN Ilwaki - Kab. Maluku Barat Daya","delineasi_asal":"Ilwaki","Shape_Length":0.87391103121839542,"Shape_Area":0.024544259755301147}}]}