{"type":"FeatureCollection","features":[{"type":"Feature","id":662,"geometry":{"type":"MultiPolygon","coordinates":[[[[128.32740325825387,0.76131858888180659],[128.32760298868709,0.76134734380491409],[128.32777416744398,0.76149098622011024],[128.32789541943816,0.76159153672011826],[128.3279596031532,0.76169925931338867],[128.3278953942571,0.76174951432869875],[128.32765998502032,0.76179974326356614],[128.32755297558947,0.76184999198358128],[128.32739603220114,0.76191459478275192],[128.32698940913394,0.76205096617917434],[128.32671120655698,0.76205092211239389],[128.32656855429536,0.76195755000100007],[128.32649723715781,0.76184982740767282],[128.32653293214912,0.76167031193540424],[128.32663994517736,0.76159133976858584],[128.3267469582056,0.76151236760171059],[128.32696812128188,0.76132570161990998],[128.32717499772798,0.76126828710181371],[128.32740325825387,0.76131858888180659]]],[[[128.34958072517043,0.78123807577662774],[128.34963777456369,0.7813529785571518],[128.34959972065064,0.78141041915557707],[128.34960921569279,0.78151573965971011],[128.34939046100101,0.78148698203864342],[128.34933341340638,0.7813625050756059],[128.34936196058607,0.78126676504922443],[128.34946659220952,0.78121890942514938],[128.34958072517043,0.78123807577662774]]],[[[128.31934327687077,0.78903638681981647],[128.31935475132082,0.78904171979957027],[128.31946691296775,0.78909385259925102],[128.31958103064017,0.78919919019051576],[128.31960003601296,0.78930451159396853],[128.31960000633524,0.7894864255581524],[128.31959999014748,0.78958216918181279],[128.31959996586579,0.78973535969913655],[128.31959994428212,0.78986940185149024],[128.31954959483801,0.78996228742965968],[128.31954285981521,0.78997471066440994],[128.3194382236951,0.79005128793664881],[128.31923848516806,0.79007040392605177],[128.31901021115243,0.79009908960136954],[128.31881999644577,0.79004161213072166],[128.3187153918019,0.78992670215563976],[128.31868688958832,0.78972563532983031],[128.31870594082659,0.78955329914549566],[128.31880107470988,0.78941927318095395],[128.3188486560407,0.78926609075750775],[128.31892477196072,0.78910333864820359],[128.31907696243195,0.78903634275303602],[128.31921012864461,0.78897891834247957],[128.31934327687077,0.78903638681981647]]],[[[128.30100469561023,0.77674183426830723],[128.3010331681462,0.77711523907709079],[128.30115674938452,0.77749823425614295],[128.30136592719589,0.77790996637190801],[128.30149901606683,0.77832168589714001],[128.30144190641886,0.77858018432806375],[128.30125164224955,0.77882908609348078],[128.30104236101624,0.77904926081475878],[128.30075695936625,0.77945133601042471],[128.30061425044732,0.77970982005217593],[128.30032889016616,0.7798629620061206],[128.3001101075954,0.78001611475195887],[128.2998342450544,0.78025542794568992],[128.29964397908645,0.78051390389362041],[128.29944419379456,0.78082024985468479],[128.29937756392349,0.78113619158204983],[128.29931092505922,0.78150000602050795],[128.29926330415822,0.78189254660378538],[128.29919668058244,0.78217019160109658],[128.29899688539797,0.78253398355656145],[128.29844510995395,0.78330941319893554],[128.29786480171924,0.78407526326282095],[128.2975698753495,0.78455393101916115],[128.29718936859456,0.78491769239764153],[128.29684687258521,0.78548252060187451],[128.29664703872993,0.78607609743397688],[128.29663745735286,0.7864973668600328],[128.2966374141854,0.78675587428421068],[128.29655177624352,0.7869760696898993],[128.29643762169894,0.7871005169753289],[128.29610471066394,0.78722492558989643],[128.29582884992158,0.7874450904186574],[128.29562908171681,0.78764611677490848],[128.29539128298143,0.78776096829409425],[128.29507737731922,0.78798112502892081],[128.29489663337301,0.78817258079999419],[128.2946968696649,0.78834488640740119],[128.29459221375976,0.78854592895152109],[128.29449706638661,0.7887565483760568],[128.29439239519297,0.78904376036132362],[128.29427820827277,0.78935969399475425],[128.29414498360416,0.78976179437137262],[128.29406886228821,0.78995326812884059],[128.29392616685914,0.79011600764766854],[128.29374544989264,0.79014469961822442],[128.2934220635774,0.79018294059028449],[128.29311773119844,0.79003927389339879],[128.29292754167273,0.78983818008799744],[128.29285148241001,0.78966583041381],[128.29282300987404,0.78930199978748306],[128.29277549958965,0.78902433590440069],[128.29274700457063,0.78880412071362116],[128.29262338556089,0.7886509104112065],[128.29237611426629,0.78853597615443505],[128.29214785643853,0.7884784905899096],[128.29189106492072,0.78842100142810523],[128.29168183764671,0.78831564674976562],[128.29155821144241,0.78820073407666769],[128.29148214498503,0.78806668023315751],[128.29138709383938,0.78771241299750727],[128.29150126906836,0.78746350044025348],[128.29164395730288,0.78733905855074227],[128.29179615406929,0.78723376682495427],[128.29199590069038,0.78715720574052739],[128.29219564641198,0.78709021973787685],[128.29239539393234,0.78701365865344997],[128.29255710282814,0.7868987954431077],[128.29269978926391,0.78678392683679022],[128.29284247300177,0.78668820659549965],[128.29296613517909,0.7865829112723759],[128.29311834633472,0.78639145010538414],[128.29322300763579,0.78616168411446097],[128.29328011188773,0.78594148421217369],[128.29332768332597,0.78584574868239088],[128.29343232214399,0.78575002304518193],[128.29365109931882,0.78562559374620378],[128.29383182258061,0.78555860414633116],[128.29401254584241,0.78549161544572144],[128.29414571655161,0.78540546758830487],[128.29426937962819,0.78530017136586139],[128.2943645162095,0.78514699793566933],[128.29446916312145,0.78500339958725363],[128.29458332575996,0.78483108138937041],[128.29471650186508,0.78471621188373319],[128.29490674085343,0.78462050063563993],[128.29513502566101,0.78451522239964788],[128.29535380823177,0.78436206965386646],[128.29546795468241,0.78428549418026705],[128.29554406340787,0.78417061478211281],[128.2956392053851,0.78398871790506064],[128.2956867993064,0.78375894202162044],[128.29575342018427,0.78350044628859905],[128.2957439674102,0.78315576762463479],[128.29565841580336,0.78285894818196766],[128.29555383544118,0.78260999785317154],[128.29541120566273,0.78238018959410738],[128.2954207537648,0.7821599806986228],[128.29546834858547,0.78192063063266914],[128.29549694522791,0.78154723571640261],[128.29547797762666,0.78122170541740843],[128.29538290759513,0.78096318180541857],[128.29532586719506,0.78080998229489751],[128.29512616014426,0.78064718432017344],[128.29508813860673,0.7805131376712211],[128.29505962560131,0.78038866610410196],[128.29519281339765,0.78019720133983128],[128.29539256811256,0.7800727684435742],[128.29564939290526,0.77992919707480723],[128.2957635456512,0.77981432397194794],[128.29580161125546,0.77968986409598529],[128.29584919978083,0.77948881076002863],[128.29580167330869,0.7793164646831201],[128.29571611540644,0.77906751705234001],[128.29556397889462,0.77880898444709601],[128.29538329520301,0.77863661498781767],[128.29523113440939,0.77854084618314801],[128.29509799337779,0.77844508007643753],[128.29493632135416,0.77833973529061495],[128.29476513810073,0.77823438870609607],[128.29459395664583,0.77811946793912057],[128.29438472937181,0.77801411505942042],[128.29420403219035,0.777927915041289],[128.29396628021971,0.7777651116705897],[128.29381412302337,0.77764061941911677],[128.29381414100988,0.77753530161294293],[128.29403293796975,0.77728640524344428],[128.29436587058854,0.77702795357726018],[128.29463220301386,0.77690353237215959],[128.29490802958196,0.77688442987260942],[128.29530752102539,0.77674088188621226],[128.29559286961535,0.77665476100844444],[128.29583064316967,0.77668352402548635],[128.29603988033625,0.77673143091084285],[128.29614452544956,0.77659740674499744],[128.29620161890966,0.77643465283699697],[128.29633482199449,0.77614744444906592],[128.29644898643164,0.77596555116929267],[128.2966963125848,0.77573580856073931],[128.29689607269563,0.77558265221767897],[128.29679148603827,0.77536242443636638],[128.2966298427931,0.77508474166756969],[128.29650625525949,0.77474004411777742],[128.29643021488255,0.77444322557443002],[128.2963636983261,0.77406981626904781],[128.29637324732755,0.77384003319104977],[128.29647790413208,0.77362941466577695],[128.29663961842368,0.77348582710925484],[128.29685840189381,0.77331352509912676],[128.2970296319121,0.77313164081260766],[128.29708672357344,0.77297846108717749],[128.29717237320654,0.77268167042279856],[128.29725800665176,0.77248062338213686],[128.29741021870666,0.77227001295079845],[128.29758145681888,0.7720402568523923],[128.29778120973515,0.77192539723932896],[128.29817116296886,0.77194461125486669],[128.29860864087618,0.77215531971228302],[128.29901757070434,0.77245219221492789],[128.2993124098399,0.77249053840768056],[128.29957871708416,0.77251930592126428],[128.29986405398301,0.77250020432103383],[128.30017793266552,0.77243323630483474],[128.30062497486279,0.77231841806059265],[128.30089131178465,0.77216527340868879],[128.30107204943556,0.77201211256897295],[128.30128132617233,0.77181108531340215],[128.30139550230069,0.77155259677499544],[128.30151919955154,0.77122708895905134],[128.30156679437209,0.77098773799377796],[128.30157634517229,0.77074838073320961],[128.30160491213701,0.77053774961751742],[128.30162397416711,0.77029839325626881],[128.30162400924064,0.77007818256214478],[128.30170965167918,0.7698196904264023],[128.30174777843729,0.76932182933899185],[128.30180491776275,0.7688718436606905],[128.30177643533432,0.76855588484625059],[128.30174794571121,0.7682877987429606],[128.30174799517386,0.7679814186076328],[128.30177656303806,0.76777078659256404],[128.30180514259337,0.76748356111750127],[128.30187176886716,0.76718676775516315],[128.30189083629307,0.76690911376465465],[128.30193845179815,0.76653572244566703],[128.30203363424494,0.76609531724511726],[128.30194806555085,0.76590381560862397],[128.30189102515078,0.76574104191558945],[128.30186252743374,0.76552082672480992],[128.30195767120961,0.76531978058346795],[128.30204329296362,0.76518575371960651],[128.30216696683215,0.76500386133915299],[128.30231916359855,0.76488899543085154],[128.3024523244153,0.76486029266840205],[128.30262352115869,0.76487946981171717],[128.30282322641085,0.76505184106963497],[128.3029373485798,0.76511888013226326],[128.30306096219374,0.76531996134718838],[128.30317506727556,0.76549231911531024],[128.3032511319343,0.76564552132379049],[128.30328915796838,0.7657604196077159],[128.303346205563,0.76587532058960051],[128.30334615070433,0.76621999835430188],[128.30343169511673,0.7665646896087992],[128.30346017844454,0.76688064842323911],[128.30352669859838,0.76722533608045751],[128.30365028343385,0.76759875707705305],[128.3038784702153,0.76809666133192422],[128.30417322571384,0.76865202237297581],[128.30432534513864,0.76901587368365654],[128.30436335408558,0.76923608977375579],[128.30436331811268,0.76945629956861694],[128.30431571429881,0.76975309832687344],[128.30434420931783,0.76999246188267989],[128.30441075015608,0.77022225755121099],[128.30442018944029,0.77066267983883563],[128.30445818130011,0.77098821463442846],[128.30449614528095,0.77148608741305225],[128.30455313891628,0.77193609197712476],[128.30461961590265,0.77255843722213058],[128.30461956464126,0.77287439064065211],[128.30458149993638,0.7729988514159345],[128.3043912375656,0.77323817899878122],[128.30416295185876,0.77335303411530276],[128.30395369041059,0.77344874266538],[128.30364931396468,0.77357315937388194],[128.30348760506899,0.77368802528218339],[128.3033449132372,0.77384119241713734],[128.30303100757499,0.77407092423379709],[128.3024317542222,0.77438677872692097],[128.30199420167116,0.77462606584032301],[128.30171834902262,0.77480793214039068],[128.30149004083273,0.7750568276105696],[128.3013092771015,0.77537275135142636],[128.30120461759907,0.77559294495847553],[128.30109994280815,0.77591845457305908],[128.30103332372892,0.77616737792220647],[128.301004747771,0.7764258808497857],[128.30100469561023,0.77674183426830723]]],[[[128.29384965523741,0.79261489805912788],[128.29387816464566,0.79275851799127395],[128.29386862643605,0.79292127999315198],[128.29384958419098,0.79303616838450353],[128.29364034432649,0.79299783568160365],[128.2935452464161,0.79292122423515821],[128.29338358158714,0.7927680067381857],[128.29321240372951,0.79263393670686355],[128.29304121687869,0.79254773758805186],[128.29288903540078,0.7925668607720695],[128.29272734269273,0.79258598215739084],[128.29255615134537,0.79252850558611954],[128.29254666439715,0.79238488925130923],[128.29255621159996,0.79216468125508754],[128.29267036164788,0.79207853159897468],[128.29285108041313,0.79204026544596218],[128.29308885396745,0.79206902936226697],[128.29332663201853,0.79207864491360169],[128.29349783775513,0.79204995114434951],[128.29365953855688,0.7919829588465177],[128.29373562300066,0.79201169488385403],[128.29380217103346,0.79219361874055494],[128.29382115302383,0.7924329795984022],[128.29384965523741,0.79261489805912788]]],[[[128.50957129168182,0.79901602237157476],[128.50983759982546,0.79915009959745475],[128.51001830689938,0.79925544438327734],[128.510151450629,0.79940865558501173],[128.510208499123,0.79958100795721521],[128.51022749820049,0.79978207927956646],[128.51017038585474,0.80014591170453286],[128.51009425734412,0.80045229363850012],[128.50989448464281,0.80070121159167229],[128.50971375508584,0.80078736304642462],[128.50954254305395,0.80081606670813699],[128.50935231485755,0.8007873198789639],[128.50915258532359,0.80068197329450186],[128.5089148045746,0.80060534655956417],[128.50877214871571,0.80046171043960612],[128.50868656743125,0.80027020430651419],[128.50863905085157,0.79992550855541822],[128.50870566813217,0.79961912572213123],[128.508857888281,0.79932232786319446],[128.50906716861505,0.79910213425614529],[128.50932399070962,0.79901599269396684],[128.50957129168182,0.79901602237157476]]],[[[128.34917807440866,0.80163159801986694],[128.34869297919772,0.80174641356620668],[128.34777035841535,0.80189945659469686],[128.34729477983024,0.80198554959349622],[128.34698089035589,0.80209081883629096],[128.3458965462886,0.80244489901292582],[128.34421297764686,0.80288505240326913],[128.34329985370539,0.80313383995479626],[128.34257696335624,0.80333478627142085],[128.34226308287509,0.80338260772123249],[128.3420348286445,0.80327725214351631],[128.34174002278394,0.80299954599229295],[128.34154982516441,0.80282717473437515],[128.34146426906079,0.80253992767558202],[128.34146429873852,0.80235801371139814],[128.34138824487172,0.80212821444558813],[128.3411219574125,0.80194625731394353],[128.34079859537894,0.80181216300098868],[128.34066546064253,0.80166852508239117],[128.34042772575901,0.8013716786600753],[128.34006631430907,0.80126630059936588],[128.33961929099758,0.80121835684172993],[128.33919127575689,0.8012661594057704],[128.33870618414312,0.80137139897095722],[128.3382876693405,0.80148622440975714],[128.33813552833203,0.80123726418844399],[128.33804046009925,0.80095959041278775],[128.33778367307809,0.80085423033852976],[128.33765055632819,0.80059569863260549],[128.33757450785731,0.80033717681931194],[128.33746040817141,0.80011694634004016],[128.33725118719258,0.79994457238416317],[128.33697539659738,0.79971474164204892],[128.33667107501014,0.79947533132150284],[128.33633821883382,0.79923591740373467],[128.33608143540994,0.79911140716575346],[128.33591025665305,0.79895818876946123],[128.33548232504927,0.79848897198849045],[128.33516847784301,0.7983357302098284],[128.33491172229822,0.79802930690703988],[128.33473108267344,0.79756970477808409],[128.33448385274767,0.79717711293346838],[128.33423659943958,0.7969281383229827],[128.33391324190268,0.79677489474562435],[128.3330668008922,0.79639177995670707],[128.33260075062424,0.79638212933184604],[128.3321156733997,0.79641077363834256],[128.33160742514258,0.79647464169141813],[128.3315830310321,0.79647770658095851],[128.33156207413049,0.79648877004075302],[128.33100279564258,0.79678399408612677],[128.33054809212081,0.7973345095800255],[128.33039395641606,0.79752112519980756],[128.33009902644892,0.79801894581771649],[128.33006045542572,0.79841431836615584],[128.33005358190735,0.79848477395319151],[128.3300513911588,0.79850723362199005],[128.32996575771358,0.79870828156197149],[128.32965191680262,0.79851674215399271],[128.32922391235377,0.79850709782436979],[128.32875786478371,0.79847829793516212],[128.3284059519732,0.79845909111423907],[128.32827283971983,0.79818141104334472],[128.32820631327081,0.79785586995245694],[128.3276737671307,0.7973387642725811],[128.32721728295132,0.79699401096490874],[128.32704610869098,0.79682164330426986],[128.32693205487055,0.79632375523715382],[128.32681797586895,0.79597905768741839],[128.32663730836521,0.79569179623945274],[128.32654221675,0.79556731298117711],[128.32623787807563,0.7954332213661246],[128.32583842979977,0.79528953938080349],[128.32535337505828,0.7951745655537934],[128.32494440565983,0.79508832956281594],[128.32478273273694,0.7949734105944799],[128.32489690706666,0.79473406862240381],[128.32498254141126,0.79453302068242238],[128.32498260706177,0.79412132094228127],[128.32506828457372,0.79365218959691219],[128.32503982642686,0.79319261444766198],[128.32489726229892,0.79254152956798407],[128.32456442680689,0.79218722276215203],[128.32434571168528,0.7919191033839752],[128.32413651858553,0.79158396472826098],[128.32409853481954,0.79121055722146139],[128.32385131208844,0.79077966774752895],[128.32366113695196,0.79047325613589692],[128.32350901842653,0.790099829743383],[128.32336639044661,0.7898508713207093],[128.32335690709567,0.78967853063971916],[128.32345206526065,0.78939131415785369],[128.32354721443244,0.7891615445696516],[128.32377549834064,0.78907541200072728],[128.32403230065017,0.78907545426886827],[128.32415468489091,0.78908040233875454],[128.32427007960052,0.78908506712218696],[128.32446984690603,0.78889361225043331],[128.32457452979077,0.78852022722674064],[128.32464115066864,0.78826172879581691],[128.3247172773805,0.7880319556103359],[128.32476490907334,0.78756281796972871],[128.32484104927505,0.78724687444372421],[128.32489816431894,0.78695007658478744],[128.32495528835591,0.78659583363088359],[128.32495533602003,0.78629902677869268],[128.32494836987144,0.78626393703109443],[128.32488881136965,0.78596391240466801],[128.32481277279135,0.7856479445970308],[128.32462257876909,0.78545642497408608],[128.32438482140242,0.78532234505024689],[128.32408048902346,0.78514995580587765],[128.32389980173457,0.7849871614284325],[128.32369060323879,0.78469032130135474],[128.32351942717992,0.78452752872249221],[128.32313901935038,0.7842785334275959],[128.32298686125466,0.78414446609428978],[128.32290129525859,0.78392424101093638],[128.32283476521229,0.78362742336696556],[128.32274920820942,0.78334975138994878],[128.32237840513937,0.78251671837188042],[128.32199810163115,0.78161666337837232],[128.32178892741717,0.78116663183465107],[128.32161779002899,0.78076447929731785],[128.3213230453224,0.78012294701642304],[128.32105675516516,0.77997928841347175],[128.32099022242085,0.779701619134471],[128.32123757555371,0.77929953494560777],[128.32157055133996,0.77878257135864715],[128.3217608595761,0.7782560102067464],[128.32164679496373,0.77781556903335058],[128.32154221190365,0.77756661780523473],[128.32159932335014,0.77728896921058777],[128.32173252733435,0.77699218484150379],[128.3216945363738,0.77665707496407776],[128.32154241335172,0.77630279693659077],[128.32137123819211,0.7761400052571048],[128.3213427638575,0.77576659864968178],[128.32145697955605,0.77525917417159462],[128.32141899668943,0.77486661740050522],[128.32129539836399,0.77456979076328025],[128.3211337371323,0.7743878516180871],[128.32106717740839,0.77427294793824331],[128.32116233467411,0.7739857305570581],[128.32136208489237,0.77389001930896484],[128.3215428279392,0.77369856083993227],[128.32159040837075,0.77354537841654292],[128.32175211366916,0.77344965997389181],[128.32189393585656,0.77343629874621911],[128.32205647572584,0.77342098598978737],[128.32254150708491,0.77366999837175854],[128.32328333985436,0.77391905212260781],[128.32388253744921,0.77396702016187646],[128.32451031190146,0.77373733510995635],[128.32529028042222,0.77342150399925913],[128.32590855083902,0.77314394533686936],[128.32617490304938,0.77289505256464963],[128.32629858231383,0.77268443583807311],[128.32656490484658,0.77262703211187045],[128.32691682305301,0.77259836532232384],[128.32731624794656,0.77288566094455291],[128.32796297291293,0.77311555014256328],[128.32907575264392,0.77330721455638241],[128.33040727987213,0.77356593601916757],[128.33145349268466,0.77369056856491625],[128.33193856541254,0.77369064680596011],[128.3322999912516,0.77368112928076016],[128.33256632907285,0.77352798103152054],[128.33275659504091,0.77325992730385451],[128.33291830483597,0.77313548541434329],[128.3332511969852,0.77313553757505815],[128.33385039458005,0.77318350471500707],[128.33438301176659,0.77326018540929908],[128.33484902606176,0.77348046984786833],[128.33528652285486,0.77360500616612171],[128.33562889835503,0.77378697408960306],[128.33589522268642,0.77371999528162405],[128.33618057217575,0.77363387080652046],[128.33650392971265,0.77378711258523936],[128.3367606960494,0.77401693883069811],[128.33700792417642,0.77442867814102101],[128.33735026280442,0.77485000692234962],[128.33757849724986,0.77507025538801599],[128.33782575235659,0.77530965491666848],[128.33807299577222,0.77561607642081754],[128.33823465700391,0.77580758974852415],[128.33839632722879,0.77594165708183027],[128.338596054964,0.77598956036996469],[128.3389289273282,0.77612365468297639],[128.33906203778292,0.77642048311884082],[128.33904295506841,0.77681303269537239],[128.33893826408973,0.77724386641136789],[128.33873841944262,0.7779523424267154],[128.33869082192393,0.77821084355565517],[128.33857664129903,0.77850763332065753],[128.33851953614771,0.77874698518525065],[128.33845291706848,0.77900548541487069],[128.33854797900608,0.77933103010298055],[128.33870959976832,0.77978105355282423],[128.33892829330614,0.78019278926586821],[128.33912798596782,0.78047047922927959],[128.33942279992232,0.78069073758751983],[128.33979369921985,0.78093973198309641],[128.3402502175735,0.78107384608119901],[128.34064014292835,0.78130369480970785],[128.34104912311864,0.78132290792592585],[128.34128691016281,0.78128464806809461],[128.34144862805181,0.78111233256811374],[128.34169594880905,0.78093045817416851],[128.34188619589133,0.78078687241628586],[128.34211452476552,0.78040392939789172],[128.34231427858117,0.78028906798613207],[128.34257110697104,0.78012634285647664],[128.3428469587202,0.7799636204247804],[128.34298012942952,0.77987747166804411],[128.34304673591816,0.7796955675964341],[128.34334158314766,0.77970518944300693],[128.34415948956882,0.78008829433935034],[128.34463502408721,0.78027028384656205],[128.34510106356333,0.780346951950321],[128.34575731684674,0.78049067170718445],[128.34641354404994,0.78080673124571831],[128.34696514322684,0.78115149714392373],[128.34728849536782,0.78135261163379255],[128.34760234617136,0.78148670324878822],[128.34789717721299,0.78160164290153489],[128.34809689955239,0.78168784381898604],[128.34835369916391,0.78171660683597111],[128.3486105122654,0.78165920041180925],[128.34888632804166,0.78172626465544681],[128.34924773769296,0.78184121510003024],[128.3494474258581,0.78215720269281519],[128.34946640964711,0.78240614133039799],[128.34946639255998,0.78252103511772475],[128.349323694433,0.78271250168063489],[128.34918102508425,0.7827124791975848],[128.34907638087032,0.7828465051621265],[128.34896221463453,0.78304755130352532],[128.34889562343437,0.78313371085209837],[128.34838199633214,0.78324852370047893],[128.34804908799504,0.78334421606274418],[128.34787787056734,0.78343993360607556],[128.34740216427849,0.78436858074547899],[128.3471642846041,0.78500045700553756],[128.34706910395607,0.78544086670268598],[128.34697395118701,0.78569936243565053],[128.34679321443537,0.78584295089149236],[128.34667905899141,0.78597697505739461],[128.34667899424028,0.78638867569685544],[128.34664089895841,0.78671420059993125],[128.34659328884925,0.78705887386797713],[128.34658373714979,0.78731738219147474],[128.34658369578096,0.78758546739544499],[128.34662171821776,0.78772909002555025],[128.34672632466027,0.78784400000063215],[128.34683094369313,0.7878727396352474],[128.34694506226492,0.78797807632719241],[128.34698308560098,0.78812169895729767],[128.34701159231122,0.78829404413488646],[128.3469259615639,0.78848551969105074],[128.34676423827909,0.78868655683919542],[128.34663103699279,0.78896419464189194],[128.34642175665886,0.78917479967731197],[128.34633611961624,0.78940457286279297],[128.34627902255886,0.78958647873304244],[128.34604121572954,0.78974920656065706],[128.3457748779083,0.78989278062738322],[128.34558463892006,0.78997892039092221],[128.34528978719402,0.78999802289047238],[128.34505198486124,0.79013202727128373],[128.34482368296665,0.79033305542623111],[128.34462390576869,0.79059153317274422],[128.34444309257469,0.79121384334422373],[128.34453803040583,0.79233406766314829],[128.34486130340645,0.79304262821477778],[128.34503244259326,0.79343520656959754],[128.34508945421499,0.79379904618906494],[128.34518449726681,0.79423948556387813],[128.34526057901257,0.794296944148698],[128.34539372633947,0.7943639868086052],[128.34557443071549,0.79442146158123705],[128.34584071637607,0.794612993794658],[128.34615453210608,0.79497687208504431],[128.34643034158705,0.79508223575663806],[128.34674421487364,0.79508228521933688],[128.34719124358105,0.79509193134759926],[128.34750511956565,0.79506325736349481],[128.34783801621154,0.7950537362409591],[128.3479711554445,0.79517822489520995],[128.34901726843225,0.79599221926554264],[128.35002534819137,0.79673918716378012],[128.35119504061868,0.79799362630484438],[128.3517370710091,0.79872137119434683],[128.35214597115976,0.79926718143531161],[128.35244078511425,0.79949701397606532],[128.35262148769152,0.79957363891236355],[128.35284976440516,0.79954495143840631],[128.35317312733798,0.79967904485209829],[128.35338235910865,0.79978439773179844],[128.35362012726716,0.79988018002632089],[128.35369620361701,0.79996636205800087],[128.35373421885913,0.80015785739925605],[128.35373416939649,0.80047381441505649],[128.35365804358389,0.8006940152166635],[128.35350580544866,0.80106739484443779],[128.353391623025,0.80136418460949699],[128.3533911796593,0.80136539599629941],[128.35332501563698,0.80154608868110699],[128.35322987276049,0.80173756333795154],[128.35317280358208,0.8017375543446974],[128.35303967064431,0.80158434134432355],[128.35293505610798,0.80151730318107184],[128.3527039294429,0.8016196307414134],[128.3526972573726,0.8016225850143428],[128.35257198540887,0.8017311403798999],[128.35235480363133,0.80191933880649913],[128.35207886464798,0.80214302627967982],[128.35201235258808,0.8021969433343088],[128.35175552509747,0.80234051919967442],[128.35159383688608,0.8023117696724853],[128.35138457633718,0.80238833255555164],[128.35110874437316,0.80241701193557446],[128.35104218464915,0.80229253317389748],[128.35099466986821,0.80202444077536938],[128.35077594485404,0.80180419320902274],[128.35050013627233,0.80167968117240207],[128.35018627737486,0.80159346136917975],[128.34985338972217,0.80154553559805208],[128.34917807440866,0.80163159801986694]]],[[[128.27629667135432,0.8036831512564504],[128.27646050444878,0.80383313299273595],[128.27650513780191,0.80414803960042036],[128.27650508474198,0.80444794461698166],[128.27656460367359,0.80482283600514393],[128.2765496614378,0.80509274683282683],[128.27644535986553,0.80524268000573329],[128.27617717034025,0.80555753175474365],[128.27599837162757,0.80579742321253889],[128.27584937374968,0.80599233507825829],[128.27565570294837,0.80609726617592514],[128.27549180959943,0.80629217534368536],[128.27537261255611,0.80644210581857578],[128.2752236299666,0.80654704590949677],[128.27498527095361,0.80665196981260578],[128.27477667680228,0.80690685027099107],[128.27459788078761,0.807131746433015],[128.27449359630248,0.80719170873044277],[128.2742701273645,0.80732662592311044],[128.27412113758055,0.80747655100208249],[128.27398703877088,0.80765646937061319],[128.2738432641554,0.80777221031928548],[128.27383805438274,0.80777640385798577],[128.27349541717979,0.80789630417115177],[128.27333154721316,0.80795625567668594],[128.27313787910987,0.80804619057926175],[128.2729441921208,0.80824109435104674],[128.27281011759294,0.80828605595678482],[128.27257177027104,0.80831600338092358],[128.27231851758563,0.80840592929024524],[128.27208017296164,0.80842088141861268],[128.27193121825121,0.80837586855153631],[128.27184187780051,0.80816592002122434],[128.27185679485524,0.80804596125216221],[128.2718121408177,0.80785101521223623],[128.27181218128715,0.80762608757390808],[128.27191649275198,0.80741617321785952],[128.27206550411984,0.80714628667186616],[128.2722442758527,0.80705634727263487],[128.27248793906722,0.8070275356922707],[128.27249751864565,0.80702640344583187],[128.27285503513178,0.80699647670610375],[128.27310830040778,0.8068465696135263],[128.27325730458097,0.80660667365913241],[128.27346588794046,0.80641177258530661],[128.27368936767027,0.80621687600807945],[128.27376389179028,0.8059769656644562],[128.27386823742927,0.80557211336241608],[128.27391297240581,0.80531720322642286],[128.27389812010222,0.80506228229853605],[128.2738832713959,0.80479236517555819],[128.27392800097653,0.80456744563116445],[128.27401739988318,0.80444749855325881],[128.27446432876582,0.80422265185393371],[128.27480696237149,0.80411774683659587],[128.27513468971426,0.80407281940512121],[128.27537303343877,0.80405786637749088],[128.27558160510705,0.80392294738618375],[128.27574549126143,0.80377302410585116],[128.27587957118533,0.80369807190851361],[128.27611792030586,0.80365312918860354],[128.27629667135432,0.8036831512564504]]],[[[128.29566553033999,0.79709600307813844],[128.29584615017973,0.79764177195028196],[128.29599828039636,0.79792902800227239],[128.29615040341844,0.79825458258295612],[128.29629303589491,0.79846524157767362],[128.29646421914845,0.79857058996083197],[128.29659734938821,0.79872380206188609],[128.29687315796991,0.79881959334960584],[128.2971775047381,0.7988866665864407],[128.2975389206847,0.79894417463401624],[128.29782424859025,0.79898252082671206],[128.29823322158597,0.7990400378674849],[128.29849953332689,0.79904965791541827],[128.29864218109185,0.79916457418579512],[128.29872776597369,0.79926033309794775],[128.29888944339314,0.79933695533628679],[128.29903209205747,0.79945187160666364],[128.29911767244266,0.79957635306629982],[128.29917472543332,0.79965295821750715],[128.29917470295027,0.79978699857116453],[128.29917467327266,0.79995933655419549],[128.29918415842224,0.80012210305267217],[128.29915560944391,0.80020826709790072],[128.29899391223933,0.80024653684824898],[128.29865149357158,0.80033264693418005],[128.29831858613386,0.80042833300120719],[128.29780490956898,0.80084951609234167],[128.297567050579,0.80130904357753252],[128.297281598567,0.80198877366302668],[128.29718643680462,0.80228556162938958],[128.29686291918847,0.80308975069146982],[128.29680577986289,0.80351101292296789],[128.29680571241374,0.80390356070080315],[128.29685322629541,0.80415250203640198],[128.29687221278243,0.80436314124602859],[128.29679607258072,0.80465035862721379],[128.29672943281719,0.80501417216635218],[128.29672936896532,0.80538757157921737],[128.2967293213012,0.80566522736842217],[128.29673878306846,0.80595246003804277],[128.29682432658149,0.80628757711002663],[128.29684328878682,0.80664183085588093],[128.29689080176911,0.80689077219142291],[128.29700483760325,0.80746525281921322],[128.2970142876793,0.80781950566569094],[128.29705229302897,0.80804929683762339],[128.29713787970945,0.80813548066794283],[128.2973851492053,0.80825999000660431],[128.29749926238117,0.80838447686215886],[128.29760385983036,0.80853768356729461],[128.29764186338139,0.80877704982106025],[128.29765134313504,0.80895896378518728],[128.29762277527095,0.80916002071842286],[128.29762274019731,0.80936108124893735],[128.29762270602316,0.80956214267877158],[128.29761316961219,0.80970575631562269],[128.29757507433033,0.81000255507387919],[128.29753700243077,0.81015573659800566],[128.29754648578171,0.81031850309648235],[128.29740378315807,0.81051953934530729],[128.29720401585269,0.81070141733658829],[128.2970042395541,0.81094074132221294],[128.29690908588566,0.81118008329423219],[128.29680443627581,0.81133325492584163],[128.29667126196921,0.81142897516713219],[128.2964905692844,0.81131405080287777],[128.29639550015224,0.81106510137340138],[128.29640503566395,0.81092148773649342],[128.29655725311477,0.81070130402201812],[128.29661434657487,0.81054812519585084],[128.29664291443896,0.81035664244512873],[128.29648125140864,0.81019385076564276],[128.29640517056225,0.81013639128150317],[128.29639568990922,0.80996405060051302],[128.29643377080197,0.80975342218272317],[128.29650037459271,0.80960981843844593],[128.29652894425544,0.80939918822201662],[128.2965289937182,0.80911195825029836],[128.29651953644748,0.80879600303313737],[128.29645302618633,0.80840344266476905],[128.29635796784601,0.80808747305849238],[128.29626289061991,0.80788639544084617],[128.29612024735161,0.80774275482434632],[128.29600613597449,0.80760869378622147],[128.29597763555955,0.80741720204230205],[128.29595864907242,0.80720656373199517],[128.29595869134062,0.80695762959095418],[128.29598727629184,0.80666083083269768],[128.29601586394108,0.80634488191083165],[128.29595888379549,0.80583743225173521],[128.29581632416409,0.80520550023368287],[128.29573081392596,0.80467889591437824],[128.29559770526998,0.80440121674280363],[128.29544558044927,0.80408523724395309],[128.29529344034006,0.80385542628692974],[128.29512226158317,0.80372135625560759],[128.2948940010574,0.80367344487365244],[128.29474182677393,0.80364469534646332],[128.29454209274343,0.80363508609042356],[128.29439943958255,0.80354889236753024],[128.29429483673744,0.80343398059375204],[128.29419973792767,0.80335737094594606],[128.29403805601157,0.8033094712551474],[128.29385735613209,0.80323284541952944],[128.29372421240259,0.80315622677846932],[128.29368618277113,0.80307005104208429],[128.29368621244885,0.80289771305905333],[128.29370525289517,0.80279239885015841],[128.29378136971445,0.80262964764017397],[128.29386698877056,0.80252434512249238],[128.29400969139419,0.80232330887366743],[128.29412386482454,0.80209354378206399],[128.29417147313507,0.80178717443857295],[128.29409544444923,0.80143290990093874],[128.29401941396486,0.80108822044508088],[128.29392435472528,0.80078182502126083],[128.29384829905985,0.80058075010157381],[128.29364860010287,0.80037008031501955],[128.29337279691708,0.80024556558043969],[128.29304943128625,0.80015934038129899],[128.29274509441063,0.80004439623195367],[128.2925739318415,0.7998145816776514],[128.29252639457752,0.79969968159508653],[128.2924883910265,0.79946031624064062],[128.29244086635299,0.79927839598121864],[128.29236480978818,0.79908689614336481],[128.29217465983277,0.7986560165619494],[128.29190840564843,0.79831129562984415],[128.29175626823724,0.79807190959098762],[128.29149948841075,0.79794739935306325],[128.29117616055146,0.79763139017654794],[128.29104304110353,0.79742073208115016],[128.2910145433865,0.79721009197220383],[128.29113821365775,0.79706649812044361],[128.29132844725007,0.79700908540104365],[128.29167086232053,0.79693254859830631],[128.29215594224297,0.79687518714024463],[128.29241274365324,0.79687523210634481],[128.29269810843107,0.79670294268669295],[128.29290737257725,0.79659766175274171],[128.29305005811375,0.79649236822825742],[128.29318323601763,0.79636792543948332],[128.29336398086309,0.79617646966840994],[128.29344010937359,0.79594669828156839],[128.29350672935209,0.79569777673106046],[128.29363039332804,0.7955924814079367],[128.29386816958038,0.79560209605995169],[128.29399182905968,0.79552552238499175],[128.29412499257444,0.79547767305621164],[128.29435326209341,0.79547771262639344],[128.29463858460304,0.79555435644846284],[128.29481928987843,0.79559268555402696],[128.29492390531402,0.79564057355366913],[128.29499997357004,0.79576505411398557],[128.29514262313364,0.79587039710116869],[128.29538038139958,0.79599490374187098],[128.29555156465301,0.79610025122565276],[128.29565616210232,0.79625345883010823],[128.29569416475397,0.79650239836701076],[128.29568460316193,0.79679920162192275],[128.29566553033999,0.79709600307813844]]],[[[128.27178214842752,0.80897564980642755],[128.27188639514111,0.80912562075081951],[128.27194594375032,0.80933556478453283],[128.27194588979103,0.80963546890183125],[128.27194583673099,0.80993537301907281],[128.27199045839302,0.81031026080995616],[128.27203513401423,0.81038524358416453],[128.2720946817243,0.81059518941651731],[128.27207974578369,0.81082011255818998],[128.27204991796941,0.81101504600763974],[128.27206479005804,0.81115000456912867],[128.2720796315698,0.81144991228364916],[128.27210938833764,0.8116598509214441],[128.27212426042638,0.81179481038225276],[128.27212422715138,0.81198316259292369],[128.27212421995682,0.81201973802052407],[128.27207950386605,0.81216968198526729],[128.27193052757184,0.81224463058526908],[128.27169218564586,0.81224458831712809],[128.27152833996104,0.81216958216054991],[128.27142408425414,0.81206459710352874],[128.27129004659844,0.81189962456807052],[128.27111131533502,0.81176463632897367],[128.27090278503556,0.81165963058754187],[128.27061976568973,0.8115995999416441],[128.27054531441479,0.81143463909734237],[128.27047087483106,0.81119470267344695],[128.2703964334487,0.81096976064600312],[128.2702772867674,0.8108347822994233],[128.27011345996823,0.81065480997153827],[128.2700539176542,0.81041487624560204],[128.27012842288843,0.81027993297254852],[128.27030720811126,0.81011501799372354],[128.27047107088333,0.81010005327487988],[128.27062005527137,0.80998011788818758],[128.27069455870696,0.80986016991096221],[128.27075419724849,0.8095602765855574],[128.27078402776078,0.80935034963897579],[128.27087342396942,0.80924539965553777],[128.27097841262366,0.80919610331756076],[128.27132035105342,0.80903554735266425],[128.27164809458395,0.80890064994508748],[128.27178214842752,0.80897564980642755]]],[[[128.44915626205193,0.81261362961538453],[128.44925777572587,0.81262897204948104],[128.44934913515453,0.81265964072986208],[128.44943034303594,0.81268519856308785],[128.4494709456277,0.81271075189971498],[128.4494709366345,0.81277717492673673],[128.44941510402384,0.81277716683285917],[128.44930343970202,0.81275671355155055],[128.44916132343644,0.81272603767655482],[128.449034432693,0.81269536360019856],[128.44896845213248,0.81266469941641617],[128.44897861177355,0.8126084953858026],[128.44904967530238,0.81258806728550326],[128.44915626205193,0.81261362961538453]]],[[[128.31982620381632,0.82229713640379032],[128.31995266738181,0.82239618413666449],[128.32002291342678,0.82252351644717692],[128.32000180813702,0.82266497710708109],[128.31995963442967,0.82274984972582388],[128.32000880216458,0.82285595713676685],[128.32019148414975,0.82292672119126564],[128.32031794321858,0.82304698842784774],[128.32033197983708,0.82314601727495074],[128.32028979983443,0.82326625573318779],[128.32018439119679,0.82331575082127983],[128.32011412356803,0.82332281139866836],[128.32000170021831,0.82330157210992638],[128.31989630956707,0.82324496788100987],[128.3197909198152,0.82318836365209336],[128.31964337793966,0.82308223915407552],[128.3195731193041,0.82303271438831871],[128.31947476944515,0.82289830531260577],[128.31946074181985,0.8227426902230377],[128.31946077509474,0.82254463882406981],[128.31935539433607,0.82243144835268822],[128.31936243962491,0.82232534993499939],[128.3195100075809,0.82227586204146519],[128.31965054193904,0.82226881315523315],[128.31982620381632,0.82229713640379032]]],[[[128.44201174644502,0.83860605932221688],[128.4421121431609,0.8386517179025077],[128.44215100556448,0.83867128535160873],[128.44219310732615,0.83870063472653555],[128.44221577383894,0.83873976243012294],[128.44218337756092,0.83878540122532286],[128.44196313539044,0.83880819184463462],[128.44180443112964,0.83881468944639437],[128.44172346156859,0.83880163668624164],[128.44166840597222,0.83877228641193824],[128.441655464728,0.83867773528930911],[128.44169110216274,0.83860275341436363],[128.4417753128804,0.83859624502076713],[128.44185952269891,0.83859625671192362],[128.44192106240712,0.83858648467855801],[128.44201174644502,0.83860605932221688]]],[[[128.32610617416071,0.83773768564572038],[128.32583983993675,0.83783338340396085],[128.32547837632603,0.83802480859810657],[128.32454614988501,0.83869485568311575],[128.32415611301428,0.83911606125724347],[128.32363286406553,0.83984362358438602],[128.32325228986133,0.84054248944437404],[128.32295731942486,0.84123179461170139],[128.32282408306503,0.8416817685987894],[128.32264327526696,0.84221790303382704],[128.3225005195834,0.84270617195232944],[128.3222626821771,0.84302208580066917],[128.32192025721417,0.84311777006905686],[128.32164440726365,0.84324218857619826],[128.32136856180978,0.84333788543511901],[128.32118783584997,0.8433952990538387],[128.32086443064907,0.84351013438526934],[128.32060759866181,0.84365370575397947],[128.32031273614393,0.84372067466944145],[128.32005592933774,0.84372062970334127],[128.31978962029484,0.84367271022745172],[128.31978015043364,0.84343334936960446],[128.31997042089824,0.84318444940288373],[128.32009410555861,0.84296425759447402],[128.32017024486095,0.84268661529512201],[128.32027491785323,0.84240897569372919],[128.32022739767638,0.8421983310881842],[128.32002769422274,0.8419972336854471],[128.31987553073122,0.84189188889962452],[128.31966631514842,0.84170036388076142],[128.31942861803634,0.84120245333059529],[128.31953327214285,0.84103013333401577],[128.31930506018045,0.84068541509986972],[128.31926709619961,0.84021626307014685],[128.31924812590034,0.83990987933748329],[128.31919107830572,0.83979497655695923],[128.31921963897526,0.83964179143555384],[128.31929573780815,0.83959393221425671],[128.31942892110794,0.83945034016113595],[128.31944796874882,0.83930672742360457],[128.3194480146143,0.83903864401827377],[128.31943855824295,0.83872268790179305],[128.31939104256264,0.83848331984938795],[128.31932448823466,0.83833969182336432],[128.3193625601341,0.83818650939991812],[128.319410136069,0.8380716246058455],[128.31942921878351,0.83772695043847989],[128.31941974712367,0.83749716196450663],[128.31936271571681,0.83728651556026534],[128.3194198181701,0.83708546312368526],[128.31951496644263,0.83688441788160617],[128.31963863311648,0.83676954657738634],[128.31965768705265,0.83658763621048138],[128.31969576165011,0.8364153054220651],[128.31977191534168,0.83605149008423041],[128.32013344280415,0.83548666457795662],[128.32023812658838,0.83514200390038695],[128.32038083280929,0.83493139256978566],[128.3205521095922,0.83450057414222556],[128.32068529289199,0.8343569820891048],[128.32076142140249,0.83413678398545699],[128.32077097759861,0.83387827656127911],[128.32079004232662,0.83362934601757388],[128.32079958863017,0.83342828458773965],[128.320799632697,0.8331697762641852],[128.32065702360285,0.83281549913601793],[128.32052388796717,0.83268143539999073],[128.32042883502277,0.83232716456706157],[128.32060962843173,0.83187719957317086],[128.32088557011298,0.83120704007291124],[128.32105685678857,0.83071877565100749],[128.32107593140915,0.83042197239615234],[128.32106645255476,0.83022090916767866],[128.3211520976912,0.82997198941581019],[128.32122823069835,0.8297230678653591],[128.32135192255328,0.82945500604375866],[128.32142803487602,0.82933055156377122],[128.32157074019756,0.82911994023311308],[128.32166589296662,0.82889017244355045],[128.32178007269226,0.82863168210650429],[128.32183716165571,0.82850722492855766],[128.32192278970501,0.82835404880034957],[128.32197988856103,0.8281721456280593],[128.32201796765514,0.82797108959414345],[128.3220084932974,0.82775087710132311],[128.32189439091349,0.82755936916959172],[128.32180882581667,0.82733914318697543],[128.32168521040421,0.82715720943770066],[128.32167573424783,0.82694657022807405],[128.32164723922881,0.82671677995546133],[128.32166631384939,0.82641040341741245],[128.32178049177639,0.82616148726287975],[128.32189465711281,0.82598916816561996],[128.32203734444795,0.82588387374181593],[128.32219905424301,0.8257785838146674],[128.32246538576896,0.82569245933956381],[128.3227065776465,0.82560792666453153],[128.32272769013082,0.82541695203076415],[128.32279095743684,0.82526135043104887],[128.32288935855706,0.82509160879078536],[128.32300883798757,0.8249360170835871],[128.32314237292223,0.82477335400710672],[128.32331805728256,0.82466728436770609],[128.32345157692885,0.82458950110464002],[128.32371860722799,0.82449052082091612],[128.32394346381989,0.82447641315599185],[128.32419643231958,0.82442694324885224],[128.32437912060004,0.82445526739672914],[128.32453370056987,0.82449066021587214],[128.32472341075686,0.82455435200176908],[128.32509580832493,0.82465344200278423],[128.32531362232589,0.82473128641976245],[128.32558062834335,0.82477377039322164],[128.32579142403506,0.82480209993701692],[128.32599519332359,0.8248304276821159],[128.32648003492568,0.82482343725189367],[128.32671891734424,0.82497201694508249],[128.32692265515652,0.82518425065268275],[128.32716150609872,0.82551673540905313],[128.32725983437388,0.82578553737272387],[128.32745651700475,0.82616752890839962],[128.3277656355757,0.82650002625524621],[128.32820124379248,0.82677595894341493],[128.32874931043239,0.82686093138693195],[128.32920602843558,0.82696003577706279],[128.32969785866931,0.82718646438388532],[128.32996480173426,0.82761090841671603],[128.33046392996641,0.82849912743284904],[128.33086328831018,0.82919812729176101],[128.33103444997994,0.82944709111040993],[128.33115806809042,0.82961945157649097],[128.33128168530163,0.82980138712434837],[128.33139578408827,0.83002161760362014],[128.33150038243673,0.83018440028990881],[128.331643039195,0.83026102072955155],[128.33182374267165,0.83032807238265605],[128.3319663994298,0.83041426610554936],[128.33208051440431,0.83053875296110391],[128.33210901661789,0.83072067142188644],[128.33213750444236,0.83099833440564908],[128.33214697700146,0.8312281219803026],[128.3321659598912,0.83146748643537194],[128.33221348096743,0.83167813104097377],[128.33210879808257,0.83202279261780632],[128.33199464893391,0.83209936809140572],[128.33188999572678,0.8322716898866247],[128.33184241169795,0.83243444739190409],[128.33169970457777,0.83264505962182511],[128.33149043143828,0.83279821506562257],[128.33133822837658,0.83292265605575722],[128.3311859794494,0.83332475643243242],[128.33102420400382,0.83381302355223852],[128.33085293171746,0.83421511943225823],[128.33055797207282,0.83485655458639485],[128.33031060994676,0.83524906279404831],[128.32999667640559,0.83560326258054829],[128.32987295757096,0.83601494163627876],[128.32976829806853,0.83622556016149474],[128.32953050742708,0.83627339240319998],[128.32920711391728,0.8363116333752032],[128.32895029631914,0.8363786103845996],[128.32866492884341,0.83654132742037746],[128.32843662694881,0.83671362583322662],[128.32812271229341,0.83695293273171956],[128.32792294588728,0.83711566325729336],[128.32778024326365,0.83730712622292458],[128.32759950201546,0.83746028616332069],[128.32741876976047,0.83755599831073368],[128.3270573259349,0.83763253241551183],[128.32673393872039,0.83764204994071179],[128.32631543920627,0.8376419770955863],[128.32610617416071,0.83773768564572038]]],[[[128.36034993040505,0.91353177517135009],[128.36019773903445,0.91356047163850462],[128.35995043536434,0.91357000175423764],[128.35971264022623,0.91359868203358019],[128.3595128864107,0.91365609295439754],[128.35913241293053,0.91371347060021435],[128.3588565845638,0.91366554932568533],[128.35855222340649,0.91361762265518109],[128.35812420906507,0.91356967440100334],[128.35762962330853,0.91347383994582287],[128.35711599260901,0.9135024707624666],[128.35691625857851,0.91344498789590034],[128.35650728918006,0.91328214855235501],[128.35595563424522,0.91318630420460067],[128.35549910240172,0.91305217931466132],[128.35513766667009,0.91302339111666697],[128.35483330821069,0.91295631518187292],[128.35458602522499,0.9128509524095989],[128.35431020675071,0.91275515662522366],[128.35411998035283,0.91272639900415697],[128.35383466863516,0.91252528361496843],[128.35389174680677,0.91247742169571211],[128.35421514031657,0.91247748015160823],[128.35465266139124,0.91254458036814867],[128.35499505577729,0.91266911039116394],[128.35528989491274,0.91278405723852529],[128.35587008983282,0.91285118263601817],[128.35669755155084,0.91310984294494801],[128.35797206086193,0.913359008211728],[128.35884710840742,0.91347405758176592],[128.35961755040967,0.91345504771231845],[128.35987437520237,0.91338807340093808],[128.36015023144807,0.91327322907631014],[128.36074947041175,0.91322546338449229],[128.36078750184186,0.91331164091951678],[128.36054970130772,0.91336904464571944],[128.36041652700123,0.91343604233952647],[128.36034993040505,0.91353177517135009]]],[[[128.33057279919535,1.0437870037672496],[128.32793289508709,1.0454380214475805],[128.32507920144405,1.0460118689526325],[128.32382428026642,1.0469984414249893],[128.3232770383047,1.0484344797674794],[128.32294387366085,1.0495833349030477],[128.32223036683797,1.0501097701498452],[128.32161198040865,1.0506362251816768],[128.32004300607991,1.0483619674308784],[128.3201388360385,1.0450588259041638],[128.32082930043191,1.0410856067153986],[128.31952227703152,1.0370640831409901],[128.3168829143151,1.0362257531160708],[128.31476659730072,1.0358981687655273],[128.31236438580777,1.0380678353623694],[128.30488312715465,1.0375736102339488],[128.3012590292808,1.0393419642603021],[128.29949125082067,1.0400775971034477],[128.29631050702437,1.0410941583687645],[128.29397326795197,1.0415557929655392],[128.29058220420541,1.0419954463328054],[128.28707257384031,1.0409701958179198],[128.28569444014636,1.0403333373137116],[128.28432375463763,1.0397869029432627],[128.28188912798089,1.0380438243630579],[128.28017745642455,1.0360519771170971],[128.28052028608238,1.0342520865646065],[128.28244873022481,1.030459647294947],[128.28308977687175,1.0283931958893504],[128.28316639641218,1.0260379326045381],[128.28318577320488,1.0244486030206872],[128.28325992410623,1.0215619474259938],[128.28154836676379,1.0190483072336178],[128.27947977317308,1.0181143477989849],[128.27684044463092,1.0173238742974036],[128.27619893123574,1.0149540905588879],[128.27470118770975,1.0133739961131027],[128.27284680723437,1.0115783980247102],[128.27173517503832,1.0081610848662308],[128.27087944223251,1.0067247497474341],[128.26967380030567,1.0047560060848468],[128.26582135107458,1.0057604363950645],[128.26178052984767,1.0069529500186718],[128.25615931290201,1.0062048732563653],[128.25284971873964,1.0041935197152156],[128.24708643589042,1.000860357019917],[128.24371977524754,0.9989064350839385],[128.23907130639577,0.99957890134527361],[128.23549687088394,1.0015570537150893],[128.23191567606762,1.0028921206748578],[128.21646610572623,0.97422578439250174],[128.21561524184995,0.97391967585241446],[128.20398337992913,0.96973496309811935],[128.20359813284756,0.96976608593615765],[128.20331286789462,0.96943092389807362],[128.20333670802268,0.96916764107385234],[128.20325688419791,0.96872570432782368],[128.20307530658022,0.96847345528578899],[128.20269492842829,0.96813826986533513],[128.20207670297748,0.96806631690702716],[128.20169626277232,0.96799442060608953],[128.20107799415416,0.96811395129788025],[128.20060237779751,0.96830532073403219],[128.20034071285363,0.968736095094755],[128.20015036684606,0.96923869111276417],[128.19972225807578,0.96964549044707837],[128.19915147815823,0.9700522538084897],[128.19839045835306,0.97050684401568788],[128.19789101266019,0.97091362536355064],[128.1976293360251,0.97139226793888156],[128.19734388671111,0.97184697056127334],[128.19653535392354,0.97211006542721634],[128.19591713027137,0.97203811067032575],[128.19511356533883,0.9720049014051142],[128.19472818066106,0.97213356741025336],[128.1944427484342,0.97251646276458814],[128.19403839435643,0.97301900662188245],[128.19363406186255,0.97342580865421269],[128.19314652858952,0.97373685087501372],[128.19269149771446,0.97382581720773942],[128.19243312159131,0.97395209641217662],[128.19197150857838,0.97429132608385771],[128.19150562288621,0.97452631893452235],[128.19110139921031,0.97447834999587712],[128.19072100037397,0.97423890640044419],[128.1905070849341,0.97385588963766168],[128.19022180019601,0.97361646762590226],[128.18979379304915,0.97359242964694204],[128.18908038605105,0.97380767428478521],[128.18855719106159,0.97409477115678555],[128.18831929699797,0.97454948277243147],[128.18793868592172,0.9751956420652732],[128.18753443976266,0.97524341405238602],[128.1870171551177,0.97516316484825438],[128.18648815770234,0.97536283592620521],[128.18617906611109,0.97524308490051226],[128.18589381015124,0.97488398740614457],[128.18541828102889,0.9747163240991199],[128.18480010414157,0.97445288569218746],[128.18418194434128,0.97411764271510037],[128.18349245481295,0.97375844629533503],[128.18294563103609,0.97342322040532281],[128.18261272090047,0.9734710085802476],[128.18227980536881,0.97354273311071893],[128.18199449275176,0.97342298838026409],[128.18170922600007,0.9731117599997674],[128.18120999974178,0.97260899940584977],[128.18066317686419,0.97227377261657466],[128.18018758478922,0.97236939663036992],[128.17994973659108,0.97263262639461345],[128.17980693324341,0.9731831014190675],[128.17968790167538,0.97375751639629016],[128.17904581541211,0.97404458089272339],[128.17868895273307,0.97481042016482888],[128.17814181689141,0.97576769272490083],[128.17757109902709,0.97591116426883673],[128.17681014217442,0.97610245816196084],[128.17657227059385,0.97646142705326611],[128.17609673067966,0.97634163375943217],[128.17569263111011,0.97579102473605417],[128.17506387369883,0.97445048809959189],[128.17185396398929,0.97373164110240396],[128.17007595394216,0.97327939902510252],[128.16850170419036,0.97172025878296608],[128.16686119059159,0.97092999392413049],[128.16514902710594,0.97143220593159185],[128.16265251540131,0.97056992066535486],[128.15979909964881,0.97064101387172741],[128.15744533283589,0.96949154090191314],[128.15411441215042,0.96900564889165253],[128.15303280292153,0.96884787183188337],[128.14951343289863,0.96961290531135091],[128.14665997487805,0.96989940233561356],[128.14589938404936,0.96865458863840104],[128.14190560995598,0.96482398034248718],[128.14139789409762,0.96487370925433424],[128.13800589865332,0.96520594579783392],[128.13864864411971,0.96606393859991613],[128.13772007881869,0.96712066808441932],[128.13636595792264,0.96692339729702326],[128.13385494465001,0.96617760031602984],[128.13277079663499,0.96685231668112692],[128.13269347472419,0.96702582468213905],[128.13268156590163,0.9671036106431643],[128.13267687503776,0.96722244076306652],[128.1326506633975,0.96744502926475207],[128.13255788483855,0.96761254868022206],[128.13239615885573,0.96775133025971627],[128.13220120472192,0.96764835968411944],[128.13209424925026,0.96746881993016132],[128.13195756578909,0.96730722434898553],[128.13174953011674,0.96721741535151295],[128.1315355238454,0.96722932687197272],[128.13116696458383,0.96722324925360681],[128.13103026943145,0.96711550597586893],[128.1309738279798,0.96698863681621106],[128.13093107510906,0.96680193396213099],[128.13081699071165,0.9666008509485664],[128.13063635558342,0.96629156600300803],[128.13051275905661,0.96610005537331745],[128.13031780941947,0.9659803304279535],[128.13016087232643,0.96598507704970871],[128.12993259201562,0.96602810061637001],[128.12978990468036,0.96609986921362179],[128.12958540784041,0.96612375071055112],[128.12947608355444,0.96590352202997565],[128.12951417703766,0.96571683896098648],[128.12959507195512,0.96552059430001691],[128.12958086086815,0.96530038990113098],[128.12944973431786,0.96514309307934809],[128.12935274243523,0.96471153271113508],[128.12906272186717,0.96442423888754547],[128.12886300672244,0.96434280887359591],[128.1287060759247,0.96432840802964392],[128.12847542500094,0.96434270994814142],[128.1282735361948,0.96443075087847774],[128.1280777960535,0.96457844473945897],[128.12773533781569,0.9647889841243682],[128.12741192182284,0.96496131131550555],[128.12710754357829,0.96499944886551248],[128.12655878895703,0.96483048603812449],[128.12598335774578,0.96483991183248463],[128.1258074323672,0.96471540519183918],[128.12555554395328,0.96409303296712778],[128.12549096093915,0.9637256958841931],[128.12533229085261,0.96306984010107044],[128.1253228155955,0.9629281429195089],[128.12526232000016,0.96273283535214205],[128.12525829823198,0.96230869259215979],[128.1250538256736,0.96223204787077066],[128.1248873818472,0.96222243142011621],[128.12470183102471,0.96254789786723904],[128.12457339434673,0.9626866857420282],[128.12432607718677,0.96278714900779505],[128.12358892718726,0.96291141912672629],[128.12312705786746,0.96313031771006763],[128.12271374384432,0.96350477742356588],[128.12227093205797,0.96358964464644714],[128.12174360108634,0.96350452471409653],[128.12143928579451,0.96333211568463639],[128.12107787524383,0.96327457795945293],[128.12069744672988,0.96319788827196362],[128.12037405591798,0.96323609956641576],[128.12020283039635,0.96333179372732047],[128.12009698378881,0.96346460470778084],[128.12002563787291,0.9635124558352004],[128.11994834114307,0.96358424062026415],[128.11988888156668,0.96363807943384927],[128.11979375577732,0.9636919065562779],[128.11969268996575,0.96372778321068608],[128.11950839909343,0.96377560466049772],[128.11928843841076,0.96382940120594185],[128.11909821021425,0.9638473031105832],[128.1189328060043,0.96386754864852264],[128.11873808029827,0.96381081671586344],[128.11819572075592,0.96351871241870413],[128.11788920122569,0.96345021825300137],[128.11756581491045,0.96346928208174631],[128.11655763892395,0.96343072274970609],[128.11640055434214,0.9632459849142947],[128.11640322982521,0.96303796363116589],[128.11644821031666,0.96285705690769419],[128.11642746025916,0.96263864665627352],[128.11615692710052,0.96286894864311989],[128.11600607931712,0.9630859181806386],[128.11590717457648,0.96318901106405974],[128.11549238116856,0.96344959322419754],[128.11518798763564,0.96358354814225322],[128.11476947103438,0.9636791775520237],[128.11452214578048,0.96381314775862847],[128.11436992203437,0.96398543807754322],[128.11397657206123,0.96392302512754213],[128.11263875317593,0.96450197628524847],[128.11210609192267,0.96463587094871173],[128.1114355520092,0.96464048177284667],[128.10744224556322,0.96644836190245087],[128.10375647937803,0.96716542644333003],[128.10066740257867,0.96588410386834767],[128.09971467609148,0.96548892107688289],[128.09698743792001,0.96140927881521066],[128.09693784300714,0.96133509104168979],[128.09638231559143,0.96042031324691379],[128.09244578064829,0.95393808807233427],[128.09202053891681,0.95281556958292413],[128.08928961172626,0.94560668679918081],[128.08756260403106,0.94190964491423301],[128.08321449435346,0.93733148236208308],[128.08285592566051,0.93695394336981508],[128.08110915176599,0.93357870769125384],[128.0805467841069,0.93263897011240715],[128.07954051468312,0.9309574609181368],[128.07897688257708,0.930358273215802],[128.08082585992554,0.92908213613173984],[128.08242624397599,0.92719118472541595],[128.08314038032438,0.92403200487319737],[128.08371170163377,0.92144721841447108],[128.08498995482262,0.91723559704519175],[128.0973283106531,0.91163320470866438],[128.11592063113233,0.90326638003944026],[128.13246492821395,0.90050864585737145],[128.13694596938103,0.90125139863317827],[128.13996550520392,0.90406111632751163],[128.14659518501981,0.89740968460932891],[128.1580679271932,0.89753203737365084],[128.16670707557114,0.8975819398546605],[128.17720984855578,0.89418549456496521],[128.17749479155145,0.88827839483212756],[128.18337393855643,0.88253525319942128],[128.18685534190058,0.88104246134054165],[128.19240587932791,0.88077365218236991],[128.19865255227353,0.87526033679517923],[128.20784316493018,0.87268417483483063],[128.21477168676404,0.88087499588442597],[128.23686173957765,0.87157938198294005],[128.24650705305817,0.86633802158246453],[128.24666666383553,0.86625000043721911],[128.24672701913664,0.86618960376722498],[128.24694082665792,0.86625114167691208],[128.24724516803019,0.86634694555516489],[128.24758755702021,0.86642360826294862],[128.24789192087553,0.86640452015251412],[128.24831042038966,0.86638545632382602],[128.24907141771178,0.86588774722179096],[128.24929969532479,0.86584949455857441],[128.2499654301605,0.86611770656696763],[128.25028879758997,0.8661943647781527],[128.2503958771681,0.86579705509006999],[128.25082395356264,0.86543810598385562],[128.25252767960876,0.8650471446100596],[128.2562137353757,0.86277398673013295],[128.25906782921697,0.85906451981179544],[128.25917815264972,0.85597323787465029],[128.25846504422645,0.85475238031813205],[128.25825133023477,0.85324439171535005],[128.25803753260607,0.85216724582176084],[128.25810910065456,0.85094654114999457],[128.25868007572501,0.84936689816385069],[128.26024951230522,0.84893635942552237],[128.26146241176093,0.84778767875843641],[128.26296062113579,0.84678266838545824],[128.2641022529167,0.8452749378881208],[128.26667062315084,0.84348024901430563],[128.26945289983155,0.84218824609075682],[128.27187817263962,0.8426913538229428],[128.27330481936201,0.84290704272586936],[128.2750167382319,0.8434818228279255],[128.27678549695315,0.84339001373820111],[128.27880710096701,0.84087713527162578],[128.27987737963747,0.83944118776065579],[128.27975881841485,0.83764598177668859],[128.28035379369271,0.83477379897169612],[128.28296990533693,0.83190198398943949],[128.28415900423477,0.83082509080531963],[128.28808266987937,0.82926997592869611],[128.29069836963413,0.82867205177382175],[128.2941464306133,0.82735619972885388],[128.29591738817703,0.82488796810531539],[128.29795068157875,0.82338036980826246],[128.29912786176146,0.82244707856989407],[128.30080420794786,0.82251918171493799],[128.30265884113271,0.82287854810653016],[128.30404998082201,0.82219661917866915],[128.30551238728685,0.82190964371511654],[128.30815170683582,0.82223323957236971],[128.31079089418449,0.82334672077456617],[128.31333330908501,0.8232250568909194],[128.3133067718901,0.82332802027195839],[128.31329546381471,0.82344164961250499],[128.3132823301155,0.82357363321665389],[128.31327818873751,0.82361524664634089],[128.31328285621885,0.82372609798107987],[128.31328774403426,0.82384218516875762],[128.31329713475498,0.82406524581449503],[128.31342008017259,0.82447445533188102],[128.31346303539078,0.82461742775211633],[128.31349943005466,0.8247385637337743],[128.31354392761023,0.82488667128291127],[128.31356284844674,0.82548028588655598],[128.31345817365582,0.82577707385291887],[128.31352462276323,0.82653346125027838],[128.31348648881044,0.82705047160203549],[128.31327716620831,0.82748128193566117],[128.31308689214643,0.82775890534924201],[128.31280152556997,0.82792162058638041],[128.31264927574352,0.82832371826503959],[128.31220221825788,0.82847682964199976],[128.31127002599101,0.82897453424737932],[128.31089688378427,0.8293042293067856],[128.31088000440877,0.8293191436636107],[128.31067069259848,0.82968293292105955],[128.31064208696284,0.83009462636596254],[128.31062303662395,0.83025738656920112],[128.31048032410774,0.83050629642849572],[128.31029004824723,0.83079349402459002],[128.31011880024255,0.83105197177110313],[128.31000463040948,0.8312530134159033],[128.30998556658074,0.8314827955945816],[128.3099950373412,0.83172215555310913],[128.30996644699394,0.83204767955680836],[128.30950034366595,0.83233482858952357],[128.30924351527608,0.8324688248764005],[128.3091674281344,0.83244966302157763],[128.30913892142416,0.83229646800765522],[128.30920553510737,0.83209541736965775],[128.30925314431727,0.83178904622752725],[128.30929125308887,0.83142522639315075],[128.30931982814764,0.83118587272991817],[128.30929136280622,0.83079331865678796],[128.30915825415013,0.83050606440338015],[128.30894903137278,0.83036241119634724],[128.30864468010793,0.83030491124270611],[128.30841644206521,0.83011338442520355],[128.30818819323065,0.82998887688518153],[128.30782678088133,0.8298930694096498],[128.30759851675816,0.82985473221015127],[128.30734171444863,0.8298451121622179],[128.30708490944107,0.82984506719611772],[128.30679005141985,0.8298928868472899],[128.30652372169243,0.82996943444192084],[128.30633349889195,0.82995025280195023],[128.30612427431583,0.82981617467675051],[128.305800908685,0.82971079931400027],[128.30536340829474,0.82960540416610229],[128.30512562934439,0.82958621443231095],[128.30487832297626,0.82966276472484424],[128.30463101930616,0.82972016665240744],[128.3044563970451,0.82969720696058857],[128.30441226641301,0.82969140543406183],[128.30421253508052,0.82965307183184223],[128.30392716670542,0.82982536035217436],[128.30361324125818,0.83013168383018865],[128.30343247303028,0.83043803158994933],[128.30328025198207,0.83066778858761836],[128.30319620673959,0.83070681826507098],[128.30303293931877,0.83078263740884495],[128.30277612262,0.83084961261960188],[128.30273220962385,0.83086433901809187],[128.30257637420038,0.83091659772287585],[128.30246223404492,0.83094529958594876],[128.30218641197337,0.83091652757570955],[128.30208181002763,0.83079204341811419],[128.30185356658887,0.83062923824877544],[128.30170139770144,0.83057176527478305],[128.3015777813896,0.83039940480875885],[128.30149223517856,0.83008343610174506],[128.30150181205909,0.82971003758819961],[128.30139726856919,0.82925044984841634],[128.30118807726797,0.82892488357657612],[128.30092179070812,0.82876207301131899],[128.30070307288861,0.82852267528130596],[128.30054140356299,0.828398180331817],[128.30023704960024,0.82835982874314595],[128.29974246204506,0.82836931479209852],[128.29914321228944,0.8285989926494608],[128.29872467410451,0.82883827706490365],[128.29842025359187,0.8291828990715544],[128.29820145393398,0.82941264437806694],[128.29803021582188,0.82961367523097351],[128.29784946917778,0.8297955559202137],[128.29770676295686,0.83000616635155211],[128.29757356796586,0.83021677768221025],[128.29750695158464,0.83042740160334461],[128.29747837742525,0.83066675526657718],[128.29742127317331,0.83086780680389438],[128.29730710873616,0.83103054992000125],[128.29716439981723,0.83126030871630974],[128.29707875917745,0.83148050322267864],[128.29694557407902,0.83163366855899312],[128.29645097843002,0.83169102641977588],[128.29603244833891,0.83188243812406881],[128.29571856336111,0.83195897672544561],[128.2955663423129,0.83218873372311464],[128.29554728927599,0.83236106810886668],[128.29532845184667,0.83280144902767006],[128.29516670787734,0.83309822440355674],[128.29502401334764,0.83324181375871831],[128.29494788663567,0.83344286079943686],[128.29490028282191,0.83371093431219379],[128.29491923873195,0.83408433732233789],[128.29504283256074,0.8343811639596197],[128.29511889092419,0.83456309141359952],[128.29536614782955,0.83476419601089447],[128.29565146404389,0.83488871344343352],[128.29595578563101,0.8351089789962316],[128.29592721956556,0.83529088576580079],[128.29596524919691,0.8353770624015624],[128.29631714581967,0.83549201734280132],[128.29657392834417,0.83561653027868488],[128.29672608104386,0.83576974777571422],[128.29686870632577,0.83601870619838792],[128.2970493684337,0.83631554362750649],[128.29754393710311,0.83641137628404749],[128.29769610419191,0.83648799942170626],[128.29788630720736,0.83661249886779387],[128.29809553538075,0.83672742862796667],[128.29849499444845,0.83681367001491935],[128.29874227743426,0.83687116097536318],[128.29900855590017,0.83708184425177024],[128.29920826744763,0.83722549566016369],[128.29935087024649,0.83759892115335788],[128.29947445778009,0.83793404541989958],[128.29979781261898,0.83809686767637004],[128.30004506682644,0.83831712243727452],[128.3001877118935,0.83845118887131775],[128.30028279541477,0.83862354394142358],[128.30042543328716,0.83879590800478354],[128.30054906488749,0.83888209992903739],[128.30079634967183,0.83893001580764803],[128.30097706124241,0.8389491974475618],[128.30112923642514,0.83897794787407065],[128.3013099425998,0.83902585206146796],[128.30145259216351,0.83914077013048427],[128.30150963076494,0.83930354382351879],[128.30153813028051,0.83949503556749505],[128.301547606437,0.83969609969528847],[128.30153806822727,0.83984928841397277],[128.30152853091704,0.83999290115150416],[128.30143337005404,0.84026096567106379],[128.30125259822887,0.84058646179585139],[128.30108131604993,0.84102685080858919],[128.30103370684014,0.84132364776814939],[128.30099561785357,0.84157257381525596],[128.30092902665331,0.84163958230095659],[128.30071024767983,0.84174486143626837],[128.30040585864356,0.84189799529627862],[128.30020609403607,0.84205114894143662],[128.29998730337138,0.84222344735428578],[128.29980656302257,0.8423670304141524],[128.29962581637835,0.84254891020407285],[128.29944504185528,0.84288397961199735],[128.29934989268349,0.84308502395475671],[128.29922621162041,0.84327648871902738],[128.29907400676007,0.84341050209303603],[128.29889327000842,0.84353493588861284],[128.29867447214929,0.84374553193077872],[128.29846519091586,0.8439274063247808],[128.298258954787,0.84405511005530798],[128.29821786925936,0.84408055097668466],[128.29810372190934,0.84414755136845088],[128.29792300044619,0.84418581572288076],[128.29766619543864,0.84418576895814113],[128.29746647219997,0.84410913772654794],[128.29723822606331,0.84396548092223611],[128.29708605088058,0.84393672959646437],[128.29689582358344,0.84393669542220096],[128.29666756395693,0.84387920805903605],[128.296448822755,0.84377385068273725],[128.29623007255987,0.84371636421889207],[128.29605887221919,0.84370675856013122],[128.29583058921037,0.84377373826742996],[128.2956403718058,0.84372583138207347],[128.29539309331665,0.84363961697476952],[128.29509900061839,0.84364911291629596],[128.29509824159061,0.84364913809730524],[128.29509693487569,0.84364942408171828],[128.29487947340908,0.8436969694396339],[128.29454281399978,0.84373257989471995],[128.29451803767734,0.84373520141843983],[128.29429927219371,0.84376388439579841],[128.29412805656466,0.8438308730963513],[128.29370952917145,0.84400313463697785],[128.29346221291087,0.84412755584207844],[128.29319589217675,0.84415623072550261],[128.29284397397032,0.84415616597431153],[128.29253960921562,0.84417525858134468],[128.29208301082235,0.84449112836290396],[128.29139806107173,0.84524737456672483],[128.29092231701134,0.84623344431804526],[128.29078906716177,0.84674085980287828],[128.29071290897366,0.84711424482657094],[128.29069384964146,0.84731530175980652],[128.29074137611371,0.84747807455352131],[128.29082694660633,0.84765042782504452],[128.29084594478456,0.84778447267530055],[128.2907317749515,0.8479759383389478],[128.29050347575492,0.84812908478949112],[128.29027517296095,0.84830138140370082],[128.29008490879153,0.84851198104314562],[128.28987563385351,0.84865555780777413],[128.28959978210435,0.84878954690009323],[128.2893429618083,0.84887566867723763],[128.2889434487812,0.84908622964582037],[128.28813487012826,0.84973713466109757],[128.28765923128856,0.85013916758856567],[128.2876229616304,0.85016784337130957],[128.28739287638018,0.85034975373821453],[128.28720264008984,0.85040716465897503],[128.28705999232488,0.85029224569063899],[128.28701245865807,0.85016777142556066],[128.28684127810254,0.85004327287879278],[128.28658448568558,0.8499762050378763],[128.28634670133931,0.84998573515360931],[128.28601379570023,0.85004311909472108],[128.28570870519263,0.85016248610986622],[128.28567136444201,0.85017709559650712],[128.28540502212411,0.85032066066997913],[128.28521230370495,0.8505230162242583],[128.28518621976832,0.85055040417785222],[128.28501497356228,0.85078015577960286],[128.28464406257353,0.85062689691380911],[128.28448239864383,0.85047367761819714],[128.28444502371894,0.85046292082716946],[128.28434924771966,0.85043535570713402],[128.28421608060773,0.85048320233795494],[128.28397824859735,0.8507512389785461],[128.28377845970817,0.85103843117872202],[128.28353106880388,0.85156497344479476],[128.28319808312506,0.85205320009515617],[128.28296976324407,0.85232123943370652],[128.28283329112355,0.85242423069371398],[128.28277951076586,0.85246481799697449],[128.2825417111311,0.85256051665459154],[128.28235147394139,0.85261792667603231],[128.28216125024153,0.8526083174199357],[128.28191398344359,0.85246465521970549],[128.28183754106976,0.85241654238956244],[128.28176182085144,0.85236888371707664],[128.28162862136389,0.85258906743155194],[128.28128609837484,0.8532209086180842],[128.28111477572634,0.85386235456405757],[128.28096244765891,0.85465699462463363],[128.28085769192899,0.85536547333799717],[128.28082901344828,0.85614098841591613],[128.28079084532135,0.8568016079079257],[128.28080978864091,0.85722288093126053],[128.28088579844086,0.85766331401077878],[128.28104746596784,0.8577878107589072],[128.28126622155889,0.85780699959337881],[128.28138034372796,0.85788361643579947],[128.28139933021498,0.85807510638107942],[128.28127563925943,0.85831444115859767],[128.28120902737476,0.85848676565177584],[128.28122798778145,0.85882187013322664],[128.28136103168629,0.85943465198766944],[128.28146559496133,0.85976019757509903],[128.28151308725921,0.86010488343367797],[128.28154154720471,0.86049743480879215],[128.28157954356118,0.86075594942758471],[128.28164608799659,0.86094744656747935],[128.28169360637492,0.86114851699051087],[128.28176967013428,0.86129214591585423],[128.28214054515013,0.86164646621148222],[128.28200730789104,0.86206770955720913],[128.28189313356131,0.862268749403313],[128.28182652797193,0.86241235134900762],[128.28161727012093,0.86246018359065602],[128.28143652887275,0.86260376395262028],[128.28129382804775,0.86276649987411247],[128.28111311827581,0.86273774225304578],[128.28091335636634,0.86287174483521767],[128.28077061417252,0.863254690551571],[128.2806278845693,0.86357061519180434],[128.28049469317557,0.86375250217628263],[128.28023784859795,0.8639535132440983],[128.28015218457574,0.86428859794051505],[128.28002849272082,0.86452793181865673],[128.27994285837633,0.8647002536138757],[128.27972404432921,0.86498744131739613],[128.27959083494909,0.86525549594443874],[128.27952417270251,0.86569590204430824],[128.2795241187431,0.86598313111664993],[128.27965716264805,0.8665863378892027],[128.27969516979636,0.86678740561433187],[128.27980930455578,0.86679700138057569],[128.27999950757123,0.86691193024142876],[128.28013264410629,0.86703642159363881],[128.28031329722091,0.86736198157024091],[128.2804654319342,0.86761094359025037],[128.28057001859156,0.86780244972334231],[128.28072216319731,0.86800353993146473],[128.28083627367516,0.86813760186885247],[128.28092184326852,0.86830995603969541],[128.28105493843475,0.86864508210487656],[128.28126412973586,0.8689515000117467],[128.28145430397296,0.86922919177385438],[128.28196776470065,0.87002395773953367],[128.28219597396514,0.870359102690486],[128.28231007185241,0.87056018570405058],[128.2823861194239,0.87078998317122114],[128.28249071867174,0.87092404420934599],[128.28269995134178,0.87101025322067471],[128.28289968896956,0.87101029099216021],[128.28300431429773,0.87101031077725111],[128.28309943109389,0.87099118039873247],[128.28317552722888,0.8709624722403646],[128.28324211033521,0.87094333556655101],[128.28336574643208,0.87100080584258421],[128.28356840325921,0.87110009729173044],[128.28371763316227,0.87117321127470859],[128.28399343365015,0.87132645305342749],[128.2843072511788,0.87162331656287506],[128.28478273533506,0.87206382608474087],[128.28514410721482,0.87237984785173239],[128.2853342886466,0.87261924288378623],[128.28542936857059,0.87279159885326862],[128.28550544941697,0.87284905923672795],[128.28550542423602,0.87298309959044218],[128.28559101001713,0.87306928432008135],[128.28563856526762,0.87307886839511184],[128.28566266080327,0.87311292482166891],[128.28574849209929,0.87323423617112894],[128.28618056687969,0.87384491720922597],[128.28660847330241,0.87440031062590151],[128.28700780556585,0.87516633156099033],[128.28747371643897,0.87594194196708486],[128.28748019875218,0.87595645072968864],[128.28752223216532,0.87605052521161042],[128.28754184188256,0.87609441212748607],[128.28754304157815,0.87609709660375756],[128.28755928243504,0.8761334454022176],[128.28769334796971,0.87623433224865721],[128.28782560676643,0.87609519813491943],[128.28801585025133,0.87600906556599512],[128.28823458785598,0.87613357400528002],[128.28831070017873,0.87601869640576524],[128.28843431918858,0.87617190940613909],[128.28847234342402,0.87628680858938424],[128.2885579031248,0.87650703457205736],[128.28871958234288,0.87658366040767532],[128.28898588598986,0.87666030602832734],[128.28915706294811,0.87680395294012214],[128.28965157675896,0.87721574441110306],[128.28973264434615,0.87729154826638478],[128.29013812167705,0.87767069974302103],[128.29016082056546,0.87769192464264734],[128.2902796183098,0.87780300890176477],[128.29028209324406,0.87780532375671783],[128.29029781519205,0.87782002497419853],[128.29031725493746,0.87783820297073589],[128.29041923266152,0.87793155889437458],[128.29055960694041,0.87806006571952366],[128.29084028984755,0.87831701911517257],[128.29117312803749,0.87863303458692599],[128.29127773537925,0.878728798894997],[128.29139192140008,0.87847031395386921],[128.29208617913389,0.87885341974958919],[128.29201002814034,0.87916935787961847],[128.29229535514662,0.87924600709760625],[128.29234297514824,0.87891091430731194],[128.29238108931588,0.87854709717083779],[128.29242865805622,0.87848008598723482],[128.2927425196516,0.87855674060114097],[128.29311343603626,0.878700426183741],[128.29331315297964,0.87881535594397064],[128.29336070283421,0.87885366256654152],[128.29336065606947,0.8791025949088862],[128.29339867940564,0.87922706917396454],[128.29370300459004,0.87942818816037516],[128.29397881317175,0.87954313230977732],[128.29428316443659,0.87961021094253056],[128.29474919132224,0.87977306377592868],[128.29514860362519,0.88012739036679477],[128.29541023529418,0.88035374612854866],[128.29543945516673,0.8803790269705587],[128.2956167007502,0.88053237486923308],[128.29561988255159,0.88053512769403142],[128.29563469888228,0.88054794663048597],[128.29569123476278,0.8805968598572349],[128.29575708042501,0.88065382741223175],[128.29582380202692,0.88071155309575033],[128.29588375173387,0.88077717302815017],[128.29598752270613,0.88089075740259659],[128.29606210887925,0.88097239695861163],[128.2961366410932,0.88105397715935396],[128.29621490369493,0.88113964028224245],[128.29626123586741,0.88119035395169476],[128.29638488725277,0.88117122806977477],[128.29682233458311,0.88158300874891893],[128.29706953033462,0.8821192187269844],[128.29705989769616,0.88276069794790146],[128.29695522020734,0.88303833395201536],[128.29687910968323,0.88314363736901669],[128.29687908630081,0.88326810443953718],[128.29698370623316,0.88329684677211162],[128.29721178329726,0.88434049381879731],[128.2971261687378,0.88440749780784245],[128.29743992960914,0.88502031563513128],[128.29744893362147,0.88506054770613218],[128.29748213029609,0.88520886929393328],[128.29749851684312,0.88528208759828431],[128.29752817918222,0.88541461888956974],[128.29756566472372,0.88558211132544784],[128.2975952614122,0.88571434584042663],[128.29762964429267,0.88586797162963649],[128.29765850803381,0.8859969407063204],[128.29770714696735,0.88619517286900873],[128.29774393013838,0.8863450817601688],[128.29779155733456,0.88653918873262683],[128.29783401522764,0.8867122290861289],[128.2978675977115,0.8868490978076693],[128.29795110785744,0.88706306001228086],[128.29840948690833,0.88823748107495248],[128.2988944373285,0.88893650161827509],[128.29975981176597,0.88980793209043441],[128.30010216658184,0.89010480279443982],[128.30080584921063,0.89096662940647775],[128.3015381275826,0.89150293201475961],[128.30185190913835,0.89201043293519433],[128.30201354069243,0.89234556619499017],[128.30265445244106,0.89272441819741744],[128.30280792714416,0.89258878874164793],[128.30298995622161,0.89252097356410331],[128.30307387106234,0.89252490809809615],[128.30322718029015,0.89255813265174311],[128.30345573489433,0.8926720695604331],[128.30365561011843,0.89282197575363398],[128.30389667878876,0.89301134329889464],[128.30477779585863,0.89342480481093389],[128.30681310194313,0.89418156632626733],[128.30848704244306,0.89457443336345932],[128.31115018773107,0.89490046638348986],[128.31126145994847,0.89493190578286885],[128.31193008610467,0.89512082366712775],[128.31205169872703,0.8951820612032293],[128.31206232511624,0.89518741216937769],[128.31212315256153,0.89521804127963378],[128.31220699275855,0.89526025815445109],[128.31225946999859,0.89528668293411329],[128.31230724108639,0.89531073800020522],[128.31235785762908,0.89533622568632154],[128.31240537330939,0.89536015214935105],[128.31246239932034,0.89538886660295702],[128.3129001641114,0.89560930032899932],[128.31409849095269,0.89624143559382219],[128.31481180262267,0.8965000779163006],[128.31526830119117,0.89677782093974656],[128.31563920228746,0.89702682432852043],[128.31597207195364,0.89719922616342274],[128.31635250586351,0.89733333936214876],[128.31661880321531,0.89745785589536808],[128.31690411403372,0.89763982291952971],[128.31732256228645,0.8979462821952211],[128.31757933042184,0.89817611563529454],[128.31853033290861,0.89895181957086834],[128.31944329677083,0.89969879376434392],[128.32034672242332,0.90058938159472746],[128.32058441234085,0.90111601739033631],[128.3206300403441,0.90118690824925807],[128.32070713742451,0.90130669434853417],[128.32098853259481,0.90156457044861327],[128.32098998410049,0.90156589964658451],[128.32111847383851,0.90167297562737758],[128.32167809227019,0.90188217412310223],[128.32247124215417,0.90257871073896467],[128.32249594743007,0.9026004068833231],[128.32355151499053,0.90373038255114579],[128.32410307459725,0.90431452459569073],[128.32441690291785,0.90459224243807057],[128.32520624956885,0.90517642765007622],[128.32628095740029,0.90568407156268904],[128.32692772193684,0.90577993659485401],[128.32771710366148,0.90618220964131524],[128.3281545815687,0.90645994996674517],[128.32860157700122,0.90670896774469156],[128.32891541701292,0.90692923779414514],[128.32926353918106,0.90693612390305134],[128.32930976883085,0.90684830420593698],[128.3293561675531,0.90680904160404907],[128.32942906390019,0.90679529186928676],[128.32975242683312,0.90694854264120295],[128.32999015542134,0.90727411700692073],[128.33027545185064,0.90754225257296639],[128.33107429174527,0.90824133427020115],[128.33177804991715,0.90875848401685744],[128.33221550803933,0.90915111633097467],[128.33243419618123,0.90957243072313076],[128.33266238296267,0.91006076888942289],[128.33298571531861,0.9103863594430095],[128.33329951665939,0.91081726600407364],[128.33363236743992,0.9111141349094396],[128.33387958567437,0.91155460396186072],[128.33412683988183,0.9118035848675845],[128.33421859681084,0.91195819631377617],[128.33428641198839,0.91202601059194421],[128.33442164304449,0.91210044657839262],[128.33465941390091,0.91219623516815318],[128.33478306078973,0.91221540691554992],[128.33497331236856,0.91210054910112603],[128.33519208144946,0.91208144120560064],[128.33537286406647,0.91173679581652323],[128.33542995123128,0.91164106208537987],[128.33564874279534,0.9114974862200711],[128.33567023299497,0.91150093871738136],[128.33576393425824,0.91151599336842537],[128.3357900379799,0.91152018690712566],[128.33579012161692,0.91152020129629818],[128.33590017974961,0.9115378828670373],[128.33602116194709,0.91155732081375618],[128.33622251655595,0.91158967212572861],[128.33630502036044,0.91160292723333214],[128.33632460129934,0.91160621605405368],[128.33642540001222,0.911623145791566],[128.33652134508407,0.91163926074335677],[128.33673024230688,0.91167434689361926],[128.33681862857691,0.91168919200265464],[128.33724667799186,0.91152650644318101],[128.33760813800518,0.91141168010500451],[128.3379410490403,0.91137344362954309],[128.33836910834771,0.91115331117640608],[128.33862593134177,0.91109591194680206],[128.33864830917219,0.91110136633506045],[128.33921562130399,0.91123963799896046],[128.33980532025942,0.91133549044059237],[128.34016673260874,0.91147917422455293],[128.34076589423069,0.91184311276947483],[128.34136511430859,0.911891095197916],[128.34176460125536,0.91188159386052803],[128.34197386360302,0.91183376071950306],[128.34220216459823,0.91169976083534721],[128.34230684298643,0.91142212123395439],[128.3423163829948,0.91126893161595035],[128.34231641896758,0.91106786928679639],[128.34228792125066,0.91086680066234749],[128.34227843520171,0.91072318342821745],[128.34258275858747,0.91098174840902857],[128.34288712244279,0.91102010179628223],[128.34317246743547,0.91102972813951055],[128.34344830659415,0.91100105595398873],[128.34379075044285,0.91084792659057712],[128.34395248362034,0.91064689393903109],[128.34422834975862,0.9104746054187558],[128.3444851808465,0.91036933257868213],[128.3447990811128,0.9102640714298218],[128.3451986031331,0.91006308104641676],[128.34558860942684,0.90988123812866206],[128.34580739829289,0.90975681062838021],[128.34589303173811,0.90959406031765866],[128.34595013059413,0.90942173132788184],[128.34584552235299,0.90932596701981083],[128.34566481258105,0.90926848775058033],[128.34550313156433,0.90918228863176864],[128.34557923759178,0.90910570686293113],[128.34583607407558,0.90897171057605419],[128.34607388180427,0.90886643593734107],[128.34616900309709,0.90883772957761266],[128.34620702283587,0.90898135310698081],[128.34665406503314,0.90899100912781705],[128.34710110633102,0.9090006651486533],[128.34764322575438,0.90922097566755156],[128.34815681598434,0.90941255824299105],[128.34858479705076,0.90963284807753553],[128.34898422644096,0.90994887793840462],[128.3492695183736,0.91025531203308674],[128.34946923441771,0.91040853942257627],[128.34992572579165,0.91076287680539281],[128.35062001230381,0.91108853390875311],[128.35088628627318,0.91136624095929619],[128.35118978498065,0.91154961901975184],[128.35169467606852,0.91189298287491738],[128.35200851697959,0.91212282620750784],[128.35273132638963,0.91251550978302021],[128.35384412140911,0.91286039169375499],[128.35440525429908,0.91313815270365239],[128.35528981127584,0.91325320567096924],[128.35591755155383,0.91338736113783625],[128.35644065391307,0.91358851969448551],[128.35681158378759,0.91371305421415627],[128.35704933485897,0.91393330987438048],[128.35731564929779,0.91399080443210323],[128.35759146957071,0.91407702423532555],[128.3577436429548,0.91414407319047086],[128.35798146057596,0.91399092404196836],[128.35817169776567,0.91396223476937166],[128.35838095381803,0.91395269835840054],[128.35864725836439,0.91406763980978667],[128.35889452606159,0.91425917382184707],[128.35905618459526,0.91447941509295561],[128.35915125912334,0.91470921975474084],[128.35927491140808,0.9147092413384712],[128.35917033014664,0.9144411381480495],[128.3591323211997,0.91423049264318479],[128.35914187020126,0.91401985613151737],[128.35925603463841,0.91387625958174112],[128.35970310831181,0.91371357402226749],[128.36035942724584,0.91360837222862301],[128.36093010823799,0.91369464509182308],[128.36114889170801,0.91359893923970503],[128.36172913339283,0.91340755361574111],[128.3619098872316,0.913216096945348],[128.3620620965886,0.91308208177269989],[128.3623759842643,0.91305341408383356],[128.36314642087063,0.9130727000451202],[128.36484893642933,0.91342725956042159],[128.36502990880331,0.91345442358283435],[128.36529596963339,0.91349435977690518],[128.36560985640983,0.91347526716987204],[128.36583813402274,0.91347530763937357],[128.36611866224655,0.91360445568113846],[128.36617101358149,0.91362855841128976],[128.3662565966647,0.91375304166956539],[128.36636123368407,0.91369561366167318],[128.3662185922143,0.91351367271789741],[128.36606642602476,0.91339875195086506],[128.36598083664637,0.91331256632190616],[128.36603792740846,0.913197683326473],[128.36640887616875,0.91321689734201072],[128.36695103606155,0.91322656865128238],[128.36738855443832,0.91332239141530636],[128.36789266941128,0.91332248044818698],[128.36822557864764,0.91330338963979329],[128.36848239174901,0.91330343640453293],[128.36862505300383,0.91338005684417567],[128.36897698110283,0.91338969307992102],[128.3692433063336,0.91338973984466065],[128.3698235093475,0.91341856581419734],[128.37055585067208,0.91372507904918621],[128.37105992607474,0.91395495565672036],[128.37149744355224,0.91405077842074434],[128.37244859082989,0.91413711513581575],[128.3725666754118,0.91411999204404992],[128.37343782439609,0.91399367057147174],[128.37410367524444,0.91378315007239053],[128.37491220443474,0.91354393040808191],[128.37528318557065,0.91338122776147657],[128.37569219274053,0.91334300117858902],[128.37662437421557,0.91309422711691468],[128.37720460330991,0.91297943405368187],[128.37757559164027,0.91277843467707953],[128.37795608490546,0.91261573382911365],[128.37857437061075,0.9124435010667753],[128.37942093932497,0.91224258442775863],[128.38038167337561,0.91189806764174364],[128.38124727893887,0.91162055664341324],[128.38232213066192,0.91140052941096883],[128.38341601114007,0.9111517814296235],[128.3841769661941,0.91100829369781877],[128.38470010092897,0.91103710707687924],[128.38493786908748,0.91117119059799734],[128.38521367137389,0.91138187837105988],[128.38547996332966,0.91158298836427321],[128.38567965958873,0.91186068372360296],[128.38585082125849,0.91214794876884753],[128.38601245640984,0.91252138235597613],[128.38624064858709,0.91302887068587779],[128.38641180216302,0.91336400844227228],[128.38648511219822,0.9135485852989973],[128.38663998444781,0.91393851874767051],[128.38690624942399,0.91430239613873709],[128.38706788007869,0.91469497899015551],[128.38745780273553,0.91502057943625914],[128.38765748370599,0.91539402021788874],[128.38789521679087,0.91573874384801002],[128.38809489776133,0.91611218373031988],[128.38821850238207,0.91638986559985369],[128.38835161373606,0.9166962736142068],[128.3885037466506,0.91701225940829545],[128.38873197390149,0.91731868271108397],[128.38915990190799,0.91789322809006535],[128.3895593070165,0.91839117191511832],[128.39026304180595,0.91914767982160583],[128.39066245410902,0.91960732511802235],[128.39145180615594,0.92029682723682527],[128.39196537480223,0.92066074689597599],[128.39236482127956,0.92091932806459909],[128.39311616527891,0.92137903361555118],[128.39391508701169,0.92173342855494411],[128.39494233222297,0.92182934934504601],[128.39648324590519,0.92170514397724901],[128.39752954775054,0.92160957662071041],[128.39833810661844,0.9212171583452573],[128.39854741662998,0.92090123370502397],[128.39890889013327,0.92072895417794598],[128.39927985508132,0.92067156933751448],[128.39957470770662,0.92072906659319642],[128.4009823976196,0.92096866756997997],[128.40170527178088,0.92105496201691039],[128.40291326003899,0.92103601689871084],[128.4039785681565,0.92104577094562501],[128.40456833456108,0.92079693123343986],[128.40489173256742,0.92079698609205707],[128.40515805420091,0.92083532868753082],[128.40543385828596,0.92104601556121679],[128.40599493631737,0.92172590212874184],[128.4061090234128,0.92205145670942557],[128.40630873136297,0.92227170427577221],[128.40656552108203,0.92243451484102934],[128.40678426767988,0.92256859566418825],[128.40693639789652,0.92291330490513701],[128.40700294772796,0.92310480744095003],[128.40714557930505,0.92337291872524929],[128.40736429802405,0.92367934112871808],[128.40774465459219,0.92434962293680201],[128.40792531939803,0.92470391175618261],[128.40811546125963,0.92525926830063554],[128.40862897684588,0.92596787112040602],[128.40935172330342,0.92683927731081894],[128.41029321366091,0.92786391268947455],[128.41101598799753,0.92857255058277133],[128.41188142718613,0.9293482356326308],[128.41314634342905,0.93021973265456381],[128.41453493084248,0.93098592985683126],[128.41591404389806,0.93153191006962288],[128.41736929985336,0.93178109242353457],[128.41817780026531,0.93177165134068218],[128.41845245411753,0.93175570276349617],[128.41932873283486,0.93170482092079965],[128.41982336715478,0.9315612837262961],[128.42024190444045,0.93143688410498271],[128.42062240130281,0.93127417965973791],[128.4209072480711,0.93118696610565621],[128.42092643780495,0.9311810908347411],[128.42105996374642,0.93114020765449368],[128.42106411591624,0.93113892342262261],[128.42106751085703,0.93113787211512999],[128.42107001996555,0.93113709510089393],[128.42359210838913,0.93494940668983872],[128.4245193408949,0.93595489100545137],[128.42541079477246,0.93764255875714753],[128.42569600756474,0.93850431791997835],[128.42505374593372,0.93983268493053629],[128.42327018706953,0.94044276881879796],[128.42155803077856,0.94065791183322744],[128.41920362184976,0.94212960829486292],[128.41702761773047,0.94324228640243746],[128.4149587111757,0.94381641089870527],[128.41335342402135,0.94485737167042316],[128.41235436176441,0.94679605009770285],[128.41235417380619,0.94790909333005402],[128.41300536210781,0.95009938497867097],[128.41264844816737,0.95141582607953978],[128.41104295686705,0.95362966737530996],[128.41074539818169,0.95548468636923189],[128.40997231936706,0.95692073640293529],[128.40830743504011,0.95877551617718382],[128.40688038632084,0.96039097286512742],[128.40604777238684,0.96230573741991066],[128.40610671305444,0.96523795266944035],[128.40705768766225,0.96643493862154628],[128.40806827832841,0.96667448024311398],[128.40937616507802,0.96661486778197059],[128.41044613168367,0.96727330641800791],[128.41151604792731,0.96823094859945513],[128.41216970936466,0.96984676861353591],[128.41234770408334,0.97188139391124651],[128.41222837124235,0.97439469505917486],[128.41199026314018,0.97618988305669063],[128.41187108408337,0.97780556817247088],[128.41086027128461,0.97882268611812151],[128.40973044400482,0.98049803315774398],[128.4060131997494,0.9826931208908718],[128.40363521239522,0.98281237728940596],[128.40244608022249,0.98364993479668783],[128.4017325617084,0.98436789686098791],[128.40030561101526,0.98532509297871229],[128.39947297999413,0.98723984943956111],[128.3986404119255,0.9887955587680608],[128.39840222738098,0.99094978490467156],[128.39733172927595,0.99322354083381015],[128.39626140294149,0.99453984164040321],[128.39495325718713,0.99597578015817589],[128.39459627669692,0.99753157402295756],[128.39435826122485,0.99872834593645621],[128.39400130231832,1.0001644580233915],[128.39340661122617,1.0012414816091564],[128.39280727873302,1.0022052175967815],[128.38960182966082,1.0013604520232775],[128.3878608788765,1.0033532327655053],[128.38484510311912,1.005548405034915],[128.3817728013737,1.0058414509222757],[128.37777755419086,1.0071811161156461],[128.3753041352777,1.0089040480834228],[128.37402446295869,1.0100942162750925],[128.37354852464478,1.0118893404207938],[128.37321056481574,1.0138823756711304],[128.37454160461141,1.0171379610480926],[128.37449459165214,1.0172528242584917],[128.37320930936221,1.0203930257176239],[128.37168643428163,1.0253714576267043],[128.36864190270171,1.0290091568471667],[128.36407572001849,1.0313061161843393],[128.36179262732799,1.0324545918060153],[128.36084070573406,1.0360926948220595],[128.35798611906421,1.0410708317535295],[128.35589278962061,1.0445172047053006],[128.35208749724029,1.0470057726982986],[128.35076103859114,1.047812530224121],[128.3491203891947,1.0470222959422699],[128.34826468426786,1.0452269100938452],[128.34683818863152,1.0437904472713626],[128.34455554740066,1.0427128454215335],[128.34020354096072,1.0441480941592545],[128.33965188692514,1.0438798839495576],[128.33813490690045,1.0431423418456234],[128.33578028483237,1.0451524687115352],[128.33399678532339,1.0452238973650196],[128.3320709402218,1.0437155166578123],[128.33057279919535,1.0437870037672496]]]]},"properties":{"OBJECTID":662,"nama_kawasan":"Kawasan Industri KI Buli - Kab. Halmahera Timur","delineasi_asal":"KI Buli","Shape_Length":1.4686724819763783,"Shape_Area":0.035784758283572075}}]}