{"type":"FeatureCollection","features":[{"type":"Feature","id":672,"geometry":{"type":"MultiPolygon","coordinates":[[[[128.74380495443518,0.32361968130328478],[128.74376215300106,0.32363404257705497],[128.74370508741993,0.32361489241338859],[128.74360997691895,0.32361010172485294],[128.74352437764799,0.3236244620993034],[128.7434197559171,0.32361967141076775],[128.74338171189652,0.32359573325652491],[128.74335318000533,0.3235478578474158],[128.74328660409356,0.32349998063966723],[128.74324380625671,0.32343774215814847],[128.74327234174518,0.32332763096542294],[128.74331989879431,0.32327975555631383],[128.74341976670894,0.32319358431652745],[128.74347683318933,0.32318879812459045],[128.74351963102617,0.32327018676977559],[128.74355767414738,0.32330848799637124],[128.74367656092465,0.32334200303108673],[128.74376691401199,0.32342339257553476],[128.74380971184883,0.32350956921129637],[128.74380495443518,0.32361968130328478]]],[[[128.74404272888887,0.32362926268035608],[128.74405699393515,0.32369150026255511],[128.74399992655538,0.32375852403669114],[128.74392859412933,0.32374415916564203],[128.74389530662313,0.32370107084778965],[128.74389530842177,0.32362925908307716],[128.74399517543702,0.32358138637192724],[128.74404272888887,0.32362926268035608]]],[[[128.71940894816453,0.33046992524691632],[128.71919019077473,0.33059439411601943],[128.71903801019607,0.33072843896633231],[128.71885729502822,0.33091035832643456],[128.71862902640851,0.33107312662355071],[128.71849586918904,0.3311497227815039],[128.71830564638856,0.33121674205904128],[128.71807737956749,0.33130291060086847],[128.71763987018392,0.33136034760201483],[128.71704067258906,0.3314082050246725],[128.71673632042496,0.33142734619514158],[128.71650805270451,0.33150393965513558],[128.71617516415256,0.33160925476335024],[128.71588031512454,0.33182947085344949],[128.71567106896475,0.33196351390506607],[128.71547133313561,0.33211670801972559],[128.7152240411566,0.33227947541752201],[128.71499577433553,0.33236564306002947],[128.71480554973641,0.33249968701102262],[128.7144441220986,0.33278692597588133],[128.71412074028001,0.33300714116666086],[128.71389247435832,0.33303585921760259],[128.71357861186345,0.33300712497890572],[128.71347399462923,0.33285392277036863],[128.71344546813395,0.33263369768707207],[128.71345498655842,0.33236559809392929],[128.71339792457468,0.33220282260225531],[128.71330281767098,0.3320879198216744],[128.71316015731543,0.33192514163204123],[128.71284630291461,0.3315804332904122],[128.71263706574803,0.33138892805664],[128.71242782498416,0.33132189708794613],[128.71220907299039,0.33125486521987568],[128.71184765614453,0.33119740483641635],[128.71152428331914,0.33110164592426372],[128.71122944058629,0.33110163783038615],[128.71101069039116,0.3310154566980259],[128.7109425037936,0.33097701337851504],[128.71077291863537,0.33088140015655654],[128.71049710106047,0.33080479230739002],[128.71020226372355,0.33063243363994843],[128.71001204631898,0.3305271041426181],[128.70980280555511,0.33046964735638085],[128.70966965013429,0.33050794408637785],[128.70953649291494,0.33059411442690134],[128.70937480380417,0.3306707096855348],[128.70917507427032,0.33060367871684093],[128.70904192514479,0.33041217528170819],[128.70887073020015,0.33028769562071147],[128.70874709140526,0.33012491833034119],[128.70848079405346,0.32975148744122862],[128.70820498187447,0.32948337975420827],[128.70795770338532,0.32919612280289812],[128.70741558755935,0.32875565914639537],[128.70713977358173,0.32855457613283079],[128.70694004764516,0.32839179614450131],[128.70674983203924,0.3282098659925623],[128.70664521570416,0.32805666378408205],[128.70653108544127,0.32798006043151418],[128.70635037656871,0.32792260544391638],[128.70617917982531,0.32790345078365135],[128.70598895882347,0.32791301957024643],[128.70577971356295,0.32797046376595063],[128.70562753658157,0.32804705902458409],[128.70551340002351,0.32818110477421669],[128.70532317362563,0.32840132356227514],[128.70519952493817,0.32858324382169712],[128.70499027428184,0.32886091130205841],[128.70479053755332,0.32904282976284094],[128.70437204433449,0.32930134168361747],[128.70402964455252,0.32941623097434558],[128.70375382338034,0.32947367157271401],[128.70351604712789,0.3294736652774759],[128.70336387194516,0.32944493643469741],[128.70291685582833,0.32939704843511208],[128.70262201579351,0.32933958895091564],[128.70227011017755,0.32926297840378993],[128.70207038064359,0.32918637235326287],[128.70185162685118,0.3292055162216343],[128.70160433757019,0.32930125804665522],[128.70136656041848,0.32937785060738634],[128.70112878056887,0.32947359333172699],[128.7009005164457,0.32952146064695853],[128.7006627392941,0.32955975377967661],[128.70035838443198,0.32966506888789127],[128.70017767106276,0.329741663247205],[128.69997793613288,0.32987570629887841],[128.69968309340015,0.32990442255112384],[128.69935971787675,0.32993313790404954],[128.69898879339814,0.32977992670231515],[128.69871297762188,0.32965544434330241],[128.69843716004698,0.32958841067664935],[128.69819938469391,0.32957882840025832],[128.69739094363717,0.32974157871092302],[128.69663957085959,0.32982773016567535],[128.69626863828705,0.32992346839341735],[128.69578358084766,0.32977982867618039],[128.69524145692776,0.32964576314151373],[128.694765907121,0.3295978733432321],[128.69416671402269,0.32957870519311427],[128.69343436370502,0.3296648566478666],[128.69292076358249,0.32983719013424206],[128.69246422904098,0.33001909960182729],[128.69245219791071,0.3300231366584967],[128.69245851205073,0.3299739518364504],[128.6924594428491,0.32996669970350467],[128.69246097979044,0.32995497074534796],[128.69246139527718,0.32995180243381128],[128.69246188630711,0.32994805765679303],[128.69246757631765,0.32990464288502608],[128.69246952694721,0.32988976000444836],[128.69246984440781,0.32988733813022009],[128.69247566841739,0.32983261168573108],[128.69248142857509,0.32977351993201864],[128.69249361708682,0.32968412282406234],[128.69249390666857,0.32968199862540359],[128.69250807189007,0.32959806759680532],[128.69250981657478,0.32958909685936533],[128.69252224070885,0.32952521891377273],[128.69252635600662,0.32946891325980232],[128.69252863219072,0.32943777693191123],[128.69252941460081,0.32936174285021025],[128.69253317106904,0.32930035512731592],[128.69253586813591,0.32926647316924118],[128.69253855620946,0.32923259121116644],[128.69254102934508,0.32920153222499948],[128.69254585510714,0.32917634491241188],[128.69255347686158,0.3291513932222756],[128.69256693971261,0.32912406192593835],[128.69258017773313,0.32909955360156573],[128.69259644467024,0.32907245792762296],[128.69261551569355,0.32904557899030351],[128.69263716597254,0.32902174965408904],[128.69266420678775,0.3290012046419406],[128.69269169006952,0.32897500469277929],[128.69272455489431,0.32895208007448673],[128.69275741971921,0.3289291563555139],[128.69279006960608,0.32890905380980939],[128.69282013124416,0.32888591155563063],[128.69285019288213,0.32886276120751745],[128.69288025362084,0.32883961085940427],[128.69290977296771,0.32881689398453773],[128.6929103251515,0.32881646860516867],[128.69291181263009,0.32881532286887705],[128.69294038589021,0.32879331825705549],[128.69296484025529,0.32876971465066163],[128.6929864896349,0.32874589430764445],[128.69300601031921,0.32871337032582915],[128.69302340140894,0.32867215169846986],[128.69303563308802,0.32862483476833404],[128.6930455022482,0.32857164706388176],[128.69305021289711,0.32851235206345564],[128.6930523541829,0.32845001735444157],[128.69304607421702,0.32838700275800647],[128.6930288027371,0.32832026227032429],[128.69300334562797,0.32825001892325645],[128.69297182169225,0.3281849682617235],[128.69296345170198,0.32816983626895535],[128.69296177986234,0.3281668118489165],[128.69293727873253,0.32812251484222088],[128.69290789428396,0.32806615882623191],[128.69288624670298,0.32801894981474788],[128.69288237062494,0.32800636380267179],[128.69287278565059,0.32797524276327295],[128.69287334412957,0.32793266705897395],[128.69287413643235,0.32788726838276716],[128.6928774989974,0.32784490941509148],[128.69287761680869,0.32780797875528833],[128.69287985522124,0.32777974184165259],[128.69288119521104,0.32776279681564802],[128.69288276812529,0.32774302881779249],[128.69288389227791,0.32772890586437597],[128.69288523136845,0.3277119608383714],[128.6928876946115,0.3276808928589503],[128.69289387025594,0.32763877041298883],[128.69290328885575,0.32759121786045853],[128.69291270925419,0.3275436662073048],[128.69291910882987,0.32749871089686167],[128.69292482582011,0.32746223259601948],[128.69293313015987,0.32742879490302812],[128.69293862231962,0.32739513957409372],[128.69294669283568,0.32736452395369042],[128.69295044300861,0.32735032006127085],[128.6929547732442,0.32733391822580415],[128.69296306859076,0.32730048862669037],[128.69297159866039,0.32726422796179122],[128.69298011883745,0.32722796729689207],[128.69298629538127,0.32718584395161088],[128.69299223630276,0.32714653368560676],[128.692997953293,0.32711005628414114],[128.69300603280226,0.32707944875761541],[128.6930171412281,0.32704624668696169],[128.69303474815513,0.32700219609449732],[128.69305886977111,0.32694731676531319],[128.69305943274674,0.32694615304257013],[128.69306172691722,0.32694140732013466],[128.69308927405086,0.32688441278548908],[128.69312550234008,0.32681913909203786],[128.69316476674067,0.32675127714975361],[128.69320986504329,0.32668102660812792],[128.69325496244664,0.32661077696582197],[128.69329702194011,0.32654313176016103],[128.69333931615654,0.32647266538123176],[128.69337341395192,0.32639868804903927],[128.69339933421202,0.32632120785751795],[128.69340523376457,0.32629485772156386],[128.69341683411972,0.32624304957710137],[128.69342568794525,0.32616703617981102],[128.69342591457439,0.32609316586695059],[128.69342074976782,0.3260160202232214],[128.69341300570568,0.32593582587770698],[128.6934045970446,0.32586410044791592],[128.69340415997408,0.32586161292311999],[128.69339293373696,0.32579780242667766],[128.69338384069181,0.32573455220784808],[128.69337733589543,0.32567435159012348],[128.69337341125402,0.32561720057339016],[128.69337161530791,0.32556875319545497],[128.69336892903289,0.32553159680577437],[128.69336533534204,0.3255057314044052],[128.69336152581388,0.32548268717630435],[128.69336051137861,0.32545986957734385],[128.69335692578159,0.32543401316922882],[128.69336006261688,0.32539448616665823],[128.69336107975005,0.32534625642466608],[128.69336534163722,0.32529261456255654],[128.693369828355,0.32523615242655524],[128.69337409833599,0.32518251056444569],[128.69337813539266,0.32513169257362051],[128.69337915162657,0.32508346283157152],[128.69337713084997,0.32503784741879826],[128.69337231498037,0.32499199638357368],[128.69336491176136,0.32494309484798123],[128.69335190036998,0.32489374275206728],[128.69333350563682,0.32484111532528459],[128.69330950363076,0.3247880337407878],[128.69328011918219,0.32473167772479883],[128.69325095866486,0.3246724996362218],[128.69321921079802,0.3246102719465398],[128.6931876958555,0.32454522218432658],[128.69317136416714,0.32451151559399705],[128.6931561719199,0.32448016342885921],[128.69312465787675,0.32441511276726942],[128.69309268517929,0.32435570804955205],[128.69307193602106,0.32429720804975659],[128.69306241220067,0.32423961366725962],[128.69306386910239,0.32418574697470603],[128.69306857975118,0.32412645197422307],[128.69306746728989,0.32406953568056451],[128.69305187664281,0.32401714297679973],[128.69302529628044,0.32396101358995111],[128.69299568610211,0.32390748144513282],[128.69298369544128,0.32388315388448063],[128.69296651659158,0.32384830155791633],[128.69294621799361,0.32378415741300159],[128.69292939707407,0.3237117700821841],[128.69292698958895,0.3236953970250056],[128.69291840825804,0.32363701303779635],[128.69291022262871,0.32356248172317237],[128.69289878505094,0.32349336972328047],[128.69287848555371,0.323429224679046],[128.69285213002183,0.32337027232023274],[128.6928225198435,0.32331674826934886],[128.69278640307016,0.32327405385456132],[128.69275779923316,0.3232433384093838],[128.69273436290064,0.32321871856908047],[128.69271630001731,0.32319736776435093],[128.69269610843867,0.32316732141481452],[128.692676139892,0.32313445299263321],[128.69265101373333,0.32309548536841248],[128.69262049613906,0.32305323342001202],[128.6925787720927,0.32301007765300938],[128.69253793837527,0.3229556398908926],[128.69249778724316,0.32289273411242903],[128.69246300956036,0.32283310276551447],[128.69242824177002,0.32277347141859991],[128.69239560357425,0.32272253471722934],[128.69236833882781,0.32267486435353021],[128.69234040858305,0.32263567099948887],[128.69230990088124,0.32259342894366227],[128.69227680403139,0.32254813728673071],[128.69224068815731,0.32250543387874586],[128.69220142375673,0.3224648402801904],[128.69219895421838,0.32246228710494051],[128.69215442608595,0.32241891280261825],[128.69211270203959,0.32237577502206705],[128.69207119383054,0.32232979538378004],[128.69202990955273,0.32228100356553568],[128.6919858310813,0.32223198511809414],[128.69193355708808,0.3221794548180128],[128.69188795876232,0.32213097056791185],[128.6918845710162,0.32212736788375196],[128.69188150702598,0.32212411143865438],[128.69183248588058,0.32206617171647167],[128.69178930673115,0.32200586138145582],[128.69175453894093,0.32194623093386099],[128.69173052794156,0.3218931511480605],[128.6917121332084,0.32184051382870393],[128.69169351364485,0.32179070757513273],[128.69166693328236,0.32173457009440654],[128.69163170683782,0.32168059278518513],[128.69159110604483,0.32162333295048029],[128.69154208489931,0.32156539232903469],[128.69148769030471,0.32150417727598324],[128.69143608990373,0.321443198744646],[128.69138752831179,0.32137961397802428],[128.69134523769264,0.321308012654697],[128.69130878097553,0.32123403262454531],[128.69127816535513,0.32115768288082336],[128.69126310980471,0.32111833484333374],[128.69125011999711,0.32108438183877297],[128.69122882495037,0.32101858204197242],[128.6912274570816,0.32101435612770501],[128.69121018740032,0.32094760484812923],[128.69122208543092,0.3206558881587398],[128.69123252026463,0.32063115410454657],[128.69124227970747,0.3206148961605777],[128.69125529289749,0.32059321080805603],[128.69127245016352,0.32055481515266138],[128.69129051484549,0.32050511861638142],[128.69131440263766,0.32045305416517067],[128.69133830122166,0.32040098791532046],[128.69136521703115,0.3203463163295055],[128.69139472288816,0.32029470333793597],[128.69142399402222,0.32024590432507694],[128.69145348998666,0.32019429043418768],[128.69148579903049,0.32014290317249561],[128.6915206873299,0.3200945556192778],[128.69155814499243,0.32004926666036226],[128.69159864056485,0.32000138225805586],[128.69163913703665,0.31995350505025044],[128.69168266062638,0.31990301441265956],[128.69172663477639,0.31984688682439355],[128.69176757101661,0.31979334658569769],[128.69181132033623,0.31974002398294488],[128.69185225567708,0.31968648374424902],[128.69189599690276,0.31963316204081593],[128.69194255030857,0.31958007416113787],[128.69198865315389,0.31953264121847269],[128.6920377849159,0.31948260293984276],[128.69208948694029,0.31943561336294124],[128.69213559068498,0.31938817142702192],[128.69217404029973,0.31934761560000879],[128.6921756365964,0.31934593116983478],[128.69221242066669,0.31930910123406875],[128.69224921373029,0.31927227129830271],[128.69228599780058,0.31923544136259352],[128.69232279086418,0.31919862042002478],[128.6923626119451,0.31915918514835084],[128.69240287369371,0.31911412191925592],[128.69244314533501,0.319069058690161],[128.69248319124631,0.3190268193322936],[128.69251975858003,0.31899282136168949],[128.69255889797478,0.31896186309955965],[128.69259804456419,0.31893091293130738],[128.69263999613895,0.31890018129837472],[128.69268733015622,0.31887273398950811],[128.69274027234576,0.31884573903965929],[128.69279646738312,0.31881331488261822],[128.69285243669071,0.31878372269068223],[128.69290583843372,0.3187510916895917],[128.69295619956904,0.31872104803795764],[128.69300959231884,0.31868839815109595],[128.69306320810063,0.31865294417809764],[128.69312288980962,0.31861227773447354],[128.69321118165078,0.31856002622430424],[128.69375974201853,0.31809936829125718],[128.69437321904888,0.31753206964935998],[128.69531297191622,0.31671255613957783],[128.69708614181206,0.31570019111097736],[128.69760084810071,0.31447776513681447],[128.69761675710777,0.31444012041527003],[128.6976425829389,0.31441748358002997],[128.69768121241805,0.31441943061230404],[128.69821946025991,0.31438072019415131],[128.69866159575611,0.31420646575583078],[128.69912295156303,0.31414839113540438],[128.69968042061498,0.31412904491952531],[128.70065964562616,0.31414433609228354],[128.70090996562249,0.31412333062723974],[128.7013688986558,0.31361906187026989],[128.70176526585442,0.31267354434862682],[128.70209903664124,0.31225331813618595],[128.70255798226515,0.31134982593374616],[128.70276659530225,0.31084554908289874],[128.70301693238559,0.31027823785046849],[128.70326727306622,0.30947979815420013],[128.70353847711908,0.30859731231618071],[128.70383053555088,0.30788291966103998],[128.70426271735062,0.30710543866513262],[128.70454743281789,0.30659324328360071],[128.70511066922211,0.30596290576352203],[128.70552787730981,0.30564774105044989],[128.70594508000147,0.30552168307923466],[128.70669603999033,0.30547968024308148],[128.70719668088213,0.30541665755276881],[128.70759396269125,0.3053213896704392],[128.7076347424495,0.30531161134183549],[128.70805194244326,0.30529061037339034],[128.70862368643407,0.30526744203888256],[128.70945807832777,0.30549859388503364],[128.70983355427518,0.30562467523861869],[128.71041763336711,0.30564570318671258],[128.7104194751787,0.30564564473075961],[128.7110851533572,0.30562470941288211],[128.71150235425034,0.30556168492387314],[128.71185697402018,0.30556169481639017],[128.71247054458001,0.30543434541874603],[128.71272086907288,0.30524524587144697],[128.71301918139022,0.30499780280638333],[128.71307549693665,0.30495109022069755],[128.71345098187737,0.30476199427067741],[128.71368044209873,0.30476199966659578],[128.71413935894429,0.30480403577769266],[128.71445225826517,0.30482505563185214],[128.71478601736089,0.30482506462510628],[128.71509891758103,0.30482507361830358],[128.71598089080555,0.30459036405409279],[128.71629611127662,0.30411411907135744],[128.71653252055944,0.30392891628650887],[128.71713667072083,0.30392893157500112],[128.71768827619303,0.30424644801519207],[128.71821361336765,0.30464334041789698],[128.71864090015742,0.30499780280638333],[128.71866014834723,0.30501377026934051],[128.7192117547188,0.30527836880173709],[128.71965829509429,0.30543713241775095],[128.72013110466685,0.30554297992460988],[128.72047257724773,0.30567528098947605],[128.72091911942186,0.30575466774376991],[128.72201187125097,0.30610276023423921],[128.72258975131604,0.30620860864041788],[128.72329897466796,0.30594404338296499],[128.72392939492568,0.30581176480114891],[128.72463861198241,0.30583824174152596],[128.72529529424253,0.30594409374498355],[128.72566303332235,0.30610285376371849],[128.7259782394043,0.30618223692073343],[128.72629344818415,0.30615578785938169],[128.7265766860653,0.30605054469691595],[128.72693653809085,0.30591683619309151],[128.72756695385192,0.30591685238090349],[128.7275836416718,0.30591685238090349],[128.72817110401331,0.30591686677001917],[128.72893285586667,0.30594334460971595],[128.72935313334051,0.30596981435547832],[128.72961580012918,0.30620794763871118],[128.72974713172482,0.30641961927005923],[128.73000980031213,0.30663129539800593],[128.73043007418869,0.30681651437066648],[128.73077154766884,0.30686944037239527],[128.73111302294774,0.30692236637418091],[128.73129339367529,0.30693305841396068],[128.73155956692051,0.30694883611994328],[128.73205864838792,0.3069488487104195],[128.7327678672433,0.30692240684362559],[128.73372756077833,0.30684537001786794],[128.73469945361694,0.3068189362449516],[128.73554000856461,0.30681895692936223],[128.73596028873635,0.3068189668219361],[128.73630176761253,0.30666022389027603],[128.73677458527891,0.30644856844673996],[128.73716859985109,0.30628982641439961],[128.73758888182147,0.30613108618075557],[128.73790409239996,0.3061046344213878],[128.73824556767886,0.30607818536003606],[128.7385870447564,0.30605173360066829],[128.73999062027099,0.30583883799204159],[128.74033534569969,0.30557842400509116],[128.74041090493938,0.30552134493416361],[128.74067358791581,0.30520384917832644],[128.74091906866011,0.30499780280638333],[128.74098880299096,0.30493927222966022],[128.74159295764889,0.30470115873151826],[128.74206577261737,0.30462179535959422],[128.74251231928815,0.30459534719756221],[128.74344445939437,0.30433984081105336],[128.74409442192007,0.30401251456595446],[128.74441940543124,0.3037553246485345],[128.74457498724598,0.30357012725960431],[128.74467475173844,0.30345136908545101],[128.74488367684023,0.30300712288044451],[128.74504617264279,0.30274992936580247],[128.74558007675921,0.30218878208665956],[128.745881850567,0.30181468300128245],[128.74620683497756,0.30153411071069058],[128.7464853918874,0.30132368284171207],[128.74681037539858,0.3011366373459623],[128.74706571900776,0.3009495909508928],[128.74743712372435,0.30083269077613295],[128.74776210633615,0.30064564617970291],[128.74786133033615,0.30059406916103626],[128.74878833171624,0.30011221510670794],[128.74952140688742,0.29983327958223072],[128.74979834591704,0.29981687684744429],[128.75000000000011,0.29981408804974308],[128.75049590416268,0.2997557885988158],[128.75079162103657,0.29975579579337364],[128.75122595311529,0.29975580568594751],[128.75159559605993,0.29986739806201967],[128.75183586433377,0.29995108987094454],[128.75220550817767,0.30000689010591941],[128.75244577825015,0.29999759741122034],[128.75268605012116,0.29989531841425787],[128.75288935715821,0.29978374042730138],[128.75316659206464,0.29970935660156783],[128.7535547205739,0.29967217143359903],[128.75376726724562,0.29967217593019768],[128.7541923623877,0.29955130434927923],[128.7550936503518,0.29955504732760119],[128.75587338594812,0.29952167798307983],[128.75678584978721,0.29928799094807346],[128.7571342426512,0.29923792029381957],[128.75737228690161,0.29925788614258408],[128.75753240489666,0.29927131481935021],[128.75817942034405,0.29928802332364057],[128.75866053335699,0.29932141964786751],[128.75907329969311,0.29932142864106481],[128.75922459803678,0.29932143313766346],[128.75941324792313,0.29932143673494238],[128.75968912125597,0.29932144303023733],[128.76013705558069,0.29930475970695625],[128.7604854484448,0.29928807278639624],[128.76185300791008,0.2989357058182236],[128.76275177957109,0.29891469495726142],[128.76342063325569,0.29897780488181525],[128.76404768555233,0.29887265974548427],[128.76444481717465,0.29887266783941868],[128.76467473515095,0.29887267323533706],[128.76574072225662,0.29883063262764153],[128.76609605339024,0.29872548299471191],[128.76632597496382,0.29859929731975399],[128.76647229196271,0.2983258890286038],[128.76678582260774,0.29801042034466718],[128.76720386436693,0.29769495435868976],[128.76760100138517,0.29742155056413822],[128.76765155857265,0.29738975773119591],[128.76803419042562,0.29714913692316713],[128.76810264771905,0.29710608637685709],[128.76932261314812,0.29631450221256728],[128.77056091035774,0.29559714359334066],[128.77101119910765,0.29533285262908748],[128.77161158470687,0.29503080902463807],[128.77236206805503,0.29457773957108202],[128.77307502539213,0.29427569776527207],[128.77378798182997,0.29393589882272408],[128.77506379785609,0.29344508302420991],[128.77615199282025,0.29306753413942488],[128.77686494835871,0.29280324857109008],[128.77754038328214,0.29238793355631287],[128.77821581460819,0.29212364798803492],[128.77835401792368,0.29205003128396356],[128.77885372621859,0.29178384814611036],[128.77919144412988,0.29151955358457826],[128.7796417319804,0.29129301975711996],[128.78064077265356,0.29100657309493272],[128.78130467826838,0.29081621629541132],[128.78164959615196,0.29071731964864966],[128.78224998265068,0.29030200373455273],[128.78268975203048,0.29009240773848433],[128.78296293998778,0.28996220389262817],[128.78401360534372,0.28992446744024392],[128.7848016030116,0.28988672469262156],[128.78547703433776,0.28969795339787652],[128.78585227556209,0.28947141687245903],[128.78660275801099,0.28901834562020667],[128.78742828978386,0.2885275190297989],[128.7881787731319,0.28807444777760338],[128.78874163182093,0.28788567198620285],[128.78937953893467,0.28765914175602347],[128.78982982498644,0.28754587933889297],[128.79031763794865,0.28735710174890983],[128.79095554326375,0.28724384292905825],[128.79148087594172,0.28724385192225554],[128.79189363688192,0.2871683457426002],[128.79226887540835,0.28716835293715803],[128.79285072508094,0.2865943498493948],[128.79337606495346,0.28617903213665841],[128.79409575101818,0.28608029466988683],[128.79420158863252,0.28606577511550313],[128.79547739566533,0.28602804136107807],[128.79596521042617,0.28572599236071028],[128.79641550277324,0.28527291481321981],[128.79675321708737,0.28519740593560527],[128.7973535999887,0.28504638907963908],[128.79772883761586,0.28504639537487719],[128.79825417029383,0.28504640436813133],[128.79843640801391,0.28500473158317163],[128.79907969487203,0.28485763397264918],[128.79971760738169,0.28436680198637987],[128.80009285040478,0.28402699405057774],[128.80065571179171,0.28372494594952968],[128.80110599964223,0.28353616925886627],[128.80163026212699,0.28334182936197294],[128.80181895518069,0.28327188189189201],[128.80238181386972,0.28312086323728636],[128.80290715014496,0.2828943276111886],[128.80335743709611,0.28270555002114861],[128.80380772494664,0.28255452866858377],[128.80440810694859,0.28240351001403496],[128.80470829884894,0.28229024489894528],[128.80489591991079,0.2822147333233147],[128.80519611271052,0.28202595303537237],[128.80643646037436,0.28131987011596493],[128.80736306785138,0.28119274375018222],[128.80812119903419,0.28119275634065843],[128.80871085482215,0.28123514678463835],[128.80934263215681,0.28115039557434329],[128.81018500283562,0.28102326920856058],[128.81111161031265,0.28081138173990894],[128.81161703110115,0.28081138983384335],[128.81241728023338,0.2808114033236393],[128.81296481627328,0.28102331417466075],[128.81334387871709,0.28119284087694041],[128.81443329765864,0.28147269460919233],[128.81473121517354,0.28162258641327753],[128.81499189266174,0.281772477318043],[128.81547601210832,0.28184742771668425],[128.81622082433159,0.28106053621479532],[128.81622083332491,0.28053593198774252],[128.81648152430296,0.27986144584912154],[128.81704013189665,0.27933685241384865],[128.81763597771828,0.27899961563980469],[128.81864146293321,0.27862491490793673],[128.81964694634951,0.27847504468758189],[128.82006043574063,0.27837103629434523],[128.82054070968604,0.27825022766592156],[128.82169515410817,0.27802541604017961],[128.82307303599191,0.27787555031642341],[128.82413458674182,0.27780665235519564],[128.82422747771602,0.27780062330015198],[128.8252329584343,0.2778006376893245],[128.82556812137182,0.27761328462543133],[128.82627568817259,0.27720110734526315],[128.8271322150797,0.27675145981208971],[128.82787701920915,0.27656411214411492],[128.82869630339178,0.27626435011973172],[128.83027746173548,0.27580502857927058],[128.83169258814246,0.27546780439570284],[128.83236290772209,0.27546781338890014],[128.83307047272422,0.27516804956587748],[128.83383443331252,0.27463588114102322],[128.83403872420786,0.27449357331977353],[128.8346718091567,0.27408139334170301],[128.83571453889488,0.27351933235132719],[128.83664554315737,0.27325704237864556],[128.83705517985277,0.2734069350820505],[128.83727861191846,0.27408142931454904],[128.83730615455545,0.27463588114102322],[128.83731584115321,0.27483086315385208],[128.8376509923994,0.27546788713334536],[128.83802338906821,0.27580513739724211],[128.83847026668957,0.27595503099990992],[128.83943851367655,0.27554285461911832],[128.84063020172255,0.2750182665797638],[128.84115640134689,0.27463588114102322],[128.84130052939599,0.2745311442969296],[128.84219429812845,0.27400655176097644],[128.84260394111902,0.27378172664543854],[128.8445006257034,0.27353272415592755],[128.84546202525235,0.27357479623992731],[128.8460054280082,0.27328038338305305],[128.84642343109658,0.27298596872753933],[128.84692503606163,0.27256537559168237],[128.84792824419321,0.27180830830684499],[128.84826264810283,0.27142977286575842],[128.84830445578609,0.27088299315568065],[128.84826266429059,0.27021003226724361],[128.84822087189582,0.26953707227812629],[128.84826268137772,0.26877999240275585],[128.84863889207122,0.26789673674505821],[128.84909869924559,0.26722378215185927],[128.84972570567686,0.26659289064940594],[128.85018551015321,0.26617229571490952],[128.85054914202931,0.2658429999545433],[128.85060351504023,0.26579376117319953],[128.85140142143848,0.26549409357761533],[128.85210048425006,0.26546537822468963],[128.85306133611186,0.26558329373403922],[128.85312623838524,0.26559385267421476],[128.85318814771495,0.26561101623548211],[128.85325674440332,0.26563443098427797],[128.85333189175344,0.26566083238157034],[128.85340729091376,0.26569371069621184],[128.85401119106371,0.26606379700666594],[128.85408707495856,0.2661096138676271],[128.85415973298541,0.2661555656268888],[128.85423560788706,0.26620140856817898],[128.8543082569206,0.26624737022001455],[128.85438424873416,0.26629646241184446],[128.8544602504403,0.26634553481864032],[128.85453625124705,0.26639459913150176],[128.85461213514202,0.26644043397891437],[128.85469122781797,0.26648615101510131],[128.85477020268274,0.26652863678719996],[128.8548494032774,0.26657762016111519],[128.85492527008523,0.26662348198817654],[128.8549981430499,0.26667595742952699],[128.85542662773673,0.26710066136649857],[128.85576202179993,0.26743309576079355],[128.85633010914728,0.2679961702870628],[128.85638664412841,0.26804275606838246],[128.85644627997192,0.26808597478793672],[128.85650924960225,0.2681323249468619],[128.85656900325694,0.26817880191021004],[128.85661932032542,0.26823212721092204],[128.85666010098294,0.26828904440390033],[128.85669766476553,0.26834607760946483],[128.85673224639606,0.26840970824150645],[128.85677004400236,0.26847323005557655],[128.85680784160866,0.26853674197712962],[128.85684563921495,0.26860025479794558],[128.85688308698491,0.26865405044412682],[128.85691385728876,0.26870159400340299],[128.85694760165052,0.26874253294158734],[128.85697825594184,0.26878683804221737],[128.85700902624558,0.26883437260823939],[128.85704611428685,0.26887843399259737],[128.85708642819611,0.26892237666640995],[128.85712983397468,0.26896296396967045],[128.85717658343265,0.26900667192040828],[128.85722345789634,0.26905360933665179],[128.8572702163475,0.26909730829419232],[128.8573201907742,0.26914089933308105],[128.85766766003451,0.26932849971052519],[128.85805715011747,0.26953878908392426],[128.85813228937377,0.26956522555474294],[128.85822030512304,0.2695911835863285],[128.85831453159039,0.26961041918553974],[128.85841196683884,0.26962953697358216],[128.85914813567797,0.26962497471288316],[128.85945676591712,0.26962306275419223],[128.85949456262404,0.26968657467574531],[128.85954501459082,0.26974312134802858],[128.85960190120682,0.26979943239791737],[128.85960996542758,0.26980697141465271],[128.85966201279177,0.26985563373057175],[128.85972187256641,0.26990535005188576],[128.85977852625808,0.2699551832851057],[128.85982862658989,0.27000199389692625],[128.85987861090928,0.27004556694942039],[128.85992870314715,0.27009239644701211],[128.85997569542212,0.27014258221441878],[128.86002912144681,0.27019253235954466],[128.86016061492046,0.27030379108714442],[128.86085484027876,0.2708911886774672],[128.86094775283664,0.27096980381344338],[128.86096790214708,0.27099178864017404],[128.86097815531764,0.27100764009054501],[128.86098270678656,0.27101372940012425],[128.86110067895322,0.27117153703687791],[128.86114099376186,0.27122546488334365],[128.86119508978163,0.27129782793247159],[128.86113760601575,0.27152206669006773],[128.86099493666711,0.27180931644682005],[128.86088080100819,0.27205826677561618],[128.86073813165956,0.27232636726807868],[128.86063350723066,0.27255616743320843],[128.86045279386144,0.27285299227185078],[128.86011990171221,0.27326471629368143],[128.85997723236346,0.27348493957833853],[128.85972042915455,0.27385836507153272],[128.85942558102579,0.27427966417519656],[128.85910220100584,0.27457648721514261],[128.858826375337,0.27499778721812618],[128.85831277341583,0.27541908362383083],[128.85794183634675,0.27578293133723264],[128.8576564994479,0.27615635503178737],[128.85739018680772,0.2763861533983345],[128.85715240605873,0.27667340225576709],[128.85690511587848,0.27692235078592375],[128.85676244742911,0.27707555029644482],[128.85650564601883,0.2773053486629351],[128.85630591198833,0.27742024694686052],[128.85616324443822,0.2775351461301625],[128.85591595425797,0.27768834384204411],[128.85571622022746,0.27780324212596952],[128.85517408461635,0.27823411271418763],[128.85476510532544,0.27847348436387165],[128.85440368218428,0.27863625625826671],[128.85422296881507,0.27884690536046719],[128.85386154297589,0.27928735282910111],[128.85365229591673,0.27953630225857751],[128.85356669484713,0.27970865193276495],[128.85362376042826,0.27975652824125063],[128.85367131477938,0.27983312889580247],[128.85372837856187,0.27997675602250638],[128.85367131298074,0.27998633020501984],[128.85355718001995,0.27995760316088081],[128.85350011443882,0.27993845299727127],[128.85340500303857,0.27993845119863181],[128.85335744688871,0.28002462603569711],[128.85334793475943,0.28012995193580537],[128.85324331212917,0.28020655079171775],[128.85313868859964,0.28024485021973078],[128.85304357809866,0.28031187399380997],[128.85288188898801,0.280378897767946],[128.85273922143801,0.28047464678758161],[128.85260606421855,0.28061827031694975],[128.85254899773815,0.28067571990857232],[128.85243486387787,0.28073317039951462],[128.85229219722714,0.28076189204773527],[128.85215904180643,0.28077146623024873],[128.8520449097449,0.28076188934977608],[128.85186419727495,0.28086721255186831],[128.85173104095486,0.28098211173511345],[128.85163592865524,0.28111616108202497],[128.8515217938957,0.28127893567437923],[128.85142668159619,0.28134596034783499],[128.85130303740527,0.28140340904013783],[128.85120792600503,0.28147043281427386],[128.85113183526607,0.28159490797867193],[128.85098916771597,0.28170023118076415],[128.85090356844501,0.28173853060872034],[128.85080845524612,0.28186300487379867],[128.85072285417641,0.28198748003819674],[128.85061823064689,0.28212152938510826],[128.85051360801663,0.2821789780774111],[128.8503709413659,0.28226515201521352],[128.8502853402963,0.28232260070751636],[128.85016169520611,0.28241834972709512],[128.85000951732547,0.28251409874673072],[128.84986684977537,0.28257154743903357],[128.84978125140367,0.28257154743903357],[128.84961005106311,0.28260026908719738],[128.84943885072244,0.28266729196201368],[128.84930569440235,0.28278219114525882],[128.84922960366339,0.28291624139149008],[128.84914400259368,0.28303114057473522],[128.84900133504368,0.28313646467614717],[128.8488586665942,0.28325136296007258],[128.84877306642397,0.28334711287902792],[128.84866844379371,0.2834237117349403],[128.84854479870353,0.28349073640839606],[128.84848773132376,0.28353861001886571],[128.84846870796457,0.28365351010143058],[128.84844017157673,0.28379713542949503],[128.84831652828518,0.28385458412179787],[128.84811679515406,0.28385458232315841],[128.84799315006387,0.28395033044341744],[128.84798363703533,0.28409395667080162],[128.84782194792467,0.2841801297092843],[128.84768879340311,0.28420885315608757],[128.84760319143425,0.28434290340231883],[128.84751759216317,0.28429502619457026],[128.84741297133166,0.28418969939514227],[128.84731785993131,0.28425672406859803],[128.84723225706307,0.28447694915195143],[128.84713714566283,0.28454397292603062],[128.84697545655217,0.28455354620922435],[128.84686132269201,0.28466844539246949],[128.8466901232506,0.28471631810361941],[128.84663305587094,0.28473546736796607],[128.84651892201066,0.28484079057005829],[128.84641429758187,0.28493653958969389],[128.84629065339095,0.28504186459042558],[128.84617652043016,0.28507058803722884],[128.84608140902992,0.28507058713790911],[128.84594825270972,0.28516633525822499],[128.84583411884955,0.28526208427780375],[128.84565340637971,0.28541528288906193],[128.84553927341881,0.2855014568268075],[128.8453870946388,0.28554933043727715],[128.84521589339886,0.28564507855759302],[128.84508273707877,0.28577912790450455],[128.84501615756972,0.28582700241429393],[128.84489251427817,0.28587487512544385],[128.84477838041801,0.28591317455340004],[128.84435037956644,0.28614296932261141],[128.84412211094673,0.28635361842481188],[128.8440174874172,0.28648766687240368],[128.84380824215668,0.28655468974716314],[128.84363704181612,0.28664086278564582],[128.84346584057619,0.28667916041496255],[128.84338024130511,0.2867653352520847],[128.84329463933625,0.28688023443532984],[128.84313295112486,0.28688023173737065],[128.84280957290355,0.28703342944925225],[128.8426669035548,0.28716747699752432],[128.84245765919366,0.28731110142621219],[128.84221036811402,0.2875025976667871],[128.84202014441416,0.28770367168715438],[128.84127827117538,0.28836433974254305],[128.84095488935668,0.28872818655662513],[128.84058395498562,0.2889196827971432],[128.84015595143603,0.28930267887557193],[128.83991817068704,0.28956120158824206],[128.83969941239798,0.28980057503656553],[128.83945212041908,0.29008782299467839],[128.83905265055944,0.2904229445632609],[128.83821567041696,0.29080593434645152],[128.83769255456775,0.29118892862618395],[128.83736917634644,0.29138999994859205],[128.83700775140665,0.29162937159827607],[128.83681752770678,0.29180171857450432],[128.83667485925741,0.29198364333052496],[128.83656072359861,0.29206981726832737],[128.836066145936,0.29225173572905305],[128.83579983419509,0.29239535656051885],[128.83559058713593,0.29256770533538656],[128.83538134277478,0.29266345255632586],[128.83507698791277,0.2926825982233936],[128.83486774355163,0.29273047093454352],[128.83462996639992,0.29277834274637371],[128.83443974359932,0.29275918988474814],[128.83423050193619,0.29268258563286054],[128.83415441389513,0.29262513424259851],[128.83374543370485,0.29289323023840552],[128.83359325402557,0.2930751531957867],[128.83341254155562,0.293142176070603],[128.83323183178368,0.29318047369997657],[128.83302258742253,0.29329537108458226],[128.83281334126275,0.29338154322368837],[128.83264214182145,0.29339111560756237],[128.83240436466974,0.29339111201028345],[128.83218560997796,0.29339110931226742],[128.83183369896608,0.29344855440729134],[128.83140569901389,0.29354429803095172],[128.83100623275152,0.29364961763576503],[128.83071138732078,0.2937549381399549],[128.83045458680976,0.29386983642388032],[128.83019778539949,0.2941092071742446],[128.82981733889915,0.29429112743360974],[128.82945591395935,0.2945017729385313],[128.82911351327812,0.29465496885177345],[128.82884720243646,0.29473156500978348],[128.82861893741415,0.29473156141250456],[128.82843822314555,0.29488475912438616],[128.82815288984409,0.29499008142715866],[128.82801022139472,0.29510497881176434],[128.82786755204597,0.29531562701464509],[128.82784852778741,0.29549755266998545],[128.82793412436047,0.29568905520579847],[128.82793412256171,0.29579438110584988],[128.82785803092349,0.2959954560255369],[128.82755367606137,0.29599545062961852],[128.82709714421787,0.29602416868050341],[128.82669767705625,0.29615821443007917],[128.82631723235443,0.29626353223625301],[128.82586069871229,0.29638800110541297],[128.82567047681107,0.29641672275357678],[128.82532807702921,0.29649331801226708],[128.8249191004362,0.29657948655409427],[128.82485252542381,0.29640713508126737],[128.82471937000298,0.29636883295535199],[128.82451963687186,0.29637840443984942],[128.8243294158699,0.29637840174189023],[128.82414870429932,0.2964454237173868],[128.82398701608804,0.29644542191874734],[128.82385386066721,0.29643584413895496],[128.82354950580509,0.29648371505146542],[128.82329270529419,0.29656988629125181],[128.82324514824506,0.29670393563816333],[128.82303590298454,0.29681883302276901],[128.82273154722316,0.29690500336323566],[128.82245572335296,0.29705819927653465],[128.82201821037222,0.29725926880024645],[128.82155216639944,0.29735501242390683],[128.82129536498917,0.29751778341903901],[128.82099100832841,0.29767097843296142],[128.82066763100647,0.29769969828248577],[128.82051545132708,0.29786247197557714],[128.82034425188579,0.29788161944122749],[128.82016354121447,0.29789119092578176],[128.82011598686336,0.29780501518933988],[128.82003989792304,0.29785288879980953],[128.82005891588631,0.29807311478248266],[128.81988771374711,0.29824546355735038],[128.81970700217653,0.29835078586012287],[128.81961188897753,0.29848483430771466],[128.81935509026528,0.29849440579226894],[128.81930753501479,0.29845610456561644],[128.81918389082398,0.29846567784881017],[128.81912682344421,0.29855185178655574],[128.81887002293331,0.29862844794456578],[128.81873686841186,0.29866674557388251],[128.81857517660319,0.29881036910330749],[128.81823277412332,0.29904973895435205],[128.81783330156566,0.29942315905157102],[128.81754796556618,0.2997295553747108],[128.81753845073899,0.29993063119371755],[128.81742431418081,0.30017000644068048],[128.81730066729199,0.30035192939806166],[128.81685364038321,0.30074449875968412],[128.81665390275543,0.3010125965541306],[128.81653025586672,0.30120409459334496],[128.81633052093684,0.30134771722339337],[128.81618785338674,0.30144346534370925],[128.81598811755759,0.30158708707443793],[128.81582642844694,0.30174028568569611],[128.81572180401815,0.30181688364228876],[128.81547451473716,0.30193178012757471],[128.81520820209687,0.3020849760408737],[128.81493237822679,0.30224774703594903],[128.814723132067,0.30238179368490137],[128.8145043746772,0.30252541631494978],[128.81446632795871,0.3026594656618613],[128.81436170442919,0.30281266427306264],[128.8137625014383,0.30313820536395042],[128.81341058682915,0.3033584250513286],[128.81321085279865,0.30344459719043471],[128.8129920972076,0.30350204408409809],[128.81278285374572,0.30350203958749944],[128.81253556356546,0.3036073609909522],[128.81243094003594,0.30370311001058781],[128.81234533806696,0.30385630862178914],[128.81222169207751,0.30398078198754774],[128.81205049083758,0.30408610429032024],[128.81188879902891,0.30428717741136779],[128.81171759599033,0.30448825143167824],[128.81150834893117,0.30467974767225314],[128.81133714769123,0.30477549489324929],[128.81105181438977,0.30486166523371594],[128.81086159068991,0.30498613680083508],[128.81060479197765,0.30498613230423643],[128.8101482556375,0.30522550035658469],[128.80991998791717,0.3053212466782611],[128.8092922530351,0.30556061113333044],[128.80880718570313,0.30570422836751732],[128.80858843370936,0.30556059944217395],[128.80832212286771,0.30559889437353149],[128.80795118489937,0.30593401414347454],[128.80772291987694,0.30590528440137632],[128.80751367641506,0.30588613064048786],[128.80724736377488,0.30601060130823043],[128.80700958392526,0.30619252156765242],[128.80665767111475,0.30634571658157483],[128.80617260378267,0.30650848397942809],[128.805478284895,0.3070829736004157],[128.8044986318065,0.30778193298988299],[128.80377577922889,0.30836599679338406],[128.8031670560149,0.30915113821453133],[128.80275807402597,0.30948625618583492],[128.80253930944161,0.31000330430907752],[128.80232054665601,0.31046290104211494],[128.80213983058877,0.31070227359111868],[128.80190205343706,0.31076929466723868],[128.8015501451232,0.31069268771739189],[128.80128383518093,0.31069268232147351],[128.80101752344001,0.31081715298927293],[128.80070365285133,0.31102779759481791],[128.80037075980283,0.31134376720115142],[128.80015200421167,0.31139163811366188],[128.79993324772124,0.31144908410800554],[128.79968595933963,0.31151610518418238],[128.79946720105056,0.31165972601559133],[128.7993340438311,0.31181292372747293],[128.7992294194022,0.31194697217506473],[128.79910577431212,0.31200441996804784],[128.79890603938225,0.31210974227082033],[128.7987063035531,0.31222463875610629],[128.79843047878364,0.31247358368898404],[128.79810709786432,0.31270337755887567],[128.79794540695502,0.31284700108830066],[128.79770762710541,0.31298104683787642],[128.79724158133399,0.31317253768253295],[128.79673749064273,0.31334487836346625],[128.79618584380171,0.31358424371791216],[128.79566273334854,0.31367040866246043],[128.79527277741681,0.31378530155046747],[128.79499695264735,0.31395764672805626],[128.79474966156772,0.31406296633286956],[128.79458797155769,0.31413956339019933],[128.79441677211639,0.31419701028386271],[128.79424557357447,0.31418743340339006],[128.79399828429348,0.31421615235359468],[128.79379855206162,0.31423529802066241],[128.79362735082168,0.31431189507793533],[128.79357754276941,0.31432025067908853],[128.79345615138038,0.31434061672615599],[128.79326592857979,0.31434061312882022],[128.79309472913849,0.31437890985887407],[128.79291401666865,0.31452253158960275],[128.79276183788852,0.31456082831959975],[128.79264770402835,0.31461827701190259],[128.79233383793633,0.31465657014462067],[128.79216263759577,0.31466614162917494],[128.79198192872309,0.31463741368571618],[128.79117349216301,0.31438844626984519],[128.79058380939534,0.31421608400512469],[128.79044114544251,0.3141203295895707],[128.79035554617155,0.31409160434412797],[128.79017483639961,0.31405330041951629],[128.79002266031762,0.31401499739428118],[128.78984195144494,0.31399584363333588],[128.78959466126469,0.31404371364652661],[128.78921421476423,0.31423520628976576],[128.78884327859453,0.31440754876939536],[128.78851989857458,0.31459904321133081],[128.78819652035315,0.31475223732593349],[128.78780656262279,0.31490542964189672],[128.78669375681147,0.31545118232622826],[128.78633233097241,0.31571927562413293],[128.78591383865285,0.31593949261355192],[128.78521952336234,0.31632247879940678],[128.78493418826224,0.316466098731496],[128.78460129791165,0.31659056670133623],[128.78423036533911,0.31661928385290139],[128.78363116504624,0.31675332240797616],[128.78315560714566,0.31699268776236522],[128.78269906990624,0.31727035344408705],[128.782204490445,0.31747141757193731],[128.78167186696317,0.31761503210810815],[128.78121533242177,0.31776822262543192],[128.78036884104927,0.31806503037688572],[128.78003595159794,0.31814162383693656],[128.77965550599686,0.31829481525358005],[128.77928457342443,0.31833310658765868],[128.7791038663504,0.31819905364346823],[128.77891364984509,0.31795967389990665],[128.77854272086995,0.31784476572340736],[128.7780386328767,0.31789263034067972],[128.77701143712818,0.31793090818490555],[128.77620299876946,0.31784471536138881],[128.77548166244878,0.31792330261839652],[128.77461615041511,0.3181530838977551],[128.77355090704873,0.31835413633439202],[128.77267588918096,0.3183445405681482],[128.77183891263576,0.31846899774609483],[128.77089731256103,0.31867005198137122],[128.77006033781436,0.31872748358654235],[128.76868123555062,0.31862212710950644],[128.76748284665609,0.31845932463818372],[128.76655076680447,0.31825822903408607],[128.76602766444523,0.31801884119659007],[128.76564088042232,0.31784788187428603],[128.7656377148088,0.31784648342852506],[128.76513363670801,0.317482620426631],[128.76395428376327,0.31669744303263769],[128.76350727124361,0.31635273199304947],[128.76301269897692,0.31626654456545111],[128.76205207914018,0.31638142396360536],[128.76119607743703,0.31672610442620908],[128.76083464440342,0.31725272133604676],[128.76065336086401,0.31749408318546557],[128.76053979267738,0.31764528979834949],[128.75995010361441,0.31778890073724142],[128.7591892232042,0.31764525832204527],[128.7587041657647,0.31737714613842627],[128.75840932932715,0.31709946426889246],[128.75799084959806,0.31679305355663701],[128.7575723662718,0.31668771956265118],[128.75724899164766,0.31663983695898423],[128.75673539062586,0.31683132510562473],[128.75636445265741,0.3170994166048331],[128.75572720744469,0.31730047623602786],[128.75476658940659,0.31740577785438973],[128.75436712494297,0.31740576886119243],[128.75402472695964,0.3174249109309244],[128.75354916995832,0.31761639907762174],[128.75317254737524,0.31792262542887784],[128.75305458600042,0.31801853722578244],[128.7527882715616,0.31818130642221831],[128.75265511344276,0.31838237774456957],[128.75257902090516,0.31853557455718828],[128.75242684122577,0.31864089685996078],[128.75213199579503,0.31876536482974416],[128.75176106142396,0.31894728059256749],[128.75102870391163,0.31918663785307899],[128.7502487947462,0.31933024429537227],[128.74977324224142,0.31933980768604897],[128.74949742376714,0.31923447459138288],[128.74928818390265,0.31909084566603951],[128.74916454420838,0.31894721764001588],[128.74897432590444,0.31882273797901917],[128.74877459457196,0.31875570790964503],[128.7485177985576,0.31869825202278435],[128.74820393516359,0.3186695186834072],[128.74796615981052,0.31863121296015606],[128.74776642757865,0.31864078444471033],[128.74744305025661,0.31869822504307876],[128.74673922463558,0.31904290730437879],[128.74652998027443,0.31909077731756952],[128.74628269189282,0.31913864643144052],[128.74600686982126,0.31921523989143452],[128.74581664702066,0.31931098441447148],[128.74566446644201,0.31944503106336697],[128.7455694197929,0.3195311429479375],[128.74556935414239,0.31953120320252992],[128.74538864167255,0.31964609878849615],[128.74517939641203,0.31978014363875218],[128.74499868214355,0.31992376357089825],[128.74484650156489,0.32002908497435101],[128.74470383311552,0.32017270670507969],[128.74452311884693,0.32034505188266849],[128.74428533719856,0.32055569558895058],[128.74404755375167,0.32085251413224114],[128.74388585834572,0.3211780606190473],[128.74374318719845,0.3214078562875784],[128.74366709196283,0.32165680391841533],[128.74349588262896,0.32209724958846664],[128.74339125640142,0.32230789689197081],[128.74339125280414,0.32242279697453569],[128.74325809288678,0.32264301756123359],[128.74313444419931,0.32281536543683842],[128.74282057181199,0.32313133144583617],[128.74267790156398,0.32330367842206442],[128.7424686554042,0.32345687343598684],[128.74190749733316,0.32370580757702783],[128.74155083160565,0.32376324907471599],[128.74101820992246,0.32386377259507526],[128.74051887934286,0.32391163541370815],[128.74008612557429,0.32392598589558474],[128.73883065760879,0.32434246643174447],[128.73848825782693,0.32440948121262636],[128.73819341509409,0.32443819836419152],[128.73778443760182,0.32454351257308645],[128.73754665955073,0.32459138168695745],[128.73728986083847,0.32461052465600915],[128.73687137571346,0.32461051386417239],[128.73663360125977,0.32453390781364533],[128.73648142517766,0.32452432913453322],[128.73616755998501,0.32454347030494546],[128.73594880439384,0.324581765236303],[128.73571102634287,0.32468708394179657],[128.73555884756286,0.32475410411865369],[128.73533058164105,0.3247923981506915],[128.73475040740539,0.32484983335319839],[128.73443654131336,0.32487854960544382],[128.73416072283919,0.32480194265559703],[128.73387539403427,0.32470618464276413],[128.73368517303243,0.32470618014616548],[128.73347592957055,0.3247348990963701],[128.73316206167988,0.32486894124866694],[128.73292428093089,0.32504128462761628],[128.73268650198054,0.32517532767928969],[128.73244872213093,0.32530937073090627],[128.73220143284993,0.32538596419095711],[128.73192561077838,0.32546255675163138],[128.73164978960619,0.32551999914869612],[128.73126934670302,0.32555828958345501],[128.7309364599497,0.32555828059020087],[128.73081728898671,0.32557914216374684],[128.73071770525792,0.32559657462229552],[128.73044188138783,0.32574019185642555],[128.7300899685772,0.32586465712824975],[128.72978561461446,0.32591252444348129],[128.72950979344228,0.32599869118666902],[128.72930054638323,0.32612316005582898],[128.72895814570188,0.32622847516404363],[128.72885352307173,0.32628592295702674],[128.72869182856505,0.32649656756257173],[128.72853964888577,0.3266593385577039],[128.72844453568689,0.3267646608604764],[128.72824480075701,0.32686040538345651],[128.728092621977,0.32693700064208997],[128.72798799844747,0.32705189802669565],[128.72782630843744,0.32714764344905234],[128.72768363998807,0.3272242387076858],[128.72750292661885,0.32733913339433229],[128.72731270381826,0.32743487881663214],[128.72713199044904,0.32754977440259836],[128.7269798125684,0.32762636876196893],[128.72682763378828,0.32769338983814578],[128.72668496803692,0.32770296042332347],[128.72644718908657,0.32781785421065024],[128.72610478840534,0.32797104382865427],[128.72573385133626,0.32818168303828088],[128.72541047221557,0.32831572429131484],[128.72517269236596,0.3284593424247646],[128.72493491341561,0.32859338457706144],[128.72453544355596,0.32875614927689867],[128.72418353434273,0.3288231640578374],[128.72343215526985,0.32906251772106998],[128.72309926312062,0.32927315783001632],[128.72293757311058,0.32936890325231616],[128.72251908169028,0.32957954066330331],[128.72220521559825,0.32960825691554874],[128.72182477359445,0.32967527079716774],[128.72142530643282,0.32978058410674294],[128.72096877458932,0.32987632143510837],[128.72061686357745,0.32996248637971348],[128.7202839750255,0.33003907624242856],[128.71996059500555,0.3302209920052519],[128.71977988343497,0.3303263116100652],[128.71957063727518,0.33039332998822601],[128.71940894816453,0.33046992524691632]]]]},"properties":{"OBJECTID":672,"nama_kawasan":"Kecamatan Perbatasan Prioritas Kec. Patani Utara Kab. Halmahera Tengah","delineasi_asal":"Patani Utara","Shape_Length":0.41035868753257054,"Shape_Area":0.0034144435549178717}}]}