{"type":"FeatureCollection","features":[{"type":"Feature","id":430,"geometry":{"type":"MultiPolygon","coordinates":[[[[119.10592095688673,-9.7195632720273579],[119.10598212607431,-9.719372133716945],[119.1059676191104,-9.7192759503247999],[119.10589460225412,-9.7192128943595435],[119.10551367101914,-9.7191501261773396],[119.10549896260704,-9.7191742396993277],[119.10545240110753,-9.7192655559605896],[119.10571833063648,-9.7197119722296748],[119.10577039328905,-9.7197597846862891],[119.10592095688673,-9.7195632720273579]]],[[[119.10046498856843,-9.7168119940782276],[119.10050290938182,-9.7164510538730156],[119.10046708129084,-9.716324753084848],[119.1004202832695,-9.7162194577617242],[119.10039698723119,-9.7160896918857134],[119.10025298328856,-9.7158667337627094],[119.0999880645976,-9.7158307545856246],[119.09978886206636,-9.7159451078803727],[119.09973244309788,-9.7160108231409481],[119.09980183208893,-9.7162298512266148],[119.09981692631015,-9.716479763829966],[119.09970359374597,-9.716621273952569],[119.09968350019346,-9.7167157729145401],[119.09968636633278,-9.7168464749847772],[119.09972924061208,-9.7169116866249965],[119.09999235436374,-9.716858896420888],[119.10009484829868,-9.716850270123814],[119.10026735355564,-9.7168878186178631],[119.10038855069115,-9.7168713799102306],[119.10046498856843,-9.7168119940782276]]],[[[119.09623659844033,-9.7148609131006083],[119.09627361273715,-9.7147234589204459],[119.09623388608509,-9.714600163666546],[119.09608853765599,-9.7144034585527379],[119.0960524370704,-9.7143582721164989],[119.09593698300546,-9.7143791876493424],[119.09590604632706,-9.7144452095786846],[119.095961321358,-9.7146015971858901],[119.09601419519902,-9.7147895420037003],[119.09609276536889,-9.7148738669353634],[119.09621485463185,-9.714910425275832],[119.09623659844033,-9.7148609131006083]]],[[[119.10134496170065,-9.6173189259276342],[119.10117497814281,-9.617316315195751],[119.10087821805541,-9.6173116908817633],[119.10076423168402,-9.6172147493611533],[119.10075395243302,-9.6170597089383705],[119.10082688565228,-9.6168842700929531],[119.10112222031432,-9.6165488607412613],[119.1012607473856,-9.6164641428059099],[119.10134496170065,-9.6163738940399526],[119.10137790476654,-9.6163385911530099],[119.1014238088618,-9.6161932966832637],[119.10139784273633,-9.6160227807267233],[119.10136541767997,-9.6158772371447299],[119.10124663342549,-9.615344046190728],[119.10115952868932,-9.6147024887288239],[119.1011549268585,-9.6146893397411759],[119.10109048503796,-9.6145051927604186],[119.10090459067442,-9.6142774718277906],[119.10076069195247,-9.6142331919082267],[119.10047825806521,-9.6142182613636464],[119.10042030755119,-9.6142151982727455],[119.09968421605379,-9.6142080630516489],[119.09927062593874,-9.6138272847013582],[119.09612630828258,-9.6156339435515861],[119.09551144269903,-9.6162178580676709],[119.09393379890571,-9.6177160863283007],[119.09266900766863,-9.6184985666554894],[119.09178797423567,-9.6190003451897041],[119.0906839619953,-9.6194318318135288],[119.08825020858035,-9.6204284110422691],[119.08661789140262,-9.6212539652981945],[119.08542016261049,-9.621997512175426],[119.08180531516325,-9.6228804161981998],[119.08089874008488,-9.6227947548740076],[119.0804418835861,-9.6228233092483038],[119.08014921001813,-9.6230874293413535],[119.07994933479404,-9.6235228702842051],[119.07995050930867,-9.6238796052595035],[119.07985299491986,-9.6238960565577258],[119.07890813300401,-9.6242286159578043],[119.07878533687381,-9.6242718355766783],[119.07740223802296,-9.6250003044204391],[119.0770289968907,-9.6252557964178322],[119.07581099468177,-9.6260895237124942],[119.07431214319092,-9.6267616806070464],[119.07303123700206,-9.6275358619903955],[119.07169461421518,-9.6283250557566475],[119.07046970521276,-9.6290904543609486],[119.06938730458046,-9.6298182100422878],[119.06848229791979,-9.6304507733844389],[119.06774636110572,-9.6311165846626068],[119.06771167515376,-9.631167444921573],[119.06757501687355,-9.6314113986171037],[119.06750564317099,-9.631501595222403],[119.06745692329844,-9.6316388380618605],[119.0673715812336,-9.6317963399291102],[119.06729377278941,-9.6318669268171675],[119.06674288317754,-9.6321638667689626],[119.06666623126159,-9.6322325740740098],[119.06659445457046,-9.6322939869778565],[119.06654401429489,-9.6323289903905334],[119.06634670213862,-9.6324344026255062],[119.06586509809586,-9.6326916986629385],[119.06581114686696,-9.6327833143984094],[119.0656613324046,-9.6330273328450744],[119.06552312279393,-9.6331715013636767],[119.06546561474636,-9.6332101047624974],[119.0651045486361,-9.6334193338351497],[119.06493604895957,-9.6335621443774357],[119.06469439123327,-9.6337166524015174],[119.06454419365969,-9.6337916612561116],[119.06439551863832,-9.6338659101835447],[119.06432050258923,-9.6338916388879738],[119.06453016333649,-9.6352726252314369],[119.0645527812859,-9.6357292748861028],[119.0645864132324,-9.6364082774200028],[119.06429343389493,-9.6366618583580248],[119.0641446770353,-9.6365977187097087],[119.06377787235101,-9.6362575339579735],[119.06327273125157,-9.6359791182416643],[119.06245649037476,-9.6355292341867766],[119.06242868513573,-9.6354866629790763],[119.06222048308894,-9.635167886588647],[119.06201903135332,-9.6348594470058515],[119.06191865712037,-9.6347057663579676],[119.06184277412478,-9.6345895838421711],[119.06173784572502,-9.6344441032127293],[119.0617343203827,-9.6343292391030673],[119.06131434867837,-9.6333210936934961],[119.06149518795257,-9.6326548453448027],[119.06163983670911,-9.6317001610335637],[119.06165129227338,-9.6316245559284539],[119.06173313417685,-9.6310844006245588],[119.06189704281428,-9.6301219299830336],[119.06184987966833,-9.6300369503449588],[119.06177808319205,-9.6298852778832043],[119.06159265287874,-9.6297143662249596],[119.06157786262827,-9.6297007334021032],[119.06145830855417,-9.6295783923288809],[119.06104917008315,-9.6286821072933435],[119.06104014988307,-9.6286623473893656],[119.06072789987275,-9.6279783149472564],[119.06101604355558,-9.6278051855608169],[119.06107863187344,-9.6277737326715851],[119.06105103797506,-9.6275604989178305],[119.06115165862218,-9.627379019326213],[119.06117854925071,-9.6273305188883],[119.0613789910476,-9.6271900492812961],[119.06143275791555,-9.6271652639657077],[119.06161713242477,-9.6271597007595346],[119.06171352535898,-9.6271625156375649],[119.06178037916118,-9.627068383598953],[119.06170715995756,-9.6266725928658161],[119.06163355314607,-9.626577466177082],[119.06158479280396,-9.6265314433713911],[119.06157061858926,-9.6263738407801043],[119.06157413044184,-9.6263135915989437],[119.06150902492163,-9.6262553739862824],[119.06149042784102,-9.6260728583756645],[119.06148174488669,-9.6260278401126698],[119.06146517487798,-9.6259419377701647],[119.06144238066145,-9.6258546729547447],[119.06134671078212,-9.6256502489598006],[119.06133083235204,-9.6256213960105583],[119.0613119753674,-9.6255871318406321],[119.06128827193629,-9.625544062408494],[119.06129953864286,-9.6250006407669275],[119.06130629884672,-9.6246980971394009],[119.06128118707716,-9.624702278087625],[119.0594021939562,-9.6229516398062742],[119.05916678741733,-9.6227323131456615],[119.05763999039334,-9.6213098122979659],[119.05649059476525,-9.6202389319810777],[119.055597686684,-9.6219884380159328],[119.05538615624619,-9.6222200008523373],[119.05436557321275,-9.6233587997687664],[119.05337889012378,-9.6250004878821755],[119.05331910589211,-9.6251000032625029],[119.05306602767507,-9.6254943568790168],[119.05301073195983,-9.6256106733937941],[119.05273429205397,-9.6259736118926185],[119.05253178181636,-9.6262481893024301],[119.05174907486003,-9.6273619870660241],[119.05170642181395,-9.6274183493772512],[119.051289422369,-9.6280103937646118],[119.05097851504649,-9.6283808640855568],[119.04976754733445,-9.6296990022071327],[119.04904940810377,-9.6302482829318592],[119.04837284003463,-9.6306508626471441],[119.04738367032019,-9.6313184698714167],[119.0471907666406,-9.631584252810967],[119.04690830937102,-9.6319627540777901],[119.04647373627392,-9.632400096187439],[119.04623098317336,-9.6325449059226003],[119.04467504541708,-9.6334569084095278],[119.044046377938,-9.6338594431587126],[119.04348211001138,-9.6341252395881156],[119.04298891820406,-9.6342459753714138],[119.04268904556307,-9.6342607809102674],[119.04145212161814,-9.6339332379285452],[119.04124832714865,-9.6337669631747644],[119.04122410930529,-9.633741595997833],[119.04068682643594,-9.6331793758274671],[119.03972485671682,-9.6317892667611886],[119.03948903019466,-9.6314599071489511],[119.03912121287374,-9.6309753182562758],[119.03890604377898,-9.6308432177402779],[119.03847901509448,-9.6306998909871595],[119.03821418903362,-9.630700283091528],[119.03817951567214,-9.6307082852591179],[119.03742199692772,-9.6307429406341498],[119.03681446621465,-9.6305567512929997],[119.03655544797562,-9.6304779742790174],[119.03640289417831,-9.6304315773553526],[119.03591496790148,-9.6302831802245237],[119.03564612097182,-9.6302014102668068],[119.03526750009507,-9.6301476901637102],[119.03473885971061,-9.6301489582078261],[119.03451688904329,-9.6302226774345741],[119.03443222236922,-9.6302919279301022],[119.03430943523233,-9.6303923516256873],[119.03415854338209,-9.6306108652991611],[119.03408713721171,-9.6308525437098638],[119.03398120157124,-9.6313148779792073],[119.03390409459837,-9.6319982826945534],[119.03371263702866,-9.6337772361304701],[119.03333717007445,-9.6350902517136774],[119.03321073258928,-9.6353194727154232],[119.03266265425816,-9.6359378618428195],[119.0324906049575,-9.6360146900258883],[119.03227567058582,-9.6360098939413774],[119.03204196466504,-9.635912205983459],[119.03184873183352,-9.635729970062016],[119.03161384420366,-9.6353733484012878],[119.03136816830636,-9.6348761698992575],[119.03121980984645,-9.6345933286191894],[119.0308176591077,-9.6340336130607511],[119.03060032894211,-9.6337923933042475],[119.03036723006369,-9.6335786622254318],[119.03009272100235,-9.6334842370079059],[119.02957772962861,-9.6334068152722807],[119.02953551365306,-9.6334016990291502],[119.02916870717013,-9.6334217548101151],[119.02892461228112,-9.6334124450282843],[119.02840099191235,-9.6333487091755501],[119.02791013924161,-9.633378220428483],[119.02750473475578,-9.633397537866017],[119.0272461400973,-9.6334098630746894],[119.02716451762842,-9.6334216181131183],[119.02694127262168,-9.6334305852532793],[119.02685518681744,-9.6334661903123902],[119.02680645975033,-9.633485901652989],[119.02654269399022,-9.6335926197035633],[119.02643146763819,-9.6336376190807869],[119.02638150130531,-9.6336578340417418],[119.02620054691772,-9.633708066573945],[119.02609996314288,-9.6337359923221584],[119.0259726659059,-9.6337367495513035],[119.02592642006834,-9.633737024743823],[119.0258337071599,-9.6336844944437985],[119.02573184814639,-9.6336484307304318],[119.0255563634355,-9.6336677751476714],[119.02543908014945,-9.6337429162025501],[119.02540268638495,-9.6337515146206556],[119.02534474216623,-9.63382476709927],[119.02522561526996,-9.6339995566341941],[119.02518107005039,-9.6342746817311422],[119.02516325178271,-9.6343847407631529],[119.02511733869426,-9.6344399933109912],[119.02507479896292,-9.6344438585971375],[119.02503432227627,-9.6344588368058339],[119.02496236662,-9.6344498327935071],[119.02459889572253,-9.6343533607189897],[119.02455482804294,-9.6343374939801265],[119.02415028330904,-9.6341917849229048],[119.024119713554,-9.6341773211264012],[119.02390841694,-9.634046801618581],[119.02341922082041,-9.633599441960655],[119.02317628156015,-9.6333308477404103],[119.02278833741195,-9.6328868983116536],[119.02252764283651,-9.6325677424073319],[119.02232720643553,-9.6322818650160116],[119.02207421095613,-9.6314423047185187],[119.02199732791439,-9.6311584418086227],[119.02193060541322,-9.6309546401444663],[119.02182001937842,-9.630627422717339],[119.02161903079366,-9.6304141161185157],[119.02136555417701,-9.6302122327083453],[119.02091262142039,-9.6299948476840314],[119.02078168642572,-9.6299236285725556],[119.02049814367444,-9.6297823639648641],[119.02022184496229,-9.6296007368844698],[119.01971193206009,-9.6292693825758988],[119.01884754327955,-9.6287698028840509],[119.01849355843103,-9.6285001483631163],[119.0179152062218,-9.6278177472911466],[119.01750714963532,-9.6272378419528195],[119.01726353588356,-9.6269537389238735],[119.01722586777964,-9.6269221673240963],[119.0170633414001,-9.6267859218327771],[119.0170112859422,-9.6267568269659591],[119.01691174807877,-9.6267625556473604],[119.01678646172593,-9.6267633029839885],[119.01659096170363,-9.6268032688557241],[119.01636792713816,-9.6268798317387905],[119.01618527033406,-9.6270318576340514],[119.01609676715213,-9.6271037440425289],[119.01581144194461,-9.6274159328989413],[119.01552558883486,-9.6276246808342876],[119.01536073321131,-9.6276590493256435],[119.01517348716675,-9.6276784980641992],[119.01456014863197,-9.6276949916305057],[119.01410343782345,-9.6277098547259925],[119.01395696973839,-9.6277079724449095],[119.01347717872886,-9.6277530842373835],[119.01319429697924,-9.6277591861374958],[119.01291748295557,-9.6277777733255334],[119.01265502121237,-9.6277708188681572],[119.01226393213483,-9.6278507380210954],[119.01219707563462,-9.6278732552464703],[119.01171766593757,-9.6280369714290259],[119.01102365371867,-9.6283315659489404],[119.00994611212343,-9.6287700250165926],[119.00951341860946,-9.6289825959700011],[119.00919136958612,-9.6291496306508861],[119.0088268383879,-9.6293070488811736],[119.00856648735362,-9.6294250237457959],[119.00820125828147,-9.6294659932609079],[119.00788282363351,-9.6294202321579405],[119.00681470603388,-9.6292762444031155],[119.00622761511238,-9.6291587443805042],[119.00609307743366,-9.6291318150811662],[119.00568128866064,-9.6290586579306705],[119.0050398040438,-9.6289797100455417],[119.00454329913396,-9.6288920090589158],[119.00409926786699,-9.6288428350287631],[119.00365481841516,-9.6288360874154364],[119.00348630524888,-9.6289240564000238],[119.00344820367172,-9.6291053965967421],[119.00350134011478,-9.6292603983486629],[119.0036195506018,-9.6293890877361719],[119.00375115019551,-9.629569462960319],[119.003804807346,-9.6298150219456602],[119.0037406793889,-9.6300094589693117],[119.00369352523603,-9.6300838616808164],[119.00366028179667,-9.6301597977364395],[119.00352495990899,-9.6303093738784469],[119.00349467883643,-9.6303473657383165],[119.00335076392662,-9.630401596656327],[119.00311626570317,-9.6305028872983485],[119.00302565990637,-9.6305656833595776],[119.00326246668953,-9.6307272726454585],[119.00355017959714,-9.6310620227940831],[119.00383787092107,-9.6313967738419706],[119.00441331292416,-9.6320663164073039],[119.0048965789141,-9.6326447180792343],[119.005234245564,-9.6331045081664683],[119.00548550085523,-9.6335299927149549],[119.00569760416113,-9.633935004197042],[119.00577414815848,-9.6340755709308041],[119.00601042524102,-9.6345093966912714],[119.00622809624974,-9.6351692049947815],[119.00631121968706,-9.6368526917982535],[119.00637586475443,-9.6376406471980545],[119.00644816125373,-9.6379316462284237],[119.00696187738879,-9.6396736815950703],[119.00754758605228,-9.641836622162316],[119.0077852939562,-9.6426243770133624],[119.00826998806951,-9.6440781320001179],[119.00846174421417,-9.6445856536049632],[119.00882202521632,-9.6455585797646108],[119.00911293701245,-9.64633197424115],[119.00928763031993,-9.6466569325713181],[119.01057200429466,-9.6482238681369381],[119.01140062433944,-9.6495405727391699],[119.01173018629913,-9.6501160687015499],[119.01296893856568,-9.6520031629156051],[119.01346658111788,-9.6526518672898192],[119.01410996690151,-9.6534014540138173],[119.01462319380539,-9.6540583512119156],[119.01482996862819,-9.6542964098513835],[119.01519723556407,-9.654777378972824],[119.01528564431715,-9.6550204702184601],[119.01518469631674,-9.6553524630456877],[119.01507844321566,-9.6555595643224024],[119.01493017558721,-9.6558008488300402],[119.01485290943424,-9.6560248078985182],[119.01488494418493,-9.6562453504425321],[119.01496879607316,-9.6565657537065022],[119.01496445504563,-9.656862395083408],[119.01496158171165,-9.657002383553106],[119.01518250197091,-9.6572465261062348],[119.01563606515231,-9.6576488387228778],[119.01607500805528,-9.6581155679790527],[119.01623315923302,-9.6583676407539656],[119.01636816365988,-9.6587292698399096],[119.01643451204313,-9.6592416208040959],[119.01647123675821,-9.6595254126676195],[119.01664240742127,-9.6598972841322848],[119.01701403337097,-9.6605159673379717],[119.01715061161156,-9.660803291738489],[119.01736430132155,-9.661453446719122],[119.01757857559085,-9.6619130533446764],[119.01799135092017,-9.6626279918882574],[119.018543647971,-9.6633163968342046],[119.01919672125177,-9.6638183948030587],[119.01945401998705,-9.6640062586818658],[119.01949271601609,-9.6640792251760672],[119.01978190201328,-9.6639695330674726],[119.02013406213734,-9.6639790505926726],[119.02018713472853,-9.6640031749065542],[119.02038358533423,-9.6640924703911537],[119.02065754401053,-9.6642169968168901],[119.02141305277019,-9.6643994647634486],[119.02152331684761,-9.664393649747069],[119.02210903000775,-9.6643109301052732],[119.023005342023,-9.6640360882947789],[119.02331306124881,-9.6640586028221946],[119.02381227131934,-9.6640951278877765],[119.02511149759755,-9.6641901889260566],[119.02692755706119,-9.6639681966748867],[119.0278288171462,-9.6638580288249045],[119.02918553168695,-9.6636649623680455],[119.03006117368432,-9.6635412300436769],[119.0311998943597,-9.6631927256636914],[119.03195839696252,-9.6626137960897722],[119.03231666438262,-9.6630577167401839],[119.03413372029502,-9.6622697559444077],[119.03494209120458,-9.6629386509978872],[119.03506705829818,-9.6630249121699308],[119.03924718181202,-9.6659103311967556],[119.03996288477936,-9.6666276376553242],[119.04058422278376,-9.6665980499599868],[119.04059139307844,-9.6665977091169566],[119.04070614926945,-9.6665922448361812],[119.04686694235556,-9.666340020075836],[119.04538325523311,-9.6615746807269147],[119.04533767579312,-9.6614128792009524],[119.05053727167785,-9.6606549296811863],[119.05058414344353,-9.6606473331078746],[119.0511359000019,-9.6605482727845242],[119.05161564244804,-9.6605125310284166],[119.05236077033339,-9.6602579581382315],[119.0529125673612,-9.6601630589779575],[119.05320098713594,-9.6600648700976421],[119.05330183980811,-9.6600342256988938],[119.0547677922998,-9.6610018818313392],[119.05507096005681,-9.6611959402404182],[119.05543312333998,-9.661433781243943],[119.05559718126494,-9.661541511031885],[119.05576848862495,-9.6616540090252556],[119.05596436276517,-9.6617826336615735],[119.05746866864422,-9.6628198703406838],[119.05942555744355,-9.6641691960514891],[119.05963780464106,-9.6643155373321292],[119.06072154436379,-9.6650636869395612],[119.05841754963024,-9.6657079720452543],[119.0581356157661,-9.6656555199862169],[119.0579214647039,-9.6656840725618736],[119.05772159037917,-9.6657340415927138],[119.05760737558001,-9.6658125640985304],[119.05744319264932,-9.6658982254227226],[119.05727187179946,-9.6659481926549233],[119.05712910442469,-9.6659838849482753],[119.05685784641253,-9.6660552686357164],[119.05664369355168,-9.6661837601723732],[119.05637243643889,-9.6663122508096535],[119.05599410064724,-9.6665264018719199],[119.05573712027194,-9.6667191391769052],[119.05556579762356,-9.6668547677332981],[119.0553159551672,-9.6669047367641383],[119.05505897299327,-9.6669332902391147],[119.05483054519357,-9.6669903971890108],[119.0544879025947,-9.6671188878263479],[119.05429516618904,-9.6672331017261968],[119.05401676935844,-9.6672902086761496],[119.05365985002209,-9.66739014673783],[119.05324582373589,-9.6674472536877829],[119.05292459669283,-9.6674758071627025],[119.05263906104392,-9.6674115622936938],[119.05240349532517,-9.6673830079194545],[119.05233211073835,-9.6675043606376789],[119.05231783400086,-9.6687250239406808],[119.05240349532517,-9.6694888307449105],[119.05261050756894,-9.6706095577848146],[119.05295315016781,-9.6712091816583552],[119.05362415772879,-9.6720515109684015],[119.05442624597458,-9.6726165604059133],[119.05477279882564,-9.6729217192618648],[119.05394189720084,-9.6733973706920438],[119.05274510909953,-9.6739120661888478],[119.05198233022043,-9.6742644097746506],[119.05241063324422,-9.6752209529845459],[119.05261764638738,-9.6758562691514385],[119.05268189215565,-9.6763559558626184],[119.05278182931806,-9.6766629061681328],[119.05282743124098,-9.6768282762039348],[119.04965619507743,-9.6781614995535392],[119.04945326665495,-9.6782468137394062],[119.05012605397428,-9.6793543657113901],[119.0501812129927,-9.6794451702583615],[119.05038584563033,-9.6797640167959003],[119.05050481874241,-9.679925821019765],[119.05087601481625,-9.6805349633178821],[119.05103781904018,-9.6808109796429562],[119.05128528278965,-9.6810584442917502],[119.05140972827644,-9.681057096207951],[119.05178222476991,-9.6810038824231697],[119.05451047198073,-9.6860915046191849],[119.05468893074965,-9.6860915046191849],[119.05520289509764,-9.6859915665575045],[119.05537421594738,-9.6859415993253037],[119.05558122909054,-9.6857845543136705],[119.05579538105201,-9.6855704032514609],[119.05594528724532,-9.6852920064209229],[119.0560737778826,-9.685020746610121],[119.05633075915728,-9.6844639529490451],[119.0566519870996,-9.6840427887436817],[119.05682330794934,-9.6834859950825489],[119.05681616913091,-9.6832361517269874],[119.05673764662515,-9.6830862446344099],[119.05654491111886,-9.6829363393405288],[119.05633789797571,-9.6826508036916152],[119.05624509873235,-9.6823652689419646],[119.05624509873235,-9.6819369659181689],[119.05641641958221,-9.6812945109329007],[119.05655204903792,-9.6811374668205872],[119.05660915598787,-9.6807448560902003],[119.05660915598787,-9.680530704128671],[119.05663771036211,-9.6803522453598134],[119.05674478634285,-9.6802308917422124],[119.05693038393008,-9.6801309545798517],[119.05701604435501,-9.6800381562358666],[119.05701604435501,-9.6798882500426657],[119.05690182955584,-9.679702651556056],[119.0567519242619,-9.6795384686253669],[119.05671623196861,-9.6793742856946778],[119.05680903121186,-9.679181550188332],[119.05695893740506,-9.6790459207326194],[119.05712312033575,-9.6789531223886343],[119.05733013257964,-9.6789602603077469],[119.05757283801609,-9.678981674964291],[119.05802255569643,-9.6790173672576429],[119.05823670765801,-9.6789888137826665],[119.05841516732619,-9.6789102912768499],[119.05867214860086,-9.6787746618211372],[119.0589291307748,-9.6785819263147914],[119.05930032684864,-9.6784677124149425],[119.05971435313495,-9.6783534976157739],[119.05996084471724,-9.6781719937424668],[119.06006197168267,-9.6778805099775127],[119.06018689381017,-9.6776961021932948],[119.06032371306901,-9.6775949752278621],[119.06049622372177,-9.6775533339192066],[119.06062114584927,-9.6775116944091337],[119.06085909207354,-9.6773391828569402],[119.06108514116636,-9.6772023635981554],[119.06116842198514,-9.6770298529453385],[119.06133498362271,-9.6767681115590563],[119.06142421435607,-9.6766491393462388],[119.06157292984688,-9.6764825768094056],[119.061650263449,-9.6763457575506209],[119.06173949238371,-9.6761554007510995],[119.06189415688993,-9.6758520198548013],[119.06200123287067,-9.6756914063332715],[119.06211425696745,-9.6755724332211912],[119.06232245991362,-9.6754832033871025],[119.06261989269399,-9.6753939726536942],[119.06280430137747,-9.675310691834909],[119.06300655530833,-9.6752155138848366],[119.06311958030449,-9.6750905917573391],[119.06324450063323,-9.6749240301198256],[119.06348839587281,-9.6747812618457374],[119.06370849595044,-9.6747693647143365],[119.06391075078056,-9.6748110060230488],[119.06414869700484,-9.6748526464324414],[119.06438664322911,-9.6748585954478017],[119.06462458855401,-9.6748110060230488],[119.06491012420292,-9.6746801348802478],[119.0651480704272,-9.6746206492235274],[119.06538006763606,-9.6745968540615195],[119.06572508984107,-9.6745373684047991],[119.06600467557541,-9.6744421886560303],[119.06626046794634,-9.6743529588219417],[119.06648056802385,-9.6741685510377806],[119.06659954113593,-9.6740019894002671],[119.06674825842549,-9.6738949134194741],[119.06694456334094,-9.6738711182574662],[119.06717656144917,-9.6738949134194741],[119.06738476439546,-9.6738354268634339],[119.06760486357371,-9.6736807623572645],[119.06794988577872,-9.6734785066277595],[119.06847931576783,-9.6734368671176867],[119.06878269666413,-9.6734130719556788],[119.0690503861664,-9.6734011748243347],[119.06938946025548,-9.6733416882682377],[119.06976422483922,-9.6732227151561574],[119.07010329802881,-9.6729312313911464],[119.07024606540369,-9.6726754390202245],[119.0703509596292,-9.672472391887311],[119.0704913482972,-9.672346280856118],[119.07063411567196,-9.6722463427944376],[119.07092641422275,-9.6720374392763802],[119.07102449338572,-9.6721066888725318],[119.07200395671725,-9.6727982729219093],[119.0743505262559,-9.6744395536424577],[119.07565286868498,-9.6753383369946278],[119.07732686404358,-9.676406739679237],[119.08110279985442,-9.6809082467181611],[119.08166861461496,-9.6812183734291466],[119.08180569377782,-9.6812890781284295],[119.0819558257009,-9.6813770471129601],[119.0820884271393,-9.6814311503272847],[119.0824813553304,-9.6816844290930817],[119.08272523078483,-9.6818273961173986],[119.08291270885445,-9.6819163876311336],[119.08345133621026,-9.6823125012209061],[119.08359427085895,-9.6824251718841197],[119.08372214456142,-9.6825259678990392],[119.0839670020755,-9.6826718936928842],[119.08406825674467,-9.6827409877063815],[119.08420873714351,-9.6828541718824681],[119.08426572538303,-9.6829207361030285],[119.08445263418173,-9.6831022489695897],[119.08460317529637,-9.6832454534148837],[119.08476644631446,-9.6833719691410352],[119.08506952234063,-9.6837325469194866],[119.08517435001625,-9.6838393117348005],[119.08561265889716,-9.6842305303146645],[119.08609516136266,-9.684574499413543],[119.08615714983262,-9.6846126288696723],[119.08639944607762,-9.6847721236345592],[119.08658833698223,-9.6848974081888173],[119.08683120879334,-9.6850369254137263],[119.08688811699312,-9.6850811378841399],[119.08708143076353,-9.6852349858058915],[119.08712832141498,-9.6852824529228201],[119.08766624100429,-9.6856666253144681],[119.08772062840433,-9.6857052547936178],[119.08798961742696,-9.6858918587222433],[119.08827072301551,-9.6860708750707545],[119.08847263430471,-9.6862325551882122],[119.08871595667608,-9.6863936552429664],[119.08907719275828,-9.6866135313892983],[119.08912607001218,-9.6866463602412978],[119.08940711804416,-9.6868425221646248],[119.08948724044387,-9.6868897122903377],[119.08987605513585,-9.6871704185799103],[119.09023074595223,-9.6873866479753588],[119.0905423349609,-9.6875046300345957],[119.09071576382155,-9.6875639511154077],[119.09095883258408,-9.6876269603159244],[119.09136445470585,-9.6876917070066497],[119.09174239299705,-9.6877317960854725],[119.09197404936299,-9.6877296467058045],[119.09217089207311,-9.6877296467058045],[119.09242464658018,-9.6877210401938214],[119.09246870526658,-9.687713136951686],[119.09291535985608,-9.6877269604308367],[119.09307505157244,-9.6877407991984796],[119.09344026625536,-9.6877247427026418],[119.09375716216334,-9.6877433874473127],[119.0935146752621,-9.6888269239233296],[119.0933046466921,-9.6902049182223777],[119.09347236305916,-9.6904657737763955],[119.09348829544854,-9.690524406875852],[119.09349392610386,-9.6906707121835893],[119.09355192158398,-9.6909382497004231],[119.09356176736173,-9.6910564907643675],[119.09348173129695,-9.6917352720651024],[119.09340323307276,-9.6918637456153078],[119.09333876517189,-9.6921064888233559],[119.09334301806587,-9.6924234377913763],[119.09345545490544,-9.6925355247946072],[119.09345760698307,-9.6925901433203876],[119.0933869256661,-9.692821280777423],[119.09324585171476,-9.6929804805646995],[119.09299344079477,-9.6931858002844251],[119.09304822029924,-9.6937967987831826],[119.09307754988913,-9.6941239001977806],[119.09296990014082,-9.6955429215685172],[119.09289866933818,-9.6962105242961911],[119.0927726824134,-9.698220017140045],[119.09268129240775,-9.6988068769357483],[119.09260847430176,-9.699274920101459],[119.09260258284303,-9.6997579306839157],[119.09259555823849,-9.700343883063681],[119.09246640839808,-9.7018806472739811],[119.09232080096422,-9.7036047987224379],[119.09231574677437,-9.703656595175687],[119.09212539177349,-9.7056050537302099],[119.09200612728102,-9.7074898106062051],[119.09181599441263,-9.7093342409824004],[119.09167546005449,-9.7108963867588045],[119.09168627440215,-9.7120719922286298],[119.09164501890257,-9.7122699833730053],[119.09158719159564,-9.7127211318746731],[119.09152169666902,-9.7131502487849275],[119.09149402093237,-9.7133315853843101],[119.09135887711057,-9.7144703339387206],[119.09137470517851,-9.7153638022975883],[119.09149369897511,-9.7157559750581299],[119.09159229075169,-9.7156992251390761],[119.09163512636007,-9.7156061740856217],[119.09161416406243,-9.7154036323717037],[119.09160734810075,-9.7153377408440065],[119.09157349492091,-9.7150105980605872],[119.09157941515798,-9.7147592231595468],[119.09163676402545,-9.7146071522981856],[119.09186878371747,-9.7143732638150482],[119.09210385660776,-9.7142474279763746],[119.09242555399624,-9.7141879926816728],[119.09273438658272,-9.7143952414471642],[119.09300740456808,-9.7145743917947129],[119.093094684672,-9.7145956139963232],[119.0931635358686,-9.7145606933212889],[119.09321371444139,-9.7145134753166076],[119.09332309268666,-9.7145579431944498],[119.09339629840053,-9.7145579620802209],[119.09346420710756,-9.714476614803857],[119.09363535528746,-9.7145365932890968],[119.09370696200676,-9.7145627419769198],[119.09380732274985,-9.7144670729969675],[119.09376411931873,-9.7142045527978098],[119.09379844734053,-9.7140458917044725],[119.09423602417326,-9.714009820796548],[119.09448325230028,-9.7140387717718681],[119.09459814159106,-9.7141056894259918],[119.09471757515598,-9.714264273177605],[119.09454782722048,-9.7145782867584671],[119.09444236282479,-9.7146738846919902],[119.09440381968056,-9.7147173956911956],[119.09442699700833,-9.7147830533951378],[119.0945157627923,-9.7148103496178919],[119.09468661239725,-9.7147296156791754],[119.09492944913484,-9.7147096624209439],[119.09500665413384,-9.7147121796233478],[119.09505831389015,-9.7145853869060375],[119.09503722838542,-9.7144431195542893],[119.09500013494835,-9.7143293130473012],[119.09508987110075,-9.7140696580881922],[119.09516915803033,-9.7139654293610533],[119.09559366861299,-9.7137879562491207],[119.09593685979826,-9.7138071441843294],[119.09645010289,-9.7138328387144952],[119.09673183530606,-9.7138063365931089],[119.09690021717131,-9.713704995589012],[119.09702008331021,-9.7136172604281796],[119.09717107768313,-9.7135901881366067],[119.09743776713935,-9.7136989602387871],[119.09768676783017,-9.7139180198007011],[119.09771698415159,-9.7139551042446328],[119.09772573725309,-9.7140737985669148],[119.09786578597732,-9.7142403808888389],[119.09825923487585,-9.7143280369093077],[119.09890655339484,-9.7142485350418042],[119.09922420383396,-9.7141959363933097],[119.09939624414142,-9.7142241643136913],[119.09948798398329,-9.7142998962231673],[119.09957355537529,-9.7144368368904566],[119.09992878218759,-9.7143333168290837],[119.10013638168869,-9.7142835879171798],[119.10027512639601,-9.714304504349343],[119.10042239038103,-9.7144330372548211],[119.10055778601304,-9.7145364053308185],[119.1007456768715,-9.714493815237347],[119.10091162427216,-9.7143533950930419],[119.10121372093658,-9.714178491344228],[119.10138161716793,-9.7140326635765177],[119.10163073387139,-9.7139865031745103],[119.10229260971619,-9.7139353794141812],[119.10275643596083,-9.7139453996604175],[119.10441797031319,-9.7139855957585723],[119.10458744755272,-9.7140264303754407],[119.10467259266613,-9.7140801459818817],[119.10467553075125,-9.7141297372974691],[119.10469123201483,-9.7142350380165681],[119.10476516438086,-9.7143167252366425],[119.10486912690874,-9.7143172540380078],[119.1049530138705,-9.7142459422963725],[119.10499301481582,-9.7140377195650558],[119.10495740705881,-9.713767223278694],[119.10495496629869,-9.7136470189946635],[119.10501588817272,-9.7135594574029938],[119.10512042536743,-9.7135353681626384],[119.10524949876537,-9.7135882357084711],[119.10538901868836,-9.7137840540907519],[119.10543762074963,-9.7139424247030774],[119.10547421506305,-9.7141218043777258],[119.10562476876817,-9.7142633342854197],[119.10564646491252,-9.7142837228155372],[119.10595747295906,-9.7144232049668631],[119.10634810967758,-9.7146199856238127],[119.10663513010718,-9.7151125533016511],[119.10682329975555,-9.7153980179041355],[119.10728940668082,-9.7157952286668205],[119.1081309391916,-9.7162975324051217],[119.10897244022601,-9.7167998433380376],[119.10935405314706,-9.716974676939742],[119.10997654498158,-9.7172811640944019],[119.11059905210459,-9.7175876548463407],[119.11102646659822,-9.7178194928752646],[119.11162513179443,-9.7181584734347553],[119.11201221169426,-9.7183630647036239],[119.11211308055431,-9.7184372084104211],[119.11253622956337,-9.7178808428266166],[119.11259439411606,-9.7178043339028477],[119.11272279572052,-9.7175499138973578],[119.11301808631572,-9.7169647754039943],[119.11316941433711,-9.7166331773792081],[119.11342463024255,-9.7160673122565981],[119.1138305770196,-9.7156472371302698],[119.11388167469954,-9.7155976503112811],[119.11426271025596,-9.714800900441162],[119.11437083664487,-9.7141394940423424],[119.11454962276696,-9.7138933073302383],[119.11518211865996,-9.7135528653723782],[119.11614062059323,-9.712940533178994],[119.11623593164302,-9.7128796472778731],[119.11660555390324,-9.7125369309345615],[119.11682851292562,-9.7122480803845406],[119.11702763541712,-9.7119305459578982],[119.11714384940922,-9.7117392097966331],[119.11738333976939,-9.7110112787474918],[119.11746652525994,-9.7107584307569255],[119.11786105064698,-9.7098339285929001],[119.11841233596056,-9.7088233694029213],[119.11859066073043,-9.7085778652761974],[119.11860696723784,-9.7085467856056198],[119.11897723790923,-9.7080456473886443],[119.11937169314922,-9.7074133700309631],[119.11937734808623,-9.7074045566749305],[119.11948683514936,-9.7072339292024026],[119.11963311437682,-9.7070293469267881],[119.11981283489445,-9.706777993609478],[119.12033867838738,-9.7062782430464267],[119.12063724521272,-9.7060068663237757],[119.12096258305678,-9.705451649174222],[119.12108814280361,-9.7049543699481546],[119.12137085997722,-9.7044419596286957],[119.1214580663368,-9.7043352730543688],[119.121445355319,-9.7043227472968852],[119.1206722486254,-9.7035608911222084],[119.11921933540407,-9.7020730347427389],[119.11740196203095,-9.7002238001881551],[119.11647448041299,-9.6986589753313979],[119.11547076776174,-9.6969655177443883],[119.11496887771159,-9.6960443934339651],[119.11511760399424,-9.6950152641430805],[119.11554076739253,-9.6940228721578023],[119.11612455870147,-9.6920186520391098],[119.11598898860098,-9.6900065682484637],[119.11535609430837,-9.6893612516204257],[119.11447833530701,-9.688419227964971],[119.1134129282641,-9.6868438882348187],[119.11253121674235,-9.6860230671107956],[119.11214474388487,-9.6856632843330317],[119.11152502196228,-9.6838560580106332],[119.1111130848011,-9.6819792916109577],[119.11104379563471,-9.6809789469208454],[119.11015581583831,-9.6801087323320871],[119.10925825286608,-9.679509080579578],[119.10692883070101,-9.6779528226645652],[119.10404686327217,-9.6760963287824779],[119.101416959625,-9.6745881863956242],[119.09930263730689,-9.6732772743267219],[119.09519754603002,-9.6716200657133982],[119.09517374906932,-9.671477281251498],[119.09501908366383,-9.6710489782277023],[119.094822777849,-9.6704124731570573],[119.09473949703022,-9.6701328856241275],[119.09470975375223,-9.6698354528438131],[119.09470975375223,-9.6696213017816035],[119.09475139506094,-9.669103768923776],[119.09469785662088,-9.6683839821350261],[119.09460862678679,-9.6680211137833112],[119.09456698637734,-9.6677593741957253],[119.09460267777138,-9.6675928107595723],[119.09467406235819,-9.6673013269946182],[119.09484657301095,-9.6666469757772688],[119.0949239057137,-9.6661948775914652],[119.0949893412851,-9.6658439081697907],[119.09500123841644,-9.6657427803050382],[119.09499528940114,-9.6655881148995491],[119.09494769997639,-9.6651419666284255],[119.0948584701423,-9.6646244337705411],[119.09471570276753,-9.6637202391976302],[119.09469190760547,-9.6633514218306118],[119.09467406235819,-9.6631253727377384],[119.09462647293344,-9.6627803514320476],[119.09450155080594,-9.6623698936556366],[119.09434688629983,-9.6620427193959131],[119.09432311631883,-9.6619790042275895],[119.09466396297159,-9.6619704876478636],[119.09532140066221,-9.6619066088028944],[119.09560047198431,-9.661856952736116],[119.09603986274954,-9.6618167008799674],[119.0962607560291,-9.6617490322919366],[119.09636780592962,-9.6616968095600555],[119.0965323638776,-9.6616173553566114],[119.09669955504046,-9.6615808707605311],[119.09696253299455,-9.6615295977127289],[119.09706256908237,-9.6614944072410367],[119.0972562569707,-9.6614752462855336],[119.09739833636422,-9.6614563902002146],[119.09780692804736,-9.6614104213538212],[119.09817367967162,-9.6613962804139533],[119.09863851855289,-9.6613698061715922],[119.09873909063663,-9.6613447438647881],[119.09906442937995,-9.6610723590021053],[119.09929758131841,-9.660914422762346],[119.09957664544584,-9.6607551411368036],[119.09965080444113,-9.6607041801537434],[119.10008341521745,-9.6604837383338236],[119.10041939743735,-9.6602602397182409],[119.10069051425592,-9.6601318111341357],[119.10092485240011,-9.6600401198555801],[119.1010713015994,-9.6599813887300456],[119.10133505207102,-9.6598978363160199],[119.10164592162209,-9.6598377678986367],[119.10198280316388,-9.6597086558297747],[119.10213827076461,-9.6596274551428678],[119.10217535340985,-9.6595898374010289],[119.10310857629986,-9.6590798093856733],[119.10316631637249,-9.6590517586317333],[119.10326123531786,-9.6589784144222222],[119.1034577803523,-9.6588579304490736],[119.10402098707891,-9.6584193059061931],[119.10414129388562,-9.6583184910055024],[119.1043137865521,-9.6581781562968558],[119.10449667538137,-9.6580149913987157],[119.10464056690864,-9.6578787108338133],[119.10467489672919,-9.6578470277181054],[119.10493729641917,-9.6576148983088501],[119.10507020722434,-9.6575056819416432],[119.10543317719942,-9.6571548708005821],[119.10557552908745,-9.6569887732132429],[119.10632223798098,-9.6560254239341248],[119.1064519418037,-9.6558414891933353],[119.10704282156905,-9.6551945519869378],[119.10760686016852,-9.6548106556871858],[119.10787833581662,-9.6546374984217778],[119.1079367791591,-9.6545952149971299],[119.10798702518116,-9.6545486373097447],[119.12307408240304,-9.6539223944029118],[119.12580457612034,-9.6539055429064433],[119.13133252257796,-9.6528904286503234],[119.13132085477366,-9.6528311732200223],[119.13117329940826,-9.6520822501956332],[119.13114378365879,-9.6519324600149616],[119.13093377127655,-9.6510578351509366],[119.13074624194553,-9.6501732736775807],[119.13061920461269,-9.6494569753591009],[119.13050127471411,-9.6485011156339056],[119.13039630674427,-9.6477557368377234],[119.13027200964564,-9.6468031524435105],[119.13002589487917,-9.6456737136709307],[119.1297757052846,-9.6444900241951927],[119.12960186363512,-9.6436595209700613],[119.12934716394057,-9.6421854278152068],[119.12925172698567,-9.6415285396103627],[119.12913799332375,-9.6407457184400869],[119.12912686061622,-9.6402415243268251],[119.12908890832648,-9.6394599783952231],[119.12901886462896,-9.6386853689346026],[119.12890820844711,-9.6371643347661688],[119.12890551677629,-9.6365833628318569],[119.12891679967061,-9.6358649618984487],[119.12893656317192,-9.6355801538010155],[119.12892353379414,-9.6350603942217958],[119.12892970494204,-9.6344282112928568],[119.128938548875,-9.6335565541915571],[119.12902308334867,-9.6329966209972326],[119.12907952030366,-9.6324913647845847],[119.12908101407766,-9.6324620208055762],[119.12911892859574,-9.6317214291006508],[119.12914502692149,-9.6311272398302208],[119.12922049443034,-9.630401431181042],[119.12924765215746,-9.6292581779225088],[119.12936924319604,-9.6283943988823353],[119.12943590094608,-9.627515459970482],[119.12942626560971,-9.6264908929402964],[119.12945571391015,-9.6251143663349126],[119.12945192956295,-9.6250002432665838],[119.12941499170859,-9.6247665841105459],[119.12935005166366,-9.6244240251485849],[119.12921541775734,-9.6239339288077304],[119.1290550326637,-9.6234499766350723],[119.12878092469998,-9.6230802086846552],[119.12852345509339,-9.6226466797004377],[119.1283455206293,-9.6223352094023653],[119.12807511967105,-9.6219079298070938],[119.12755501834943,-9.6212869317464538],[119.1272345584282,-9.6206738998805008],[119.12708614780752,-9.6204838056830226],[119.12683276741836,-9.6201592718329039],[119.12662601957516,-9.6198284301378862],[119.12634198939134,-9.619251711996867],[119.12619581088802,-9.618865715780089],[119.12614143607846,-9.6185883432773949],[119.12594460595881,-9.6184564846789726],[119.12580796926238,-9.6182902261130039],[119.12535620922176,-9.6178261426622953],[119.12507802463119,-9.6176294420450859],[119.12499961543995,-9.6175909978262553],[119.12466962090639,-9.617439230036382],[119.12429163225306,-9.617299865696225],[119.1240988958474,-9.6173284200704643],[119.12378480672351,-9.6175425711327307],[119.12374197741042,-9.61775672309426],[119.12381336109775,-9.6179565983183011],[119.12394185083576,-9.6182135786936556],[119.12408461910991,-9.6185776368484426],[119.12412031140332,-9.6188274802040041],[119.1241702804341,-9.6190630468221343],[119.12414886487829,-9.6192700599652312],[119.12413012390618,-9.6196011642622921],[119.12410299405803,-9.6196673381770665],[119.12394962007897,-9.6198061952996454],[119.12380040456503,-9.6198658644180455],[119.12352057601379,-9.6198978613971349],[119.12320865695403,-9.6198693798679642],[119.12302877905495,-9.6198153144251819],[119.1229132953124,-9.6197806122854104],[119.12268384138622,-9.6196507187056568],[119.12246251823069,-9.6194681887059232],[119.12189545071453,-9.6189894256214643],[119.12171879238838,-9.6189299660450729],[119.12158898334496,-9.6189526451483971],[119.1214704383101,-9.6190548288172408],[119.12141701768132,-9.6191942264323416],[119.12142829068318,-9.6195547691372667],[119.12141769307209,-9.6198252051690361],[119.12141401484496,-9.6199189720828713],[119.1213552828201,-9.6202691123296518],[119.12125546976415,-9.6205608488040752],[119.12114386120027,-9.6206475659323587],[119.12090832785714,-9.6207545187060077],[119.12064256740064,-9.6209155980763512],[119.12024379721356,-9.6213929132522935],[119.11999452762541,-9.6214781132243274],[119.11920998425342,-9.6216592897444002],[119.11892506104277,-9.6217429599695947],[119.11882667700957,-9.6218678452248128],[119.11871008889955,-9.6221387686891831],[119.11862527923336,-9.6226664557922277],[119.11850927568264,-9.6228279092805451],[119.11824310603458,-9.6229928296553453],[119.11805830614594,-9.6230451324268529],[119.11769510774309,-9.6230072188080271],[119.11732237292927,-9.6229066728046746],[119.11657819832521,-9.6226254530022288],[119.11603745216678,-9.6224207367275767],[119.11551698122378,-9.6223645956495147],[119.11537840828703,-9.6224202412010982],[119.11507202815164,-9.622642770347511],[119.1146394866231,-9.6231383768345609],[119.11451997391771,-9.6233061750398861],[119.11426352863896,-9.6235077194056657],[119.11407128326323,-9.6235645970284622],[119.11403071484563,-9.6235603648189567],[119.11382810658188,-9.6235392100664399],[119.11348002668194,-9.6234482040713374],[119.11326292674278,-9.6232934091634661],[119.11318070082871,-9.6232097047640082],[119.11285420016122,-9.6228340435562245],[119.11275043638364,-9.6226820851101138],[119.11270713672502,-9.622492149193306],[119.11265206134362,-9.6222612968213639],[119.11244826597476,-9.6222007409713797],[119.11216456134548,-9.6221865964342328],[119.11195030326394,-9.6222047771287293],[119.11115838814919,-9.6222719735726514],[119.11061479833438,-9.6223987842764132],[119.11008201387392,-9.6223675076543032],[119.10971017118754,-9.6222567543456989],[119.10947682319693,-9.6221398631640795],[119.10914307579242,-9.6218990975652332],[119.1089616843343,-9.6216764092388303],[119.10859034436896,-9.6211726899676364],[119.10849029569067,-9.621036972378306],[119.10816496863845,-9.6208434292807965],[119.10752171685385,-9.6204391579407229],[119.10711239222314,-9.6201526411314262],[119.10677273987017,-9.6199148936573806],[119.10668424208416,-9.6198529465561933],[119.10657702221192,-9.6197446870676231],[119.10653507513371,-9.6196772496053313],[119.10647701130506,-9.6195217936957533],[119.10654299096632,-9.6184781484477639],[119.10654527704298,-9.6184419498360967],[119.10655809328148,-9.6182390178163928],[119.10640592619256,-9.617616104199783],[119.10626706187543,-9.617425930861998],[119.10607117514473,-9.6172855817641221],[119.10579347169141,-9.6171472399531126],[119.10558563207132,-9.6170383491404436],[119.10501229807915,-9.6170053170416736],[119.10482029731895,-9.6170216136565045],[119.10464421725692,-9.6171184850300051],[119.10456985321616,-9.617159396089221],[119.10444751124373,-9.6172928626754128],[119.1043552812713,-9.6176044615766045],[119.10425777137914,-9.6177804930752586],[119.1041568782374,-9.6178429671791719],[119.10397932958244,-9.617821896962937],[119.10353041589599,-9.6174404576109964],[119.10319081480429,-9.6172543024440529],[119.10307736173093,-9.6172183556425352],[119.10304441416849,-9.6172079100169867],[119.1021539720283,-9.6172865197570445],[119.1021183273989,-9.6172871798594315],[119.10207648374285,-9.6172830249915364],[119.10148124406419,-9.6173210186500455],[119.10134496170065,-9.6173189259276342]]]]},"properties":{"OBJECTID":430,"nama_kawasan":"Kawasan Perbatasan Kecamatan Perbatasan Prioritas Kec. Kodi Balaghar - Kab. Sumba Barat Daya","delineasi_asal":"Kodi Balaghar","Shape_Length":0.57052102866654919,"Shape_Area":0.0058063854841370159}}]}