{"type":"FeatureCollection","features":[{"type":"Feature","id":481,"geometry":{"type":"Polygon","coordinates":[[[114.72737582283605,-2.4603325757876746],[114.72739030821617,-2.460296423940747],[114.72896687012496,-2.4568127417146002],[114.73046911925451,-2.4534932271307071],[114.73185954398286,-2.4504207751985518],[114.73296757439414,-2.4479723151701478],[114.73512315401047,-2.443208976812798],[114.73570537330443,-2.4419223941031305],[114.73632629941926,-2.4405502678804964],[114.73650428424537,-2.4401569556789013],[114.73651519931707,-2.4401328358616183],[114.73662123568158,-2.439898514804554],[114.73671600803743,-2.4396890851830904],[114.73684391771269,-2.4394064282640215],[114.73685189829655,-2.4393568261565406],[114.73683151606167,-2.4393485254140614],[114.72468128761136,-2.4344000706067277],[114.72116523518753,-2.4329680612269726],[114.72010196673239,-2.4325622097780979],[114.70437578201677,-2.4265594257768157],[114.70434714670353,-2.4265504757238432],[114.6940768223875,-2.4226274530944352],[114.69371560698971,-2.4224894764081455],[114.69301277511954,-2.422221008093004],[114.67852412408911,-2.4170082812071882],[114.67381779105824,-2.4153150070818583],[114.65938112264075,-2.4101208044315285],[114.65712397898847,-2.4093086887449431],[114.65213399978427,-2.407535898362994],[114.64512921004507,-2.4050472791086008],[114.6449515417803,-2.4049841583921534],[114.64456714275946,-2.4048475900441986],[114.64433632815906,-2.4047655871620464],[114.64306856106532,-2.4043121453891558],[114.63553213709849,-2.4016165732462014],[114.63025700625587,-2.3997297821036909],[114.62286287482186,-2.3970850450387502],[114.61536068444809,-2.3944016209380266],[114.61383926267195,-2.3982506005846744],[114.6119690667191,-2.4029818556280702],[114.61046370593533,-2.406790083395606],[114.60869590858943,-2.4112621484293868],[114.60684007391035,-2.4159568424342979],[114.60538352742788,-2.4196414062258782],[114.60361505199307,-2.4241149740267929],[114.60260748844485,-2.4266636868795786],[114.60110651005743,-2.4304604995523391],[114.59960619357105,-2.4342555720369887],[114.59789973178727,-2.4385720363703172],[114.59621720006385,-2.4428279025855772],[114.59442055156728,-2.4473723396616833],[114.59271265536483,-2.4516922160228773],[114.59088654687673,-2.4563110180390026],[114.5891737115976,-2.4606432438905586],[114.58898797371603,-2.4611130200497655],[114.58729632106838,-2.465391586952137],[114.58717032335176,-2.4657102644171118],[114.58538860000397,-2.4702165684398096],[114.58372946594216,-2.474412748449538],[114.58192215778138,-2.478983607607347],[114.58010052971576,-2.4835906024243286],[114.57884668322788,-2.4867615975696253],[114.57655818741046,-2.492549144127679],[114.57416427486146,-2.4986031490160485],[114.57175354229219,-2.5046995479457337],[114.57866010268162,-2.5071737807453474],[114.58761755800401,-2.5103826832142317],[114.59597496137542,-2.5133765766676106],[114.59419741537852,-2.5174402712514734],[114.59187759257691,-2.5227435859476941],[114.58947281441897,-2.5282410121129715],[114.58764085763949,-2.5324288670984743],[114.57661153789218,-2.5291362251566056],[114.56318084841746,-2.5253535561216722],[114.56274963428825,-2.5251807495918683],[114.56190636069005,-2.5272283251270551],[114.56190380481678,-2.5272360098339277],[114.55999494880791,-2.5264451811002004],[114.56030427871951,-2.525778932751507],[114.55338264029672,-2.5228709821100779],[114.55176797141485,-2.5221693409422983],[114.55223873323098,-2.5209685490592619],[114.54084571685644,-2.5164028448153886],[114.535149057583,-2.5110111402518669],[114.51520173397296,-2.517422685008853],[114.5013649142594,-2.5240164719825202],[114.49639826167049,-2.5224135122737152],[114.49362104187765,-2.519675818584119],[114.48993605900193,-2.5178526104095909],[114.48476056225024,-2.5176738395759912],[114.4280654748419,-2.5157141925558903],[114.37098914503304,-2.5137389431976089],[114.32852806022186,-2.51376311517555],[114.32865164325881,-2.5160408586986023],[114.32910805009647,-2.5244528257372849],[114.33028712335215,-2.5461841335908275],[114.33053230372286,-2.5507030254242409],[114.33090389909569,-2.5574874497859241],[114.33090395125646,-2.5574883985706833],[114.33090398543061,-2.557489017304249],[114.33131752608301,-2.565039277340702],[114.33169767490779,-2.5723199925735685],[114.33203046543372,-2.5786936668791895],[114.33211464557451,-2.580305898598283],[114.33188888876123,-2.5806805561626902],[114.33220030599944,-2.5811149161204412],[114.33247156491086,-2.5872624909711135],[114.33319454519221,-2.6001370783634457],[114.3332011246323,-2.6002542447375845],[114.33346618002031,-2.6049742465641543],[114.33392575067296,-2.6145433892659753],[114.33398728228735,-2.6158245904324531],[114.33423070178549,-2.6234040757374828],[114.3343093699815,-2.6259667838399423],[114.33489385556709,-2.6450071924279541],[114.33534099668975,-2.6566550496907553],[114.33542658876615,-2.6587941923980338],[114.33555049465963,-2.6618908729653867],[114.33595013898776,-2.6718788407358716],[114.33602394634806,-2.6719465983567829],[114.33620717781901,-2.6721148075523047],[114.33604135362566,-2.672329366007375],[114.33597393325044,-2.6724166002458674],[114.33674806067449,-2.6900587887820393],[114.33678841775134,-2.6909785110494227],[114.33681150424763,-2.6915046360300607],[114.33731594927167,-2.7022407641998711],[114.33745519490139,-2.7050908011994466],[114.33754769556981,-2.7050688325605279],[114.34140612259455,-2.7041379290221812],[114.34491836638961,-2.7032905482201954],[114.34864501485561,-2.7023914384141108],[114.35026068468289,-2.7020016209779669],[114.3563887424466,-2.7011720386586262],[114.36192584580124,-2.7004224240556027],[114.36861696190329,-2.6995165405558623],[114.37929427710924,-2.6980708902593165],[114.39101618185134,-2.6964836821761651],[114.39236068359878,-2.6963016207231476],[114.40351434810873,-2.69634139234131],[114.41459380775814,-2.6963807961367934],[114.42046068441311,-2.6964016217373796],[114.42886068507266,-2.6955016216024887],[114.44012622974174,-2.6933640113400088],[114.44521856258666,-2.6923977095866007],[114.45250479695892,-2.6910150550007188],[114.46206068455297,-2.6892016215575154],[114.46445168959383,-2.6833266123332464],[114.46556068497773,-2.6806016206681988],[114.49032416862553,-2.6909931367238187],[114.49117767471,-2.6913512863327469],[114.51686510204286,-2.7021300243810629],[114.51688730720355,-2.7021393413574515],[114.51724451342363,-2.7011920296884],[114.517549958264,-2.7003819806438401],[114.51780435488718,-2.6997073164394578],[114.5182348036933,-2.6998823919587949],[114.52235523380705,-2.7015582803902589],[114.53046008236697,-2.7048547012834092],[114.53126346024055,-2.7051814501637637],[114.53221394561717,-2.7055680300405243],[114.54031262482783,-2.7088618815705559],[114.54606624895825,-2.7112019337222364],[114.54661536510707,-2.7114252641645749],[114.54837510542689,-2.7121409626352602],[114.55530244375279,-2.7149583308622596],[114.56384427559294,-2.718432269833329],[114.56391188662428,-2.7184597657055747],[114.56426068508256,-2.7186016202684868],[114.5673622102978,-2.7184094063689486],[114.56814535882131,-2.7183608699581328],[114.56888460963705,-2.7183150539964913],[114.57364727260358,-2.7180198704206191],[114.58177125783732,-2.7175163076314561],[114.58745707488413,-2.7171638390398698],[114.58846068501271,-2.7171016221420814],[114.59616442784613,-2.7114695153058506],[114.60036068519753,-2.7084016220371723],[114.60374643215221,-2.7106192126065025],[114.61631997059021,-2.7188545213190309],[114.61906564486367,-2.7206528398566547],[114.61919413370242,-2.7207369966150736],[114.62883653877532,-2.7270523786642684],[114.63318507563076,-2.7299004650344045],[114.64429409059983,-2.7371762735661491],[114.6484536969806,-2.7399005619612922],[114.6487606850576,-2.7401016206931672],[114.6505902118688,-2.7371286670543213],[114.65285055440961,-2.7334556028936845],[114.65386025025043,-2.7318148239949096],[114.65391615660542,-2.7317239762804206],[114.65638210485031,-2.7277167195509264],[114.65731905632947,-2.7261941223608233],[114.66082639702063,-2.7204944359693854],[114.66211506975469,-2.7184002170963026],[114.66374635361137,-2.7157492009648081],[114.66434087023504,-2.7147830386062992],[114.66708628460447,-2.7103213652387694],[114.66787921865114,-2.70903272667897],[114.67169909443771,-2.7028247605542219],[114.67234425638242,-2.7017762472759159],[114.67286994429253,-2.7009218976274383],[114.67312833840219,-2.7005019556007142],[114.67342769303366,-2.7000154412595521],[114.67988309862619,-2.6895238612371486],[114.67995059004772,-2.6894141700278738],[114.68022848056,-2.6889625233017682],[114.68381732860689,-2.683129605946533],[114.68503444858095,-2.6811514059126011],[114.68661385864277,-2.6785843522860091],[114.69035709870116,-2.6725002785649394],[114.6918642653236,-2.6700505693782475],[114.69273819141449,-2.6686301018976337],[114.69351581000672,-2.6673661686137393],[114.69450299401797,-2.665761597319829],[114.69519235494329,-2.6646411050029428],[114.69534885406642,-2.6643867281649136],[114.69547419437868,-2.664182998446563],[114.69549310172533,-2.6641522659143106],[114.69627243892194,-2.662885517752386],[114.69779559009442,-2.660409744414153],[114.70015897875396,-2.6565681805770396],[114.70035655800882,-2.6562470245804661],[114.70522057007327,-2.6483406572954777],[114.70721616929086,-2.6450967828901639],[114.70732622832281,-2.6449178789569032],[114.70831301933049,-2.6433138220751857],[114.71293377287543,-2.6358025359582484],[114.71382492098337,-2.6343539053084442],[114.71420916172349,-2.6337292901745286],[114.71606876276326,-2.6307063306326199],[114.71739389671097,-2.6285521782403976],[114.71837832070298,-2.6269518769275351],[114.71973980614723,-2.624738604003312],[114.7198072094352,-2.624629030605206],[114.71984002479735,-2.6245756837207637],[114.72027242063575,-2.6238727646163511],[114.72112187257642,-2.6224918556146122],[114.72658661198261,-2.613607962137678],[114.72969532637831,-2.60855407710892],[114.73013860940932,-2.6078334215750942],[114.73048042732989,-2.6072777142950372],[114.73269957732373,-2.6036699400156635],[114.73321813630798,-2.6028268876506786],[114.73612729383956,-2.5980972531856423],[114.73714712324124,-2.5964392225919823],[114.73942287296722,-2.5927392938832554],[114.7402479523812,-2.5913978624213883],[114.74123766168884,-2.5897887639402484],[114.74293317062939,-2.5870321359242894],[114.74357661666761,-2.5859859869636921],[114.74485894018801,-2.5834632168539429],[114.74475440659069,-2.5833978208527242],[114.74306697356201,-2.5823421489709517],[114.74277101027394,-2.5821569911521465],[114.737558475843,-2.5790092947431162],[114.73637060721785,-2.5782919729961122],[114.73208217655122,-2.5757022852322393],[114.72562219071165,-2.5718012429329633],[114.72498433935584,-2.5714160552067256],[114.72050773994033,-2.5687127039280995],[114.71858941407027,-2.5675542548249268],[114.71734447806523,-2.5674920082495305],[114.71798047232096,-2.5663771088164822],[114.72054344572348,-2.56188416692072],[114.72156804962583,-2.5600879995614605],[114.72298320840844,-2.5576071549461972],[114.7247357235749,-2.5545348783819009],[114.7260090241972,-2.5523026774265531],[114.72706820433427,-2.550445834607558],[114.72747185873936,-2.5497381850691454],[114.72762755206998,-2.5494652381302103],[114.72763290843204,-2.5494592756249972],[114.7295208138346,-2.5473578064176081],[114.73423495657801,-2.542110318936011],[114.73569936673243,-2.5404802086946461],[114.73680450132679,-2.5392500206718864],[114.73821118669696,-2.5370395149615774],[114.73898598681387,-2.53596538359551],[114.74151897232275,-2.5324537990035765],[114.74446681868881,-2.5283670179234718],[114.74485119162921,-2.5278341336382937],[114.75014493124365,-2.5207553296946799],[114.75150807413843,-2.5190848201083327],[114.75535935515018,-2.5143650826823887],[114.75609222887329,-2.5134597702521546],[114.75668841194067,-2.5127233100326976],[114.7576368459637,-2.5115517110425571],[114.75853706373459,-2.5101439320967529],[114.75955728164331,-2.5085484853242974],[114.75983603820271,-2.5081125569489018],[114.76078514222058,-2.5066283122467894],[114.7646723718326,-2.5007975406739433],[114.76537490242981,-2.4997437483752378],[114.76548936094537,-2.4995720588034374],[114.7669470567613,-2.497385504737224],[114.76717372368842,-2.4970455016485289],[114.76850366721055,-2.4950505598354198],[114.76867092762132,-2.4947996660716854],[114.76915002795147,-2.4940810016368573],[114.76941422898358,-2.4936846928941918],[114.76954659839691,-2.4934861360762852],[114.76957994885561,-2.4934361076901723],[114.76971366994997,-2.4932355211023491],[114.76974674161886,-2.4931859126996869],[114.76975306655083,-2.4931764239527752],[114.76975682391833,-2.4931707879014766],[114.76976113616752,-2.4931643208766445],[114.76975643900846,-2.4931489145906767],[114.76956940790194,-2.4925355616667844],[114.769549081425,-2.492468903017425],[114.76954469093482,-2.4924545039721124],[114.76951057515294,-2.4923426238129878],[114.76948586178321,-2.4922615796081686],[114.76947965736031,-2.4922412306482329],[114.76946293716492,-2.4921863998824278],[114.76945157513012,-2.4921491382720546],[114.76945018837557,-2.492144591299791],[114.7694386248927,-2.4921066722850469],[114.76943657623701,-2.4920999516514257],[114.76941831640227,-2.492040067594985],[114.76940757130239,-2.4920048312579297],[114.76938885011543,-2.491943438139117],[114.76938421860689,-2.4919282503884119],[114.76937180436539,-2.4918875371800482],[114.76936854971882,-2.4918768649253025],[114.76936810635311,-2.4918754089229083],[114.76936398026351,-2.4918618777234087],[114.76936156738248,-2.4918539672867155],[114.76935951243161,-2.4918472268680034],[114.76935699882654,-2.4918389845814204],[114.76935444475191,-2.4918306091952331],[114.76935436471217,-2.4918303456938702],[114.76935221173528,-2.4918232860158014],[114.76935197071691,-2.491822497310352],[114.76935170721561,-2.4918216303639156],[114.76935130162133,-2.4918203029645838],[114.76935098056333,-2.491819248959132],[114.76935074134371,-2.491818462052322],[114.7693502889847,-2.4918170159425017],[114.76935020984433,-2.4918167155689162],[114.7693479408548,-2.4918089454264418],[114.7693498690013,-2.491815604006888],[114.76934607925818,-2.4918031753762193],[114.76934169326455,-2.4917887898207596],[114.76934164110389,-2.4917886198488759],[114.76933339522009,-2.4917615772349677],[114.76932011493147,-2.4917180266655237],[114.76929744392191,-2.4916436779133733],[114.76928650996456,-2.4916078219433757],[114.76928251067943,-2.4915947071299911],[114.76926480033035,-2.49153662531495],[114.76922414108128,-2.4914032873318206],[114.7692102150794,-2.4913576179596362],[114.76915668833055,-2.4911820810881409],[114.7690793709163,-2.4909285262304479],[114.76895726456621,-2.4905280913982324],[114.76882304614674,-2.490087931712651],[114.76866476007069,-2.4895688466249339],[114.76864057999887,-2.4894895498028404],[114.76843664433568,-2.4888207590707339],[114.7681099817903,-2.4877495028372323],[114.76793530556995,-2.4871766661701713],[114.76756615725242,-2.4859660788713995],[114.76748364535399,-2.4856954899548782],[114.76721594236187,-2.4848074561991211],[114.76688222193707,-2.4837004294312237],[114.76661860186709,-2.4828259439620979],[114.76593554069268,-2.4805600759866593],[114.76583080474791,-2.4802126471958559],[114.76559682363461,-2.4794364783107881],[114.76538603603683,-2.4787372518226789],[114.76471340609885,-2.4765059960548115],[114.76457632513734,-2.4760512700500499],[114.7644456653353,-2.4756178435885658],[114.76400415127057,-2.4741532517710993],[114.76377559127059,-2.473395072024914],[114.76137247505972,-2.4654234877037311],[114.76136285770974,-2.465391586952137],[114.76125403704418,-2.4650306080760629],[114.75986678242612,-2.4612156542789876],[114.75912630583446,-2.4591793436517264],[114.75884257602411,-2.4583990900459298],[114.75884257692348,-2.457760959001007],[114.74349369737627,-2.4593332023653716],[114.74050195779921,-2.4585868226237153],[114.73989742992251,-2.4587691053098979],[114.72735490910179,-2.4625510198136453],[114.72707565791529,-2.4626028531391171],[114.72681693465393,-2.4626508760370598],[114.72737582283605,-2.4603325757876746]]]},"properties":{"OBJECTID":481,"nama_kawasan":"Kawasan Transmigrasi Lamunti-Dadahup","delineasi_asal":"Lamunti Dadahup","Shape_Length":1.5019551564882676,"Shape_Area":0.088461813450051954}}]}