{"type":"FeatureCollection","features":[{"type":"Feature","id":252,"geometry":{"type":"Polygon","coordinates":[[[97.88190399966993,3.0085679998134083],[97.879208000349024,3.0086350002051176],[97.87658099971344,3.0088749995816215],[97.875752000154762,3.009012999650281],[97.875383755655832,3.00907862228064],[97.873815999908516,3.0093580002715612],[97.871258999803047,3.0094599995793487],[97.870541101590618,3.0094839898942496],[97.869253999972159,3.0095269999711149],[97.868736000366198,3.0091790001108052],[97.866456000444146,3.0077879998164008],[97.864971000311471,3.0067800000969669],[97.863486000178852,3.0056670000320764],[97.8603779998449,3.0041369996228582],[97.858877317334361,3.0034466287589794],[97.858789000312186,3.0034060000868976],[97.857095999580793,3.0028830002503355],[97.855197000141516,3.002456000344182],[97.853643000424199,3.0021420002531727],[97.853525262980554,3.0021281758746454],[97.851846000292767,3.0019310004153681],[97.850152000414539,3.0017209997243981],[97.848390000098505,3.0015459997481457],[97.847581339607189,3.0013712219044351],[97.847422999571847,3.001337000002593],[97.846143999945696,3.0011620000263406],[97.845176000272261,3.0012300004642043],[97.844277000183467,3.0018189997471154],[97.842880335059476,3.0024916980335092],[97.842479000005881,3.0026850001127059],[97.84047400017505,3.0034470001789373],[97.839505999602238,3.0035500004321989],[97.838642000228162,3.0034799999021402],[97.837225999680186,3.0032700001104899],[97.83636200030611,3.0028179999507643],[97.835936712709156,3.0025912278029523],[97.835775000216131,3.0025049999058524],[97.834323999852757,3.0018090001852329],[97.833357000225419,3.0013559999794666],[97.832286000298723,3.0010769997037983],[97.831057054239693,3.0008600229717217],[97.830904000419366,3.0008330001429044],[97.829902000077311,3.0005539998672361],[97.829348999756576,3.0002409998223243],[97.828870000150459,3.0000059997771018],[97.828065999945977,2.9994710002864622],[97.82769399987825,2.9990570000805405],[97.827522990193927,2.998821824667516],[97.827104999696019,2.9982469995994165],[97.826038999999923,2.9968930001119247],[97.824784999728024,2.9950959999804354],[97.824107819220558,2.9943154927658497],[97.823252985736758,2.9933302288070536],[97.821982396570377,2.991745567603914],[97.82099527820958,2.9905837316539419],[97.819694318038387,2.989052507267445],[97.819514076813277,2.9888403643913648],[97.818121324639492,2.9872010954542247],[97.817783982644755,2.9868040429722669],[97.814784999927838,2.9830363890181957],[97.814864097999759,2.9830182631823732],[97.814927121589449,2.9830038200702802],[97.815183277286451,2.9829451177230339],[97.816924121950706,2.9823102566131183],[97.818003739181279,2.9816820837611999],[97.821345895097068,2.9808116056711356],[97.824200685013636,2.9800454786159776],[97.82848445269542,2.9792720544617737],[97.829233793904507,2.9791367622518123],[97.835500278015502,2.977570074899063],[97.843173177700066,2.9754064328606091],[97.846170573113511,2.9745612131295047],[97.853899156121201,2.972681260431898],[97.856809953116908,2.9719718850944901],[97.864084514288948,2.9701990398538669],[97.869828891590146,2.968631587178038],[97.873379890769399,2.9677261587352746],[97.876303772900883,2.9674494364423936],[97.879262382353147,2.9672426679148316],[97.881585963421514,2.9670309953841638],[97.884188551960165,2.966793905314546],[97.887552589280631,2.966432656641814],[97.889026954930102,2.9662743318949651],[97.892159605681343,2.9660677027623024],[97.896405564964937,2.966316719640929],[97.900380775252643,2.9663089396059377],[97.90271623366732,2.9627449110488442],[97.905085752105833,2.9599151519627185],[97.906096460583228,2.9585175812214288],[97.906654706649476,2.9571195599198177],[97.907098650682258,2.9550839516630845],[97.907188366150251,2.9542870426129753],[97.907334325218983,2.9529905259920497],[97.90751147457496,2.9510144438615384],[97.907590381091268,2.9499579086306085],[97.907808827315591,2.9482814401363839],[97.908345823301147,2.9442226117841415],[97.908592645834005,2.9409362030434067],[97.908878363146016,2.9360895910618297],[97.90896945457672,2.9338563271078328],[97.908985320416264,2.9334673703229441],[97.908918900087201,2.9301806450208119],[97.908900876774112,2.9291753954282171],[97.908818907166904,2.9246035802910342],[97.908438699886176,2.9218759787934232],[97.9079534391999,2.9198126093644987],[97.90680893588376,2.9156507267996403],[97.906387220393981,2.9143447457134926],[97.906168096080819,2.9136661559683716],[97.905717477279836,2.9117776408255054],[97.904153221693889,2.9098181098179339],[97.902797814767382,2.9078238146174158],[97.901714109218801,2.9070780697971372],[97.900050188065791,2.9059330547667059],[97.898635104826269,2.9048801366090515],[97.897650509063794,2.9041475299845843],[97.893921828129919,2.9006953132381454],[97.89138356719792,2.8982802828088552],[97.890946329409644,2.8979064661105554],[97.889020735218821,2.8962601806628641],[97.888845077838141,2.8961100028743658],[97.888235579408502,2.8957430533992579],[97.887913364909934,2.8955490633386489],[97.887912612177388,2.8955486100803114],[97.885471201934479,2.8940787536316179],[97.880655103949948,2.8917145133141844],[97.876932887342946,2.8900325436670187],[97.872827767287674,2.8884550743422324],[97.86762475667723,2.8869384036844394],[97.865780975611585,2.8862023112876614],[97.863102354789874,2.885045811914722],[97.860911019028379,2.8838548379304711],[97.859382131979885,2.8829031870325252],[97.859166658014942,2.8825538148067835],[97.859165775780014,2.8825523857840381],[97.858864935468432,2.8820646007008008],[97.858577622759128,2.8818857651160101],[97.857605814456804,2.8792275364216948],[97.857347533661823,2.8775814883950375],[97.85734636903976,2.8775740653908315],[97.857156764073466,2.8763656886256967],[97.857157854051763,2.8752705212176011],[97.857157859447739,2.8752650884131299],[97.857159275879951,2.8738416010091328],[97.857379572009677,2.8700341853294162],[97.857773463374713,2.8671111701444261],[97.857836808022341,2.8650097279166857],[97.858810174849737,2.8632810214020878],[97.859442168921021,2.8619972400805977],[97.859693072577272,2.8611234506867618],[97.859693166106808,2.8611231260314867],[97.859997145052262,2.8600644998768416],[97.86006033231854,2.8598444456646916],[97.860004989838444,2.8571836107350919],[97.860004847745586,2.857176772290245],[97.860004577049665,2.8571637635968727],[97.860004915194736,2.8571502099143231],[97.860005095958456,2.8571429478888035],[97.860023612999385,2.8563998479746715],[97.860188239295894,2.8497932609502641],[97.860210377007377,2.8484110641193752],[97.860220766874932,2.8466665807981144],[97.860220771371587,2.8466658631390942],[97.860221528600732,2.8465386963038668],[97.860221531298691,2.8465383347763691],[97.860224525141803,2.8460356173499122],[97.857704354972043,2.8429794764217604],[97.855870500623155,2.8409095851093298],[97.853814349152969,2.8386159011030259],[97.851647155691751,2.836098527824845],[97.84930848310006,2.834395794630268],[97.849307667414962,2.8343952010777116],[97.848999188261985,2.8341706052892732],[97.848997495737876,2.8341693732180602],[97.846974824228823,2.832696713582493],[97.846864935168696,2.8326167062959939],[97.845045658830145,2.831807954073895],[97.845045358456559,2.8318078200748573],[97.814697119076868,2.8183166350047486],[97.813769808330051,2.8179044028659632],[97.810193292686392,2.8163144779308595],[97.807265844742972,2.8150130932796742],[97.80659830226989,2.8147163385881981],[97.805981826000504,2.8144422872817927],[97.803774701741133,2.8134611188356189],[97.799719324986938,2.8116583180769794],[97.797156115062705,2.8105188527628684],[97.793623849661003,2.8089485986989189],[97.792661315167607,2.8085207084639592],[97.784620958790299,2.8049464006559219],[97.784623021835046,2.8047939646697841],[97.784645179331619,2.8047551454336599],[97.785041604986134,2.8040606044133938],[97.785557056812763,2.8031575285971257],[97.787630823303914,2.7995242747255702],[97.78352800281516,2.7972778204151041],[97.782569839926225,2.7967982083706602],[97.777772568349405,2.7943969186828781],[97.777660867155362,2.7943410069319725],[97.776222504964664,2.7936210312856247],[97.766526403171042,2.7880662373669907],[97.766628522988015,2.7877085392177605],[97.766774115133387,2.7871985678596616],[97.767922454058066,2.7831762456872298],[97.767955723577813,2.78305970973787],[97.768177090800179,2.7825952710549586],[97.768408410819575,2.7821099492148278],[97.770810160960195,2.7770709488652301],[97.773523789691183,2.7718077862004407],[97.774119773109078,2.7706518596955902],[97.7743857098327,2.7701360679252502],[97.775012233327971,2.7688650111114157],[97.775184604585888,2.7685153124317594],[97.775213738123568,2.7684562089868905],[97.775816457463577,2.7672334439683368],[97.776666805129025,2.7655083032656194],[97.778042570907985,2.7627172204234398],[97.778624378312486,2.7612729982503197],[97.778626202137559,2.7612684701638273],[97.782053199195843,2.7527616156560839],[97.783671674907907,2.7487440652864166],[97.789711120671768,2.7338161457985279],[97.793602304602757,2.7240264371703802],[97.796888185441446,2.7157595937302972],[97.798008041038315,2.7130843732452945],[97.802712524163724,2.7018458451096876],[97.80547628560214,2.6952435010867362],[97.806828385721474,2.69201347264368],[97.810004557364493,2.6844259249165248],[97.813647570678881,2.6757231360139713],[97.814410517731289,2.6739005348818523],[97.817164152803457,2.667322381722613],[97.817029329140269,2.6668069532782965],[97.815228095000634,2.6599209405989654],[97.813434479018042,2.6530640488667814],[97.814395908244649,2.6517469926296258],[97.815156058405421,2.6507056676325078],[97.818673670253759,2.6458869112519778],[97.82075600458603,2.6430343318689893],[97.825209488726955,2.6369335289592186],[97.825102547644519,2.6366281371788318],[97.824829803952355,2.635849263133025],[97.822961124256551,2.6305128740699502],[97.822498968052969,2.6291930919876449],[97.819899579302216,2.6217700185715671],[97.818216104189901,2.6169625208037246],[97.81740028059852,2.6146327748826934],[97.815644625898813,2.6093030390040894],[97.811964419322578,2.5981308358694264],[97.811247432123366,2.5960226748066475],[97.805322559988213,2.5786017320843371],[97.801742480331257,2.56790656893304],[97.797060212259055,2.553918718873831],[97.795538473022191,2.5484248917953778],[97.795512531178417,2.5472279094404939],[97.795509653347892,2.5470951173458616],[97.795460794979761,2.5448407211224549],[97.79546059083367,2.5448313286029816],[97.79545567873663,2.5446046940514293],[97.795063139052672,2.540512029606532],[97.795054605385815,2.5404230506832732],[97.793957653722828,2.5289861069233552],[97.792866213105299,2.5176066136543227],[97.792851566746492,2.5174539114688628],[97.792822145425703,2.5171471509203229],[97.792649614987795,2.5153483341583183],[97.791769253348434,2.5061695727675897],[97.791412655969339,2.5024516558193],[97.791345375888454,2.501750181925388],[97.791195974214872,2.5001924940883669],[97.791195556030118,2.500189443587999],[97.791195681035902,2.5001894408900398],[97.791196504814877,2.5001894318967857],[97.81542583343554,2.4998833332492723],[97.840607500036185,2.4999313894221586],[97.849123726378934,2.499539600672108],[97.861742533990821,2.4989590739021992],[97.864970833037546,2.4988105562621854],[97.865012963577442,2.5080103887684686],[97.865101934406823,2.5274380301410133],[97.86510194429934,2.5274402784461358],[97.865098391977256,2.5274402766474964],[97.855256667461276,2.5274388889935722],[97.855255412007693,2.5279169928749639],[97.85520499961109,2.5471255557998234],[97.855135622311195,2.554082951267219],[97.855066232420768,2.5610415752085487],[97.855031111196865,2.564563610822006],[97.875430898117486,2.5644821781100973],[97.8963914411122,2.5643985060862633],[97.897214924229445,2.5643952190641812],[97.898958055869628,2.5644105561023025],[97.899424601664123,2.5639884476088355],[97.89959088810906,2.5638380009230559],[97.899656767945544,2.5637781627320919],[97.900604010366862,2.5629177984176863],[97.902582108777381,2.5622029623968388],[97.904065872342187,2.5622288583751356],[97.904388639024546,2.5623154729807425],[97.905036837080445,2.562489418951543],[97.905494961623219,2.5628671153251616],[97.905631437341015,2.5632789706480139],[97.905618522177122,2.5641408925881706],[97.905626100763982,2.5641738581371101],[97.905666334633679,2.5643488473214688],[97.90569526042799,2.5644746471872395],[97.905800251780249,2.5649312878487081],[97.905880920967775,2.5650661429881438],[97.906260957377356,2.5657014519604786],[97.906634397259666,2.5659845342589165],[97.907061811753294,2.5663085312137923],[97.907532804695222,2.5670750548699175],[97.907731175353547,2.5673978943973452],[97.907953088464296,2.5676571041920511],[97.908238098009861,2.5677089968727387],[97.90888751284848,2.5676200278420538],[97.909061600912196,2.5675961778213718],[97.909242593970589,2.5676684680254311],[97.910186155466761,2.5680453352240988],[97.910662243068145,2.5687610067151354],[97.910742617278004,2.5688704766911883],[97.911329759460898,2.5696701664450643],[97.911956559048008,2.5703025724058648],[97.912236893917566,2.5704081159418593],[97.91269463175189,2.5705804512268742],[97.912917562895245,2.5704131953127671],[97.913268319177632,2.5701500365949528],[97.913633056320577,2.5698763890841292],[97.91458236988052,2.5698071107096325],[97.915059096000562,2.5697723213356198],[97.916044992182719,2.5699270748746699],[97.916458350272706,2.5699131866442713],[97.917327187999376,2.5698839964493345],[97.917629385387897,2.5698738431034371],[97.918954082265145,2.5699147020019382],[97.920418049053808,2.5699749997464778],[97.920627549721701,2.5699811915787905],[97.92218884743744,2.5700273393902648],[97.923757135583401,2.5702320097994402],[97.925224278777478,2.5703857587957941],[97.926742104164816,2.5704378772063023],[97.928664609184409,2.5705920057165486],[97.930131839612784,2.5706440782616369],[97.931346051179389,2.5707467709467551],[97.933013368172453,2.5708959981518547],[97.933066176363013,2.5709007240891992],[97.933183933591749,2.5709045201275558],[97.934685197064255,2.5709529189421119],[97.936354773154335,2.5710559902418026],[97.937548783249781,2.5711761990224318],[97.939137245887252,2.5714141650317401],[97.94147166738361,2.5721619441184771],[97.941524319991458,2.5721551587336648],[97.943328386995518,2.5719226740922068],[97.943809945172916,2.5718606172737282],[97.945646127866553,2.572102805600025],[97.947061319024726,2.5722912846151189],[97.948033898945312,2.5724317056587438],[97.948999193458064,2.5725066920302879],[97.949784637051437,2.5725727706169437],[97.950701727902469,2.572601451795606],[97.951396488357318,2.5726299486132689],[97.952760130375793,2.5725385711981517],[97.953788364841216,2.5725952653592685],[97.954761039190657,2.5726239897053915],[97.955022562041677,2.5726657883954545],[97.956686110875353,2.5729316666631235],[97.959187977143472,2.5731028966814051],[97.961933387016245,2.5737626528242004],[97.964435512289128,2.5745648058211827],[97.966369013319365,2.5751378898017947],[97.968302333585882,2.5759395742520041],[97.970122353663726,2.5761696559049483],[97.972169625228105,2.5767428262204817],[97.973989650701867,2.5769729042761469],[97.976037017594365,2.5774317671623521],[97.977588429062791,2.5779527444236692],[97.977743009931999,2.5780046532921688],[97.979684548203409,2.5783158465990823],[97.981504489140946,2.5786602167956403],[97.984006832949035,2.5792337369474581],[97.986054125197768,2.5798068883772203],[97.989428244817702,2.5804128317868162],[97.9925470568013,2.581341211827521],[97.994379167364741,2.581979166605322],[97.996801728716889,2.5818184784400842],[97.998759856782044,2.5816456089577287],[98.001169770968204,2.5821573492822836],[98.004086626696505,2.5825911129895189],[98.006630582135699,2.5827560738337638],[98.009089297133414,2.5823596113070835],[98.010804994055263,2.582341641953235],[98.012845413684943,2.5822957702336566],[98.014134444349168,2.5821971559740291],[98.015869763578792,2.5819494601994961],[98.017852845132779,2.5818513828351115],[98.019290411423412,2.5820019266476493],[98.021175707892667,2.5817973650563886],[98.023125904836718,2.5816061161294215],[98.023464474406012,2.5815729140587678],[98.025495637313895,2.58126653392344],[98.028562713998099,2.580755252253141],[98.031438024645183,2.5803722255977846],[98.035080106261944,2.5798613657095189],[98.038374819342494,2.5794769046354986],[98.040000024681433,2.5792872600990222],[98.045137713035103,2.5786266496002668],[98.045809443650967,2.5785402778116122],[98.046837859779487,2.5784148871373986],[98.054876710691701,2.5774347430190119],[98.057521797592926,2.5771122380393763],[98.076600000189899,2.5747861109902601],[98.078165005810433,2.5810256927815658],[98.078455449059788,2.5821836697406297],[98.078811349464274,2.5831163026752506],[98.078983894291355,2.5835684557197283],[98.079434361106962,2.5847489013407881],[98.07964312792808,2.5852959742298935],[98.080622849365056,2.5866438043681228],[98.081592673762941,2.5879780187705705],[98.082233095381127,2.589920095735863],[98.082377784607161,2.5903588686668968],[98.082889729977126,2.5919113404360701],[98.083349908571506,2.5933405511256069],[98.083937432066875,2.5990459949767342],[98.084153442927118,2.6011436762397011],[98.084251780195586,2.601504324165262],[98.08459201620866,2.6027521227123316],[98.084675635172459,2.6030587906307119],[98.084809441702419,2.6034094282026103],[98.085236879578417,2.6034054990645927],[98.085884239466111,2.6033628891860303],[98.086593515878121,2.603285789407721],[98.087105286779604,2.6033279253435353],[98.087451258668693,2.6033933708074528],[98.087721364649326,2.6035652744179174],[98.087900383695796,2.6036628940273658],[98.088239976693615,2.6038480752285409],[98.088758651690455,2.6040447119939358],[98.089267941362436,2.6040546557977677],[98.089336732304389,2.6040399608755251],[98.090186516094889,2.6038584381164469],[98.091309230636568,2.6034832778310601],[98.091739237875572,2.6026969852777029],[98.092063120616558,2.6023908614491233],[98.092491688940356,2.6021278951862428],[98.092991551019338,2.6020085848283543],[98.093550401429923,2.6022084303747874],[98.093814444181305,2.6029697217753096],[98.094226348067593,2.6029234957227914],[98.094771132182075,2.6028140608203216],[98.095483622771042,2.6027148763905075],[98.096081359866901,2.6026988873438199],[98.096775015954279,2.6027915705745954],[98.097098660374911,2.6028205251471377],[98.097267889401621,2.6029357507842974],[98.097444644854534,2.6029529314326965],[98.097798316738988,2.6028641098907883],[98.098088629586641,2.6029121867480853],[98.098578840141442,2.6029795549625305],[98.098907216794657,2.6030468071644464],[98.099278256386469,2.6033630060978794],[98.099625656398985,2.603454206346612],[98.099982700741123,2.6033682986081317],[98.101244108728679,2.6032782530889449],[98.10145509687527,2.6032211740180173],[98.101753460453892,2.6032020283509496],[98.102110396877379,2.6032693003380132],[98.102529213852222,2.6033318293005436],[98.102867126017088,2.6033799394327275],[98.103224029165688,2.6034950787349658],[98.103566622301855,2.6036532901672444],[98.104289982097043,2.6039005641597441],[98.104847157070708,2.6039886662439926],[98.105233894328819,2.6040251337529412],[98.105660607351183,2.6041143240169049],[98.106160338129143,2.6041816967279487],[98.106712518268182,2.604119861142749],[98.107145588598087,2.6042206940298342],[98.107705366209757,2.604438954094519],[98.108279583336184,2.6049585580910275],[98.108510938429106,2.6052364809788742],[98.10875351346391,2.6054855698032497],[98.109003620320891,2.6057294452577366],[98.109230170336161,2.6060852773137526],[98.10932398311536,2.606491217795508],[98.109325294326936,2.6064967819010008],[98.109485335879583,2.6071758545820671],[98.109594535159715,2.607568455419937],[98.10961790674105,2.6081764043176463],[98.109560493122331,2.6085976080931914],[98.109626830713751,2.6090236861942344],[98.109689257153548,2.6091433769653349],[98.109774186429604,2.6093062163088803],[98.109891261072903,2.6098517630484821],[98.109935492429088,2.6100578687756979],[98.110078036772052,2.6104121989638429],[98.110258668302947,2.61075698194918],[98.110291750763736,2.6110920864306877],[98.110196157326868,2.611656867870181],[98.110105357276495,2.6121737846924589],[98.109957522221919,2.6125709900591687],[98.10959041536546,2.613422791029052],[98.10910928616471,2.6139681507096384],[98.108966197731888,2.6143845062400146],[98.108957363691445,2.6144238228012568],[98.108924275834738,2.614571081390352],[98.108846827119407,2.6149157627522754],[98.108898281830307,2.6150917133119833],[98.108956039889392,2.6152892161244949],[98.108898563318121,2.615796583045892],[98.108864312637991,2.6159788612355328],[98.108822119145543,2.616203412057871],[98.10862651210391,2.6168447123136502],[98.108140658764455,2.6173374121918869],[98.107764428285805,2.6176243552798155],[98.10716440871056,2.6180164489000504],[98.10642150574796,2.6185328980748181],[98.106102252716823,2.6190161415817101],[98.105945022444871,2.6192362245721483],[98.105739889784161,2.6198823038253067],[98.10562534133652,2.620322612798418],[98.105544128059137,2.6207390123955747],[98.105648392759178,2.6213757386994416],[98.105695593676785,2.6219358364697314],[98.105761905187819,2.6223954224108752],[98.105794963366918,2.6227640338331639],[98.105847168112405,2.6229794799191382],[98.105965737428903,2.6232139592568728],[98.106059521429813,2.6235748320129346],[98.106303348320921,2.6240616386337479],[98.106461617309833,2.6242862578046129],[98.106512571098335,2.6243585740889444],[98.106802572780566,2.6248518288488754],[98.106906593764336,2.6258332113336564],[98.106769700761163,2.626317356860568],[98.106725263460191,2.6264745196833701],[98.106711813199695,2.6267132420225607],[98.106686696933593,2.6271590143770709],[98.106670054979134,2.6272985621789644],[98.106600505908659,2.6278817680292264],[98.106576369004301,2.6283556495936296],[98.106539744113945,2.6283627299560521],[98.106241975886519,2.6284202928623017],[98.104737152897371,2.6287476946504285],[98.105568511377783,2.6297003348026351],[98.105781871935903,2.6296940377496867],[98.105857096627744,2.6299013368772535],[98.106302446300901,2.6311285913114943],[98.106224651346622,2.6334262278381857],[98.106126885147717,2.6370258767428822],[98.106157822725379,2.6381700733901994],[98.106197986447967,2.6396554170639206],[98.105739885287562,2.6418426042528154],[98.105589817216355,2.6425590986235648],[98.104425163690394,2.6470579014010696],[98.104004458139286,2.6496042040707835],[98.103526545813509,2.6522653483671661],[98.103449007166034,2.6541800337815857],[98.103505063707757,2.6556544273100258],[98.103884413934622,2.6576651828020204],[98.104738383169888,2.6615910284032793],[98.104927069928408,2.6639654472476195],[98.104886596839037,2.6672779219385916],[98.10475165446536,2.6695755152978222],[98.104597750785615,2.6717582076751683],[98.103935520607877,2.6749888440599534],[98.103679944973521,2.6762356533527623],[98.103681344318659,2.6762967532926041],[98.1037359160797,2.6786793676587308],[98.104019153960849,2.6819346382729918],[98.102063812894698,2.6870072597772605],[98.101056124340744,2.6884024356239706],[98.101044395382587,2.6884186746821115],[98.100674938597592,2.6889608048972491],[98.099674360083725,2.6904290281771637],[98.099300037966429,2.6909782981099966],[98.099189358402214,2.6911039603795075],[98.097622667452185,2.693111006168067],[98.095964922842995,2.6947655087212752],[98.094478668156057,2.696248857698663],[98.093157602741258,2.6975673411599246],[98.093063310623336,2.6976250200786467],[98.09120180931609,2.6991098817157422],[98.086675492679888,2.7047070651789795],[98.086055669133884,2.7060469084381111],[98.085292069173704,2.7086790846720419],[98.082793783106638,2.7137284380170286],[98.081811841243564,2.7157130682035699],[98.080048686197983,2.7182008672762663],[98.075139333013851,2.7265261522601918],[98.074816980918968,2.7271558800399021],[98.073931750350084,2.7288852169792222],[98.072847278579104,2.7310037778021297],[98.071792565374665,2.7338886068737338],[98.071614954666472,2.7347468550833582],[98.071577178643963,2.7350546858251619],[98.071420401630292,2.7363322222543047],[98.071412816748136,2.7363940308599126],[98.071450343658512,2.7383908936249099],[98.07146466716074,2.7391530762535012],[98.071813614906489,2.7410791722660406],[98.071834287622323,2.7411932782472377],[98.071849847692363,2.7412791662006271],[98.071880787968041,2.7413352317356043],[98.071975548632736,2.7415069446897746],[98.072318812663127,2.7421289652795622],[98.073981229250364,2.7469170691674663],[98.074456521851062,2.7478748012811138],[98.075931371335798,2.7489769150526513],[98.076454343293392,2.7498389476094189],[98.076501358051303,2.7506048750150285],[98.075452684693687,2.7524230469860527],[98.074542826190509,2.7540944343107299],[98.073191286348845,2.7565771755962487],[98.07292612124354,2.757064278093992],[98.069622236876796,2.7636542339557764],[98.069365278085172,2.7641667665830596],[98.070032475218625,2.7648865461771948],[98.070226217066306,2.7650955567146411],[98.070264311448852,2.7651366530341761],[98.070553968690774,2.7654491377675186],[98.070596901425915,2.7654954528529174],[98.070661425984099,2.7655254596323289],[98.072051648364948,2.7661719903451285],[98.072823952863189,2.7665311543893267],[98.073890752955947,2.7669829917717266],[98.076764262260951,2.7682000532898883],[98.079869299328777,2.7692865278510226],[98.082549445400616,2.7702243309881283],[98.083674506273496,2.7706179984219261],[98.085796948570362,2.7714612729194528],[98.08725251838905,2.7720395900551011],[98.088815477152593,2.7726605737265686],[98.089613704608837,2.7729777196460645],[98.09147215001974,2.7735526553308318],[98.094639541581614,2.774532528753241],[98.096036791264964,2.7748728016385371],[98.096295870657968,2.7749358962746555],[98.098667974647356,2.7751212069781559],[98.099079472939366,2.7751533532447183],[98.099266217162267,2.7751679420469486],[98.103435752957694,2.775493654008983],[98.104464330064843,2.7755740039371517],[98.105133526391171,2.7756780492026678],[98.106691966960739,2.7759203508435917],[98.108233969721994,2.7764385006363455],[98.108605499444309,2.7766957580028588],[98.109147507351622,2.7770710576832016],[98.109388817040326,2.7773426628336892],[98.109912861889143,2.777932499385372],[98.110117826376666,2.7781631952752832],[98.110802474854381,2.779312559427126],[98.111051006099103,2.7795737252472463],[98.111198612725843,2.7797288367165152],[98.111457853097477,2.7800012557534046],[98.112115338452156,2.7806921671098621],[98.113032558805628,2.781363990355942],[98.113694948163413,2.7818491611099603],[98.11399946310479,2.782072204668566],[98.11449790515428,2.7826320821049535],[98.115483497365574,2.7837391520402548],[98.115489211657859,2.783744422067457],[98.115827729965815,2.7840566226150827],[98.116868331008732,2.7850163269419568],[98.116899239808106,2.7850448336521936],[98.116738577723254,2.7851060612957212],[98.116468907014507,2.7852077809143907],[98.115366670935202,2.7857165049128412],[98.115182502370658,2.7858015061346464],[98.115143482585722,2.7858195150586198],[98.114635306274408,2.7860540582482258],[98.114361252270044,2.7861805442967125],[98.111524025213669,2.787558625829945],[98.110299779011655,2.7879156980510515],[98.109578498449025,2.7881260719606757],[98.107795097865505,2.7888556442725871],[98.106779629276502,2.7894903120283061],[98.105849571100862,2.7900715987253761],[98.10495787080913,2.7914496811579284],[98.104818680937456,2.7918208520507051],[98.104313495771294,2.7931680130933501],[98.103985107426809,2.794043717143893],[98.103850836846675,2.7946613589346043],[98.103428125807397,2.7966058307944763],[98.103174471124987,2.7977726435926797],[98.102658887098016,2.8008231817444766],[98.102531483741018,2.8015769835909623],[98.102201706843346,2.8035281616953398],[98.10202616997185,2.8042127580123974],[98.10197221334704,2.8044231903779746],[98.101391071440844,2.8066896438120352],[98.101348608151795,2.8068556370780584],[98.100499371149112,2.8101753800897882],[98.100206862156995,2.8111858673339611],[98.099607670857381,2.8132557982165736],[98.098938928688654,2.8152620247226992],[98.098310653314059,2.8171468526451804],[98.098291960905328,2.8173711543553281],[98.098148525334238,2.8190923803091437],[98.098189137818508,2.8192873236511105],[98.098553844384469,2.8210379070737872],[98.098607628339437,2.8211147406528312],[98.09912128871656,2.8218485433756086],[98.099168800799589,2.8220069175852132],[98.099323101979621,2.8225212524538961],[98.099364479786971,2.8226591796774301],[98.099215957650358,2.8226839344160908],[98.098496157371812,2.8228039003797676],[98.098391716404649,2.8228213067579304],[98.096377210739718,2.8223736386325413],[98.096202997670275,2.8223349246171097],[98.093608961684311,2.8216864162951083],[98.09214090567832,2.8213194020688093],[98.091339179859347,2.8211189710636972],[98.089961098326114,2.8207136520134668],[98.087448126330003,2.8205515249329665],[98.08574578973645,2.8205515249329665],[98.084013429276411,2.8203500875865188],[98.083620714224651,2.8203044227109899],[98.082260053458754,2.8201462067820557],[98.080156515810643,2.8197310347595135],[98.076099217205183,2.8189302523293236],[98.075528338362176,2.8188215126027671],[98.070992208323787,2.8179574889470018],[98.067311419886153,2.8173440236078591],[98.06710115389518,2.8173089797256807],[98.066739118315695,2.8173089797256807],[98.064507117009896,2.8173089797256807],[98.061507762873021,2.8173089797256807],[98.060473210670182,2.8174160026464392],[98.059156917957466,2.8175521707960911],[98.058452691238756,2.8177919084698715],[98.05534692661945,2.8188491892387333],[98.054567825944446,2.8192874333684017],[98.05293352486234,2.8202067266591371],[98.052752890633428,2.8203083338625561],[98.050077790657554,2.8218485433756086],[98.04780800883259,2.8241993891904826],[98.046510991289267,2.8259827888746827],[98.045329012324146,2.8282666136133798],[98.044119613929126,2.8306034156152009],[98.044104168072977,2.8306446054642151],[98.042903658577018,2.8338459608224866],[98.041768768114196,2.8365210607983613],[98.041120258892875,2.8395204149352367],[98.040552813661463,2.842600833062022],[98.039985368430052,2.8450327419675432],[98.039630023806637,2.8464541213606367],[98.039580050279142,2.8466540154705058],[98.039093668138321,2.8474646517723272],[98.03907993818865,2.8474646517723272],[98.037877713685589,2.8474646517723272],[98.036256441081946,2.8473835877824172],[98.035686779921036,2.8475260026229989],[98.033908754585411,2.8479705087320326],[98.033764712871289,2.8480065193854216],[98.033338150035661,2.8481131600943286],[98.032279442942013,2.849027498120563],[98.031554750351518,2.8496533696073811],[98.03069384734323,2.8507490649174656],[98.029771349768055,2.8519231514323451],[98.029717839206967,2.8520836840148718],[98.029284969425873,2.8533822969554876],[98.029092008189707,2.8536717383601058],[98.029076838425397,2.8536944930065147],[98.028150078063732,2.8550846326497208],[98.026123487309178,2.8567059061526834],[98.022743010381703,2.8595035423546165],[98.021421795679373,2.8605969596819705],[98.020999485737718,2.8608999223935712],[98.02086195061861,2.8609985888138567],[98.017692869230586,2.863272059657902],[98.013396495751749,2.8667577959355981],[98.010153951443783,2.8691897048410624],[98.009462457326606,2.8697184954122577],[98.008838138069677,2.8701959158088926],[98.007397788377318,2.871297359585526],[98.007067810930778,2.8715269088398259],[98.005856370175422,2.8723696509387082],[98.003668860129835,2.8738913964708104],[98.003644864419016,2.8739012773221475],[98.002290778596603,2.8744588408029017],[98.001818760427511,2.8744588408029017],[98.00091269706337,2.8744588408029017],[98.000284114120632,2.8740921683189526],[97.999939932781729,2.8738913964708104],[97.999254171842608,2.8738913964708104],[97.998894819840132,2.8738913964708104],[97.998379943579607,2.8738913964708104],[97.998075470006995,2.8738913964708104],[97.997888070178362,2.8741228900593683],[97.997883784009503,2.87412818436826],[97.996697387574443,2.8755937321650435],[97.99540037003112,2.8785120232113286],[97.994346541759569,2.8801332958149715],[97.993049524216246,2.8818356324085812],[97.991914632854105,2.8824841407305826],[97.991297260859938,2.882542020198116],[97.991186303405243,2.8825524217568841],[97.989320596868083,2.8827273318009929],[97.988417882579256,2.8827273318009929],[97.987409079765257,2.8827273318009929],[97.98729400611353,2.8827273318009929],[97.98635325320015,2.8826719938174961],[97.986135013819876,2.8826591568946469],[97.986038074097905,2.8826534542935178],[97.985915924580297,2.8826462687104026],[97.985901548018091,2.8826546557878032],[97.984140354393901,2.8836820179108713],[97.983970396916334,2.8837811591732248],[97.983797461783467,2.8839073547406997],[97.981051989857519,2.8859108086369361],[97.980971042779458,2.8859698779075984],[97.979019951909322,2.8868060594521125],[97.977566369592353,2.8874290234307409],[97.974323825284387,2.8888071049639734],[97.973195657253825,2.8891330201727783],[97.971551077820038,2.8896081212178615],[97.970675961026814,2.8898609323362052],[97.970532924754707,2.8898813658324229],[97.967271288739028,2.8903473135777062],[97.963941434649541,2.8909988067495647],[97.963542362290241,2.8910768858896176],[97.959245988811404,2.8919685861813491],[97.958017124590697,2.8922272941543383],[97.956165570684618,2.8926170954026702],[97.952923026376652,2.8935087947950819],[97.949275162119079,2.8948058141370439],[97.949000775365562,2.8950219976671292],[97.948697195719092,2.8952611813584781],[97.946929216710032,2.896654134081075],[97.946600062143204,2.8969134679821877],[97.944330280318241,2.8990211218273316],[97.942546880634097,2.9025068590044043],[97.942498319941592,2.902687226134617],[97.941979435402686,2.9046145128495482],[97.942384752654277,2.9064789774229212],[97.943276452946009,2.9089108863283855],[97.944411344308151,2.9114238592237598],[97.945438280152587,2.9125791615990693],[97.945708361851473,2.9128830038475826],[97.947410699344346,2.9142610862801348],[97.948383461827348,2.9153959767429569],[97.948788779978258,2.9168551222660994],[97.948302398736757,2.9183953308798891],[97.947816016595937,2.9199355403929417],[97.947580214355469,2.9202076203854404],[97.947072869917065,2.9207930178835113],[97.946762190123025,2.9211514948456738],[97.946019518286221,2.92256932101742],[97.945870488931973,2.9228538314392267],[97.945790073353237,2.9230721022957482],[97.945303043700562,2.9243940400529596],[97.944978790438881,2.9265827578880135],[97.945077839071075,2.9273751532408028],[97.945230294842304,2.9285948039071172],[97.945303043700562,2.9291767938739781],[97.945800597219829,2.9297891674361836],[97.946356871072794,2.9304738123166203],[97.948383461827348,2.9316897667693524],[97.950734307642222,2.9328246581314943],[97.951707071024543,2.9341216756748167],[97.952274517155274,2.9363914583991573],[97.952553740462804,2.9377875767353316],[97.952765598253791,2.9388468665896426],[97.952911413431025,2.9395759415764928],[97.953004089467242,2.940039320858034],[97.953004089467242,2.9403868620640878],[97.953004089467242,2.9440925032664609],[97.953312630673452,2.9477950004389868],[97.953409406718777,2.9489563210773895],[97.953814725769064,2.9513071659929437],[97.954706426060795,2.953739074898408],[97.955679189443117,2.9563331117837492],[97.956165570684618,2.9580354483773021],[97.956651952825439,2.9603862932928564],[97.956435834046545,2.9626015096520177],[97.956327697765119,2.9637099015907324],[97.955760253433027,2.967600956918659],[97.955435998372707,2.9700328658241233],[97.955233968373022,2.9710834214627653],[97.955030680221796,2.9721405196692672],[97.955192807302296,2.9744103023936077],[97.955192807302296,2.9770854023694824],[97.955175531325779,2.9775864038894611],[97.955111744211706,2.9794362472850366],[97.955354935282116,2.9809764558987695],[97.954949617131206,2.9827598555829127],[97.954080549178059,2.9842305861726572],[97.953895788859654,2.9845432561663756],[97.952923026376652,2.9857592106191078],[97.950328988591991,2.9864887829310192],[97.948383461827348,2.9869751650718399],[97.946518999052614,2.9868941010819299],[97.945513609165801,2.9873967960253367],[97.944755227971427,2.9877759870722116],[97.944573471388651,2.9878668653635714],[97.943357516935919,2.9880289924440717],[97.941898371412776,2.9880289924440717],[97.941564956757418,2.9879099159099383],[97.941486911791628,2.9878820423224397],[97.940763480949954,2.987623674293161],[97.939790716668313,2.9871372921523403],[97.93849369912499,2.9874615472126607],[97.937953274923757,2.9879899618672994],[97.937296759038247,2.9886785017115471],[97.937024545946088,2.9891428666500133],[97.936870725903361,2.9892085980983438],[97.93678696574591,2.98924439021647],[97.936685366636425,2.9892878058875567],[97.936303160162765,2.9894511317643833],[97.936269795314843,2.9894653887167806],[97.936187500153096,2.9895005558060461],[97.936171986847796,2.9895192032486761],[97.935770113100318,2.9900022659918477],[97.935318088658903,2.9902582031535871],[97.934771505001038,2.9903669141018554],[97.934332000021868,2.9902949998144663],[97.933118999842009,2.9900850000227592],[97.932345624251241,2.9900841429688967],[97.932216999614923,2.9900839999766617],[97.930968999619722,2.990291999676117],[97.930067000291899,2.990709000020388],[97.929372999764212,2.9913010003409681],[97.928871661897745,2.9918796331385806],[97.928679000135787,2.9921020004070442],[97.928226999976118,2.9930770004032752],[97.927672000462508,2.9936340000091377],[97.927012999750218,2.9941559997996023],[97.926111000422395,2.994677999590067],[97.924643000174399,2.9949899995888813],[97.923186000433645,2.9950929998421429],[97.922534009936669,2.9949655164454612],[97.9221120003686,2.9948830000504358],[97.921211000187554,2.9944990003286307],[97.920655999774624,2.9942190000068649],[97.92034399977581,2.9942190000068649],[97.920031999777052,2.9942539998222628],[97.919616000378198,2.9945669998671747],[97.919406999733326,2.9950889996576393],[97.919025000103716,2.9959250004384899],[97.918674715965437,2.9965527721927288],[97.918539000174803,2.9967960001353617],[97.917809999831661,2.9977360003161948],[97.917358999718147,2.998117999945805],[97.91669999990512,2.9985360003361734],[97.915542000463006,2.9987460001278237],[97.914571999798,2.9989190000118811],[97.914507141591343,2.9989252745817794],[97.913496999686856,2.9990230003112401],[97.913045999573285,2.9992310000106954],[97.912908611043633,2.9993571865849162],[97.912629000128334,2.9996139996864031],[97.91221299983016,3.0000000003997229],[97.911524999579115,3.0002700002603433],[97.909001000096112,3.0013780000946895],[97.907375999802582,3.0020359998615618],[97.905577999625052,3.0028329997431911],[97.904402000252162,3.003804000454295],[97.903720038948677,3.0044080696767423],[97.902326999891216,3.0056419997785042],[97.900389000452094,3.0074450001866353],[97.897831000300471,3.0083109996529629],[97.89658989810539,3.008487701146521],[97.895168999849545,3.0086900000435435],[97.892611999744076,3.0087570004352528],[97.891065623579721,3.0087825600671181],[97.89067600039715,3.0087890001123014],[97.889018000380474,3.008648999951447],[97.887255000018286,3.0086469998591951],[97.886187809619798,3.0085579993522629],[97.885948000000269,3.0085380002285547],[97.883770000285324,3.0085010003209618],[97.88190399966993,3.0085679998134083]]]},"properties":{"OBJECTID":252,"nama_kawasan":"Kawasan Perkotaan Subulussalam","delineasi_asal":"Kota Subulussalam","Shape_Length":1.8213047921079195,"Shape_Area":0.096263353552503914}}]}