{"type":"FeatureCollection","features":[{"type":"Feature","id":494,"geometry":{"type":"Polygon","coordinates":[[[115.1374343281318,-2.2962180196458348],[115.13166666738289,-2.2938611106017106],[115.12550284987663,-2.2946358999267886],[115.12550275904516,-2.2946362857359759],[115.12550261965021,-2.2946395700600419],[115.12549200944875,-2.2948090311118676],[115.1254909041819,-2.2948266776090236],[115.12547906280861,-2.2950157906461754],[115.12530040798754,-2.2978690670037736],[115.12519190388332,-2.2979547265293832],[115.12516829398169,-2.2979721472967185],[115.12514360669218,-2.297987984357917],[115.1245733852536,-2.2983280252181544],[115.12435691214182,-2.2985539097351193],[115.12332722976794,-2.2996859916151493],[115.12331106535339,-2.299702864695405],[115.12267146481634,-2.3003367536382484],[115.12264492492341,-2.3003610362328004],[115.12261381287726,-2.3003850499300711],[115.12258073940961,-2.3004062451520326],[115.12256153888393,-2.3004167780118223],[115.12239592782987,-2.3005024393360713],[115.12238789418598,-2.3005064925804959],[115.12204253473521,-2.3006764311722918],[115.12182960045573,-2.300800873061803],[115.12161319299457,-2.3009273249360263],[115.12078514042196,-2.3014013126204418],[115.12075535667441,-2.3014169095627039],[115.12072450003575,-2.3014302267235394],[115.11988502607312,-2.3017557372374426],[115.11987708865672,-2.3017587292818575],[115.11983968945015,-2.3017705913396753],[115.11980140261267,-2.3017791286038687],[115.11977689428829,-2.3017827789520311],[115.11944567307944,-2.301822753816964],[115.11939212384755,-2.3018259733898958],[115.11938151634399,-2.301825839390915],[115.11938078609444,-2.3018258285990782],[115.11937202040247,-2.3018256073658563],[115.11825577558363,-2.3017972760234215],[115.11822256182188,-2.3017951931935841],[115.1164239168304,-2.3016149816460256],[115.11529092843364,-2.3015014647207863],[115.11507554799823,-2.3015111225402052],[115.11448094414027,-2.3015377865395976],[115.11411510982452,-2.3016021842933014],[115.11348307438448,-2.3019208149935935],[115.11347831607145,-2.3019231784119256],[115.11315213646196,-2.3020827981825391],[115.11192842985326,-2.3026816333506304],[115.11187183731545,-2.3027093270737282],[115.1111422452185,-2.3030842247571286],[115.11023030208685,-2.3035528237037965],[115.11001975910472,-2.3036610103472981],[115.11001440184327,-2.3036637182059962],[115.10923838134624,-2.3040494320356402],[115.10808418333841,-2.3046231167633664],[115.10803931346356,-2.304642444992794],[115.10737090134603,-2.3048881011049502],[115.1073331199276,-2.3049000908664539],[115.10727631514987,-2.3049153838378516],[115.10725845641275,-2.3049298413390602],[115.10719590136978,-2.3049997573328938],[115.10716579386633,-2.3050384650530873],[115.10715857860555,-2.3050569029536518],[115.10714863300302,-2.3051331582685748],[115.10714562387147,-2.3051528534214185],[115.10713682310598,-2.3051925360067003],[115.10709684824099,-2.3053410140764754],[115.10708779746392,-2.3053705819867218],[115.10702497891975,-2.3055533251257998],[115.10702255075023,-2.3055602076374271],[115.10700754376319,-2.3055966526633256],[115.10698943591376,-2.3056316425862065],[115.10698350578423,-2.305641675422919],[115.10682360632438,-2.3059043673925999],[115.10681898380915,-2.3059117975913637],[115.1060423283908,-2.3071338890177344],[115.10603618781988,-2.3071432923290445],[115.10576719789788,-2.3075442136944844],[115.10537092512811,-2.308134850642773],[115.10535466628494,-2.3081590846739459],[115.10499211989043,-2.3086994513186028],[115.1048456482082,-2.3089177635438887],[115.10419264507459,-2.3100532637470792],[115.10383476076561,-2.3106755847103955],[115.10382551573502,-2.3106916609913242],[115.10380074570787,-2.3107300989148598],[115.10312652307061,-2.3116685450672776],[115.10285695308596,-2.3120437566140026],[115.10253529616705,-2.3124914697054919],[115.10139542435945,-2.3141385852274539],[115.10138909942748,-2.3141474930123422],[115.10038344424061,-2.3155281376133985],[115.10033720020169,-2.3155970679502502],[115.09922665078932,-2.3172524149669016],[115.09918549781253,-2.317313756824376],[115.09841035775185,-2.318640976299946],[115.09824975592153,-2.3189932632284922],[115.09786723018863,-2.3200283352394422],[115.09786470579161,-2.3200350028130856],[115.09710804320173,-2.3219875415917386],[115.09687270411212,-2.322594826789782],[115.09671420759469,-2.323029746125826],[115.09648224635862,-2.3236662610890448],[115.09619441204256,-2.3244560933739535],[115.09591487936825,-2.3252231467307638],[115.09591257890247,-2.3252293178786658],[115.09531866572388,-2.3267883412089532],[115.0953046947559,-2.3268210891218928],[115.09528820478693,-2.326852628346046],[115.09526719842256,-2.3268858052356904],[115.09524340505914,-2.3269170198045686],[115.0951005648393,-2.3270884278886115],[115.09506742302324,-2.3271240788131422],[115.09498419076783,-2.3272044422311637],[115.09491034383734,-2.3274376427330026],[115.09490715304275,-2.3274473392232835],[115.09451286687533,-2.3286016235660441],[115.0941066467044,-2.3297778981314536],[115.09385588783903,-2.3305040107514401],[115.09385367011089,-2.3305102853213384],[115.09384239620965,-2.3305384601817423],[115.0938292670071,-2.3305658103637938],[115.09301263582449,-2.3321305443890878],[115.09300392409193,-2.3321464533960352],[115.09299894184778,-2.3321549178151599],[115.09271156708519,-2.3326313561520919],[115.09269045280223,-2.3326663613634651],[115.09236094030518,-2.3332126581375974],[115.09217161502806,-2.3336237661238783],[115.09215302873929,-2.3336597902670633],[115.09213425089501,-2.3336897340939231],[115.09181445107606,-2.3341580119825949],[115.09180964869643,-2.3341649061854355],[115.09150157783563,-2.3345984873302541],[115.09216163435201,-2.335983142008331],[115.09229797786941,-2.3362691623918863],[115.09339171715408,-2.338275755821428],[115.09352163141818,-2.3385140977473498],[115.09352989708714,-2.3385292630150047],[115.09375880512482,-2.3389536917594],[115.09377357199287,-2.3389836679618838],[115.0937860959516,-2.3390146585995808],[115.0937871364672,-2.3390175661077706],[115.09386803767984,-2.3392459939074683],[115.0938791847766,-2.3392822024116526],[115.09388727777571,-2.3393192221043932],[115.09389165027949,-2.3393505293034309],[115.09389383743076,-2.3393820667289447],[115.09389742392705,-2.3394860994039277],[115.09389859574367,-2.3395200748914817],[115.09389886643964,-2.3395357500747309],[115.09389739784672,-2.3395722670464352],[115.09389300285989,-2.3396085456977858],[115.09386444938491,-2.3397846257598189],[115.09386348261364,-2.3397903499446215],[115.09385596697939,-2.3398251537078067],[115.09384574978162,-2.3398592542012011],[115.09373153588172,-2.3401923792748107],[115.09372898900165,-2.3401996080254435],[115.09372336913827,-2.3402143353232532],[115.09349018212629,-2.3407949241463939],[115.0934861873377,-2.3408045486909259],[115.09340052601351,-2.341004423914967],[115.09337702582911,-2.3410515070214046],[115.09336726368838,-2.3410677199992165],[115.09311873783952,-2.341461609565556],[115.09266582936459,-2.3422306126525996],[115.09187326314066,-2.3435879405309947],[115.09116259367886,-2.3448489078507464],[115.09080150868272,-2.3454895929702957],[115.09078488561408,-2.3455204118374695],[115.08976129974428,-2.3474180191262235],[115.08975867102595,-2.3474228233046119],[115.08908766346497,-2.3486315885768931],[115.08908447986494,-2.3486372282254706],[115.08906340874933,-2.3486704977452177],[115.08903953534639,-2.3487017941524186],[115.08901304131882,-2.3487308773280802],[115.08898412721578,-2.3487575269382432],[115.08895301516952,-2.3487815415348905],[115.08891993990335,-2.348802736756852],[115.08888515412661,-2.3488209507262354],[115.08884892313938,-2.3488360467461007],[115.08881152123479,-2.3488479088039185],[115.08877323439731,-2.3488564469674316],[115.08873435310795,-2.3488615955861292],[115.08869517324376,-2.3488633168885258],[115.08865599427872,-2.3488615955861292],[115.08861711298948,-2.3488564469674316],[115.08858938329342,-2.3488506166625598],[115.08763861822774,-2.3486190493296135],[115.08656303805378,-2.348357081314191],[115.08506958789121,-2.3480346860518466],[115.08387683594731,-2.3477764133507435],[115.08302253845943,-2.3476565786880883],[115.08284219201357,-2.3476312816582663],[115.08214810335232,-2.3475362008349521],[115.08213070237014,-2.3475334668959249],[115.08211004674138,-2.3475292985382339],[115.08185941737827,-2.3474725531157787],[115.08171265071837,-2.3474404482180375],[115.08166735906138,-2.3474313893470935],[115.08155041392058,-2.3474583771023845],[115.08132430817034,-2.3475293120280867],[115.08049160610278,-2.3477910183407857],[115.08048734511499,-2.3477923340489042],[115.07922741201548,-2.3481745612069744],[115.0792164456825,-2.3481778877992383],[115.07850710002276,-2.3483921198004509],[115.07849938204095,-2.3483943753001313],[115.07798879644588,-2.3485386202610812],[115.07786724497748,-2.3485554636636721],[115.07361478809207,-2.3507427452814227],[115.07049789076507,-2.3526773722628604],[115.06762230222751,-2.35446222075484],[115.0574342353018,-2.3607858531845523],[115.04880573219884,-2.3661414787462149],[115.03302138023253,-2.3759386688344648],[115.02863158338096,-2.3786633718170833],[115.01756506767379,-2.3855322470155329],[115.00884097742926,-2.3909472035505814],[115.00612846295826,-2.3926308342455513],[115.00410603966202,-2.3938861322391745],[115.00235982424658,-2.3950559676587204],[115.0023533437319,-2.3950603086862543],[115.00169746366703,-2.3954997003508538],[115.00140753393066,-2.3956939323290385],[115.00137293071623,-2.3957171132541362],[115.00136436017715,-2.3957228554253902],[115.00133010769832,-2.3957467782911408],[115.00101813377989,-2.3959646741303686],[115.00072831915668,-2.3961597577665543],[115.00071728267653,-2.3961671870659984],[114.99972606340714,-2.3968344075818209],[114.99965106174716,-2.3968864558452196],[114.99926792717315,-2.3971523377101676],[114.99874902194983,-2.3975543733355948],[114.99872548938993,-2.3975714181863736],[114.99870091181765,-2.3975869018140088],[114.99836706638712,-2.3977824378092123],[114.99834828134817,-2.3977928015964949],[114.99814587812989,-2.3978982201267058],[114.99793726509279,-2.398044249342604],[114.9977677626722,-2.3981702893273678],[114.99772835797739,-2.3982034716128737],[114.99767904635098,-2.3982701878188664],[114.99766265081075,-2.3982910583856096],[114.99763615588392,-2.3983201415612143],[114.99760724088151,-2.398346792070754],[114.99759700569734,-2.3983551755508756],[114.99741140811011,-2.3985027030372521],[114.99739229931527,-2.3985170795995145],[114.99705129258314,-2.3987597193855095],[114.99590994408868,-2.3995718332734555],[114.99552211865091,-2.3998556071505277],[114.99550958300097,-2.3998644546807668],[114.99516694130136,-2.4000976416927529],[114.99513979616472,-2.4001147306102553],[114.99511825740171,-2.4001264640650106],[114.99487555196527,-2.4002501963893792],[114.99484014115967,-2.4002663527099344],[114.99465319728733,-2.4003420198682761],[114.99445198297269,-2.4004384352855368],[114.9942661983265,-2.400544597555097],[114.99424424677466,-2.4005563462982877],[114.99412034267971,-2.4006182978960737],[114.99398070314703,-2.4007248648605923],[114.99354119277189,-2.4010903529373877],[114.99325610858261,-2.4013427215892875],[114.99324806864354,-2.4013496715500651],[114.99324326716317,-2.4013536681372329],[114.99305766867656,-2.4015059530372582],[114.99302673199816,-2.4015291861230139],[114.99286584508275,-2.401639507757011],[114.99272153626998,-2.4017451007557611],[114.99264255600917,-2.4018405323146794],[114.99262380334596,-2.4018617149461647],[114.99246675923359,-2.4020282783823177],[114.99242953539476,-2.4020635102227743],[114.99241056779351,-2.4020786620005765],[114.99219641583204,-2.4022404653251783],[114.99217758582699,-2.4022539452633396],[114.99203553701045,-2.4023501970039547],[114.99159218023499,-2.4026506128354868],[114.99130670304203,-2.4028440516116234],[114.99128448529086,-2.4028581745650399],[114.99088473484267,-2.4030961207893142],[114.99088056108906,-2.4030985750391665],[114.99084577441306,-2.4031167899078696],[114.99080954072781,-2.4031318859277349],[114.99080670966202,-2.4031329111548985],[114.99055448670026,-2.4032233307920592],[114.99051846075838,-2.4032345570291227],[114.99048162722534,-2.4032427048868499],[114.99045957944611,-2.4032460512642047],[114.9899050808549,-2.4033160931631414],[114.9895553830745,-2.4033602651640535],[114.98950877481013,-2.4033636897823953],[114.98905667662439,-2.4033732082069719],[114.9890472697158,-2.4033733071323695],[114.98899182920957,-2.4033698546350593],[114.9888395443096,-2.4033508186852828],[114.98881692096415,-2.4033474021608185],[114.98877863232804,-2.4033388639973055],[114.98874122862492,-2.4033270019395445],[114.98870499583893,-2.4033119059196792],[114.98867020916293,-2.4032936910509761],[114.98864318273672,-2.4032766830724199],[114.98861742345537,-2.4032577919135178],[114.98852700381826,-2.4031864082261336],[114.98851560041464,-2.4031770975449831],[114.98847911401992,-2.4031426463160415],[114.98839764443585,-2.4030566495446806],[114.98833056760168,-2.4029895736098865],[114.9883031445745,-2.402959560535237],[114.98829208830932,-2.4029457658343745],[114.98788088229696,-2.4024116710617136],[114.98763155335359,-2.4021011864205661],[114.98762894442029,-2.4020979047944024],[114.9875095935929,-2.4019464238883188],[114.98747927205079,-2.4019103260006887],[114.98744551869584,-2.4019078555630244],[114.98720476658673,-2.4019122325634612],[114.98697692964163,-2.4019169800845361],[114.98696762075917,-2.4019170772112943],[114.98676712320423,-2.4019170772112943],[114.98664445567715,-2.4019351158128757],[114.98656618228358,-2.4019490930761549],[114.98649834102571,-2.4019773605666614],[114.98639621041684,-2.4020205702930184],[114.98637322914124,-2.4020331050436994],[114.9863508935789,-2.402058068425049],[114.98630553267424,-2.4021346151203602],[114.98588445660243,-2.402976767263965],[114.98587216017211,-2.4029996918822008],[114.98586192408857,-2.403016653995337],[114.98534320142767,-2.4038351881433755],[114.98532299905719,-2.4038644547807166],[114.98462343802134,-2.4047972037279237],[114.98460893015806,-2.4048155400051314],[114.98459631626702,-2.4048300226873494],[114.98416801324333,-2.4053011559235529],[114.98415111408269,-2.4053187637499036],[114.98381598442018,-2.4056495406936733],[114.9834209086481,-2.4060394849342401],[114.98330306238643,-2.40615973688233],[114.98305578119937,-2.4064120650647283],[114.9827239727332,-2.406750645425916],[114.98271032821913,-2.4067639913650396],[114.98172047232197,-2.4076919811000153],[114.98171765204802,-2.407694602623792],[114.98123224207438,-2.4081419406979307],[114.98122946586727,-2.4081444776854255],[114.98107870981471,-2.4082811008920544],[114.98095649374727,-2.408393914547446],[114.98094149845144,-2.4084071525679747],[114.9808965296512,-2.4084405443955461],[114.98080135170107,-2.4085024096584107],[114.98079461757754,-2.4085067021225655],[114.98068040367775,-2.4085780858099497],[114.98066791479255,-2.408585612236152],[114.98063910411145,-2.4086009699587407],[114.98045350562484,-2.4086913895959015],[114.98045008640247,-2.4086930380532294],[114.98007643068274,-2.4088711757640908],[114.97982037930717,-2.4090540699892813],[114.97955170594651,-2.4093689208389719],[114.97954970315629,-2.409371251881737],[114.97918512699209,-2.4097926454141998],[114.97893647074159,-2.4100874809524271],[114.97885383743471,-2.4101854611900535],[114.97882804307983,-2.4102135461182002],[114.97879998423196,-2.410239337775181],[114.97876887038717,-2.4102633523717714],[114.97873579332224,-2.4102845466944132],[114.97870847011984,-2.4102991768654647],[114.97868021072316,-2.4103118797893899],[114.97823763186125,-2.4104927190637113],[114.9782334203361,-2.4104944151850418],[114.97703708639244,-2.4109691511054052],[114.97559092707968,-2.4115665806331208],[114.97541171827629,-2.4116430715704382],[114.97403378513116,-2.41223121379943],[114.97383967636006,-2.4123156097775222],[114.97368095771014,-2.4124073127472343],[114.9735881548695,-2.4124846499465775],[114.97343575035961,-2.4126455206741753],[114.97332594943305,-2.4127624055604997],[114.9732852838888,-2.4128341678625134],[114.97324707079576,-2.4129258780267833],[114.97323652804334,-2.4130023150048032],[114.97321703343937,-2.413160444598816],[114.97319646324627,-2.4134621473601783],[114.97319198462242,-2.4135019198776604],[114.97311108430915,-2.4140158833263285],[114.97310978478879,-2.4140236930389278],[114.97310712819149,-2.4140375758734081],[114.97305598104879,-2.4142840107984398],[114.97302609837584,-2.4144495148332226],[114.97302181400562,-2.4144704258694105],[114.97299245563738,-2.4145983427392821],[114.97297840373039,-2.414692689715821],[114.97297653493922,-2.4147042181251095],[114.97296828995468,-2.4147418142832748],[114.97295689464499,-2.4147785677766365],[114.9729216879856,-2.4148771487613772],[114.97287219469604,-2.4150185563612467],[114.97287059300356,-2.4150230565687707],[114.97285558511726,-2.4150595015946692],[114.97283747636845,-2.4150944924168698],[114.97282098460084,-2.4151210520948325],[114.97280270677959,-2.4151464012853694],[114.97272894438538,-2.4152415792354418],[114.97271876495904,-2.4152542362939471],[114.97271277187701,-2.4152612725895892],[114.97261759302751,-2.4153707281765264],[114.97259401999804,-2.4153958345500541],[114.97256860965365,-2.4154190586426125],[114.9724760442341,-2.4154973841968967],[114.97239730499166,-2.4155641912344095],[114.9723657405865,-2.4155885862442119],[114.97233266442095,-2.4156097805668537],[114.9723138766841,-2.4156200993880361],[114.97223114894848,-2.4156629952509547],[114.97218107379763,-2.415705767906843],[114.97213057596537,-2.4157634801004519],[114.97211049500345,-2.4157902547164554],[114.97210733838301,-2.4158073886000579],[114.97210051073,-2.4158383486608273],[114.97209154269058,-2.4158687511418862],[114.97206060960946,-2.4159615485865515],[114.97205681806781,-2.4159724618595533],[114.97204180928213,-2.4160089068855086],[114.97202369963406,-2.4160438968083326],[114.97200525813616,-2.4160733469074103],[114.97199309570487,-2.4160898089974125],[114.97198461869527,-2.4161012816487641],[114.9719370301699,-2.4161607691041809],[114.97193335194265,-2.4161653061838706],[114.97187862459896,-2.4162319306590234],[114.97187643744769,-2.4162345737665305],[114.97184994072222,-2.416263656942192],[114.97182102571981,-2.4162903083509946],[114.97181353526651,-2.4162964929886925],[114.97175166910426,-2.416346461120213],[114.97172751691141,-2.4163646615998005],[114.9717022063918,-2.4163811911390098],[114.97162368388592,-2.4164287805637059],[114.97161644704147,-2.4164330748265002],[114.9715817790759,-2.4164512330379466],[114.97146518556997,-2.4165059612810182],[114.97146256404619,-2.4165071807617551],[114.97133883172182,-2.4165642877116511],[114.9713051008498,-2.4165782200087733],[114.97125654825118,-2.4165929338167871],[114.97103049915825,-2.4166476611605958],[114.97102048970385,-2.4166499229555143],[114.9710216696144,-2.4166535634111597],[114.97102912589355,-2.4166832437366566],[114.97105529976238,-2.4168045955556181],[114.97105869020641,-2.4168219443772045],[114.97106274435021,-2.4168502874107958],[114.9710650052458,-2.4168788300938786],[114.97106976445809,-2.416978768155559],[114.971070009973,-2.4169890995672176],[114.97107027887034,-2.4170004013474227],[114.97106892628995,-2.417035455122118],[114.97106487484416,-2.4170702993548048],[114.9710482193999,-2.417177375335541],[114.97104679307506,-2.4171859962366966],[114.97103378618033,-2.417240315288268],[114.9710076123115,-2.4173259757131405],[114.97100033679612,-2.4173477905680443],[114.97098864381087,-2.4173769160117899],[114.97097496782055,-2.4174051547240651],[114.97092975800194,-2.4174908160482573],[114.97092201034252,-2.4175048859416961],[114.97089591741269,-2.4175452223340699],[114.97082691333139,-2.4176404011835189],[114.97080805904477,-2.4176646298187734],[114.9707838322081,-2.4176914152265567],[114.97075755311869,-2.4177161636699793],[114.97061272629639,-2.4178419959113171],[114.97048696690001,-2.4179516799260341],[114.97048142078097,-2.4179564382390026],[114.97045795207293,-2.4179749471859964],[114.96978223296378,-2.4184723514178472],[114.96915372106741,-2.4189882942742997],[114.96914199480727,-2.4189975977608924],[114.9687405554323,-2.4193053691474233],[114.96814262138491,-2.419763785070586],[114.96811925609882,-2.4197805385409765],[114.96809487727683,-2.4197957613652648],[114.96808440557095,-2.4198016546226313],[114.96777031734632,-2.4199729763716959],[114.9677630103547,-2.4199768749327859],[114.9675441000802,-2.4200910888326348],[114.9675316228861,-2.4200973526106964],[114.96739361472362,-2.4201639779851689],[114.96736715037378,-2.4201757159364661],[114.96719106941237,-2.4202470996239072],[114.96717676839319,-2.4202526151660209],[114.96715150194029,-2.4202610220285123],[114.96691072465023,-2.4203332546759384],[114.96690097240207,-2.4203385750651591],[114.96669889563759,-2.4204487977737585],[114.9663461122833,-2.420662324706484],[114.96621312593504,-2.4207430658397584],[114.96620558511972,-2.4207475453628717],[114.96618092121264,-2.420760856228469],[114.96596201003877,-2.4208703109160865],[114.9659156535846,-2.4208903109390576],[114.96587233414095,-2.4209037243273883],[114.96570562321597,-2.4209462190926843],[114.96565439243636,-2.4209809832856877],[114.96556359688259,-2.4210555649623302],[114.96546281705537,-2.4211679730235005],[114.96544112540766,-2.421190540610894],[114.96541792919413,-2.4212115406800194],[114.96538575774662,-2.4212362972173196],[114.96524902662134,-2.4213320075660363],[114.9650645657772,-2.4214703538737012],[114.96483613707812,-2.4216416756227659],[114.96483027709564,-2.4216459968652089],[114.96466878043998,-2.4217630823003446],[114.96462323157698,-2.4218086302640245],[114.96454096519346,-2.4219208116960544],[114.96442536543827,-2.4220835098460611],[114.96430075357694,-2.4222940591234874],[114.96429696833047,-2.4223004551018903],[114.96426762525073,-2.4223440443421396],[114.96402491981428,-2.4226628917789981],[114.96401235088933,-2.422678662290366],[114.96398995057586,-2.4227035717124181],[114.96384675242575,-2.4228513896798631],[114.96376117293983,-2.4229447492007807],[114.96374626038164,-2.4229610179365864],[114.96372612186315,-2.4229816250019667],[114.96370471799844,-2.4230008947754413],[114.96366625939038,-2.4230299725551276],[114.9634759016916,-2.4231584640917845],[114.96345017028921,-2.4231745952313304],[114.96342958930416,-2.4231858376562627],[114.96324351327758,-2.4232812611212466],[114.96300033120042,-2.4234052371619441],[114.96297068235117,-2.4234190138763552],[114.96283387118626,-2.4234766190506889],[114.96275232695837,-2.4235336999202559],[114.96236312196061,-2.4238821737233138],[114.96235318445201,-2.4238908144095035],[114.96233754614093,-2.4239034247032123],[114.96199159583557,-2.4241699001207735],[114.9613366186901,-2.4247117884182785],[114.96084553129629,-2.425120339631917],[114.96077077784923,-2.4251825286507369],[114.96076409318846,-2.4251879830389385],[114.96038337869004,-2.4254925537383087],[114.96035190511634,-2.4255155691881214],[114.95999498577999,-2.4257535154123389],[114.9599713983614,-2.4257682076366223],[114.95995392992995,-2.4257778393757121],[114.95974453718065,-2.4258872940633296],[114.95972994927774,-2.4258945848671374],[114.95956799936368,-2.4259718797983396],[114.95956799936368,-2.4260148386138667],[114.95958307200124,-2.4261617941314739],[114.95960421776056,-2.4262844463700617],[114.95960934209756,-2.4263249536336389],[114.95962361883505,-2.4265010336957289],[114.95962510631364,-2.4265377880884103],[114.95962339580319,-2.4265771981791318],[114.9596182768621,-2.4266163078962677],[114.95961627676979,-2.4266269639631446],[114.95960200093168,-2.4266983476505857],[114.95959408509896,-2.4267314328093335],[114.95958371771451,-2.4267638245908074],[114.9595687098282,-2.4268002696167059],[114.95955060018014,-2.4268352595395299],[114.95952952816526,-2.4268685299586537],[114.95950565296357,-2.4268998263658546],[114.95948197741143,-2.4269260469994265],[114.95945633324322,-2.4269503250973798],[114.95938563124196,-2.4270121885616049],[114.95931953376953,-2.4270738802553069],[114.95930271644727,-2.4270888090013045],[114.95926376501086,-2.4271182186308238],[114.95901630126139,-2.427284781167657],[114.95899105998944,-2.4273005813566897],[114.95898345532225,-2.4273048990018538],[114.95812004410482,-2.4277840442981642],[114.95787326204152,-2.4279254923675353],[114.9577325046514,-2.4280061696489383],[114.95772840913878,-2.4280084890005469],[114.95690465802363,-2.4284692323691388],[114.95688607982879,-2.4284796231360701],[114.95685875212973,-2.4284937011233865],[114.95599262765768,-2.4289029690967254],[114.95598099312838,-2.4289082652042566],[114.95498689333056,-2.4293437753948979],[114.95406887617776,-2.4297743905756306],[114.95406082814475,-2.4297780697020812],[114.95336602542181,-2.4300873996137398],[114.9533551049542,-2.4300920895782383],[114.95308652602239,-2.4302032259980137],[114.95287494072602,-2.430299818581716],[114.95284289608287,-2.4303129756632416],[114.95282551398634,-2.4303186800630101],[114.95281407011328,-2.4303224347325454],[114.95278467577225,-2.4303299170919672],[114.95265257165897,-2.4303588150072528],[114.95263239087217,-2.4303632297791751],[114.9526149170448,-2.4303666885717803],[114.95256473307609,-2.4303726879491592],[114.95245049759239,-2.4303798276668545],[114.95235308572637,-2.4304028988746609],[114.95222298620195,-2.4304648513717666],[114.95206077368584,-2.4305702887877487],[114.95190704807192,-2.4306740543640899],[114.95175033670876,-2.430826746656976],[114.95174014828922,-2.4308363703021882],[114.95141365121913,-2.4311352770713484],[114.95113876534185,-2.4314239063881473],[114.95113375342009,-2.4314290855837726],[114.95102283013955,-2.4315418893466472],[114.9508592938214,-2.4317081973753716],[114.95059644986634,-2.4319977700809545],[114.95037884360886,-2.4322788450925827],[114.9503685238883,-2.4322916838141282],[114.95036463162251,-2.4322962865443287],[114.95011606620358,-2.4325862810320018],[114.95002576167963,-2.4326916357103983],[114.94980099232203,-2.4329679146375156],[114.94979745438911,-2.4329722097995727],[114.94977843372783,-2.4329935929798694],[114.94912888758813,-2.4336787846481229],[114.94900198695223,-2.4338126487347154],[114.94862135339281,-2.434235577409936],[114.94820349329666,-2.4347056692312208],[114.9481713470301,-2.4347383290106563],[114.94776683916837,-2.4351095250844423],[114.94775281424108,-2.4351218700782056],[114.94774389926158,-2.4351291995528754],[114.94678735605169,-2.4358953859632493],[114.9467827200466,-2.4358990498012645],[114.94622116717323,-2.4363368703502601],[114.94620063744946,-2.4363519618734699],[114.94540371311098,-2.436903678861654],[114.94500371804725,-2.4372047502989176],[114.94496826137618,-2.4372314376806798],[114.94493005008178,-2.4372572392301777],[114.94460644433195,-2.4374523552419305],[114.94460008162855,-2.4374561198040396],[114.94457541862073,-2.4374694297703172],[114.9442708479213,-2.4376217146703425],[114.94426452388871,-2.4376248155327858],[114.94389808702715,-2.4378008955948189],[114.94389258317619,-2.4378034946355456],[114.94343096836451,-2.4380176456977551],[114.94342627300421,-2.4380197905808245],[114.94295038145503,-2.4382339425423538],[114.94292054464745,-2.4382460986784622],[114.94291423410471,-2.438248355976782],[114.94261442081893,-2.438353052351431],[114.94259367705661,-2.4383597352135666],[114.94245253835402,-2.4384014349781751],[114.94238392098123,-2.4384486089161328],[114.94220172193195,-2.4386138602413894],[114.94218963414437,-2.4386244362686966],[114.94215852029959,-2.4386484499659673],[114.94212544323466,-2.4386696451879288],[114.94210078022684,-2.4386829551542064],[114.94192945937709,-2.4387686155790789],[114.94188310022491,-2.4387886156021068],[114.94182896283644,-2.4388046442189193],[114.94166240119887,-2.4388427152190957],[114.94164084444947,-2.4388470877228769],[114.94160431578666,-2.438852023202287],[114.94124739734957,-2.4388853349901751],[114.94123448038704,-2.4388859366366091],[114.94120585946291,-2.4388872703312359],[114.94119865139669,-2.4388872118752829],[114.94092987821136,-2.438882877143044],[114.94090706331042,-2.4388851973939154],[114.94069760491061,-2.4389064978365695],[114.9405307716778,-2.4389406217122769],[114.94033664312167,-2.4389997053720549],[114.94000820081783,-2.4391076222189554],[114.93998032812965,-2.439115788063134],[114.93972699180733,-2.4391811651785815],[114.93960557523712,-2.4392389825929399],[114.93947419507811,-2.4393365797193383],[114.93946391492784,-2.4393439928309704],[114.93932114845234,-2.4394439308926508],[114.93928912539286,-2.4394643850732791],[114.93925837577353,-2.4394806807887335],[114.93922646692795,-2.4394945393414673],[114.93879816390415,-2.4396611009789808],[114.9387913857139,-2.4396636739393784],[114.93840511970052,-2.4398067335938549],[114.9384009972083,-2.4398082300656938],[114.93808124775148,-2.4399224259791481],[114.93771834342692,-2.4400786130375423],[114.93770914246306,-2.4400824522433027],[114.93726180259023,-2.4402632906183044],[114.93725179763237,-2.4402671972732719],[114.93690822243661,-2.4403965962258667],[114.93658262019187,-2.4405616272172779],[114.93656976258455,-2.4405678882973803],[114.93615663741889,-2.4407609790359288],[114.93613246274299,-2.4407760876462703],[114.93608501001529,-2.4408057472873566],[114.93569194692589,-2.4410514105940706],[114.93528546685093,-2.4413270698883025],[114.93490525237553,-2.4415867293440101],[114.93456262776317,-2.4418471226465499],[114.93431038321762,-2.4420506886883118],[114.93406873718254,-2.4422796174103496],[114.93393616542176,-2.4424335705527938],[114.9339290302006,-2.442441659954568],[114.93391422466175,-2.4424580438036401],[114.93357258300841,-2.4428361277850286],[114.93338583338959,-2.4430440996054585],[114.93316146782752,-2.4433828472405708],[114.93315700719018,-2.4433894545596218],[114.93274774011616,-2.4439843201202507],[114.93272747389392,-2.4440115300080834],[114.93241338566929,-2.4444017620316458],[114.93240801581737,-2.4444083063982021],[114.93215181875155,-2.4447139445928201],[114.93196056262991,-2.4449986052014197],[114.93193246421197,-2.4450360772531212],[114.93192136837649,-2.4450488809010835],[114.93162155599009,-2.44538200597475],[114.93160058020271,-2.4454037956485877],[114.93144646338362,-2.4455535102862314],[114.93124843446776,-2.4457779432974007],[114.93115809127301,-2.4458869771022478],[114.93111313506324,-2.4459948741640574],[114.93109965512508,-2.4460272263753495],[114.93099825386639,-2.4463897331995668],[114.93091677079235,-2.4466810362008005],[114.93091452878252,-2.4466887847595444],[114.93075661862315,-2.4472169655904281],[114.93064312058357,-2.4475966000030667],[114.93042771766511,-2.4485612308160967],[114.93041816686502,-2.4485970598064455],[114.93020379187158,-2.4492867903530282],[114.93005999027639,-2.4498898280530739],[114.9299126417551,-2.4505172490717655],[114.92989757001692,-2.4505679528487008],[114.92989260396052,-2.4505810415817564],[114.92987694046849,-2.4506204813500858],[114.92962889305898,-2.451245029934114],[114.92933209609942,-2.4520714952033131],[114.92928482323612,-2.4522880735357262],[114.92920036340615,-2.4526750167385671],[114.92913376231331,-2.4529801432190084],[114.92912638787254,-2.4530092668641146],[114.92911710776832,-2.4530378338289438],[114.92910597236278,-2.4530656921279501],[114.92909302302462,-2.4530927446344322],[114.92896929070025,-2.4533306908586496],[114.92896017427267,-2.4533473597927582],[114.92885063594815,-2.453537861383154],[114.92884011298088,-2.4535552461776433],[114.92867298926706,-2.4538178653021987],[114.92850110634106,-2.4540852427397226],[114.92848075018651,-2.4541143313113025],[114.92839033144867,-2.4542333053227594],[114.92837755118308,-2.4542493501273839],[114.92837064618845,-2.4542574323346003],[114.92823677670594,-2.4544104250010719],[114.92798092138253,-2.4548787721375902],[114.92729670727726,-2.4561616748213737],[114.92728987692635,-2.4561740144191617],[114.92728819069748,-2.4561769264239501],[114.92718518864558,-2.4563533176514625],[114.92708246898087,-2.4565292250436528],[114.92690747709844,-2.4568288989344751],[114.92688935665853,-2.4568574272284422],[114.92674183007148,-2.4570715791899715],[114.92671668772505,-2.4571047030195814],[114.92670355042856,-2.4571197612679043],[114.92645608577982,-2.4573910192800668],[114.92643560821682,-2.4574120499261198],[114.92641381224769,-2.4574316956162079],[114.9263882580118,-2.4574517298134424],[114.92624136904396,-2.4575585575813079],[114.92602692030619,-2.4577336187114724],[114.92557817569229,-2.4581402912414205],[114.92495425303639,-2.4587023000710246],[114.92494384698102,-2.4587113877203137],[114.92424719705059,-2.4593012188760781],[114.92382167473056,-2.4597415152586564],[114.92357757174761,-2.4599940952512611],[114.923544182618,-2.4600253080214998],[114.92353713912769,-2.4600311311317569],[114.92268274990909,-2.4607230011655474],[114.92227823305404,-2.4611411526420284],[114.92225249715511,-2.4611657374088054],[114.92198432201894,-2.4614023607302897],[114.92136760293261,-2.4619465252119426],[114.92062058467229,-2.4626462643136051],[114.92061121733389,-2.4626547952825035],[114.92004622185573,-2.4631549541377922],[114.91988431780703,-2.4633274171265498],[114.91972279507104,-2.4636383496300596],[114.91971367504618,-2.4636550401479553],[114.91969346817905,-2.463687059610038],[114.91967066496932,-2.4637172651396213],[114.9193831139396,-2.4640666949219963],[114.91929470968319,-2.4641741216383366],[114.91929277164411,-2.4641764607749792],[114.91926627491875,-2.4642055448499605],[114.91923735901696,-2.4642321953595001],[114.9192062442728,-2.4642562090567708],[114.91917261682283,-2.4642777217393927],[114.9189246035877,-2.4644208083735748],[114.91889033941766,-2.4644386563188618],[114.91885467860061,-2.464453482542126],[114.91881800514693,-2.4644651467490917],[114.91829348905333,-2.4646074581676203],[114.91810909296032,-2.4647542922767229],[114.91808981689155,-2.4647688136298029],[114.91777572776766,-2.4649924831165322],[114.91774073065028,-2.4650150372141297],[114.91770588461895,-2.4650332790625384],[114.91748260184067,-2.4651379628466543],[114.91745389997755,-2.4651514194024458],[114.91741772294961,-2.4651664875433426],[114.91737775617855,-2.4651790321865406],[114.91702392691275,-2.4652721452932269],[114.91670428177724,-2.4653687819437096],[114.91668331408368,-2.4653745690810638],[114.91661524170013,-2.465391586952137],[114.91626452228991,-2.4654792672543522],[114.915698097789,-2.4656421596578753],[114.91519729771721,-2.4658079415831935],[114.91493939823465,-2.4659556983967263],[114.91487097241748,-2.4659948998447021],[114.91482234877242,-2.4660189755952047],[114.91434015387506,-2.4662224022420105],[114.91379699033894,-2.4664675799148199],[114.91376901962462,-2.4664790858411152],[114.91322649820438,-2.466681127531956],[114.91189765994909,-2.4672457902609608],[114.91096033705003,-2.4676752408196876],[114.91027483691425,-2.4680421291408834],[114.90989232287245,-2.4682468544087328],[114.9096330771049,-2.4683872790496366],[114.90945516512386,-2.4685004956013472],[114.90933378722457,-2.4685951699311204],[114.90916646296193,-2.4688306637041251],[114.90915505775979,-2.4688460169301152],[114.90873246633032,-2.4693904377184595],[114.90873062541812,-2.4693927939422338],[114.90818347069069,-2.4700881353591058],[114.90789476223358,-2.4704608980519538],[114.90742280701704,-2.4711818377715531],[114.90709326574165,-2.4717007717731576],[114.90707678206786,-2.4717249608382303],[114.90705877494258,-2.4717480248514221],[114.90704928439698,-2.4717590361505586],[114.90630689314867,-2.4725927994181234],[114.90629967159259,-2.4726007170494313],[114.90549255883457,-2.4734649376566722],[114.90547806805841,-2.4734797557860588],[114.904499632652,-2.4744353484125554],[114.90449178966446,-2.4744428262753786],[114.9036238332734,-2.4752506647863015],[114.90327715901378,-2.4756215811709694],[114.90309013690035,-2.475821682124888],[114.90308593976442,-2.4758261130846222],[114.90216461310649,-2.4767855116419923],[114.90215191467917,-2.4767982181631965],[114.901863711641,-2.4770753361577817],[114.90128189614268,-2.4776984422292685],[114.90125010960492,-2.4777292952707057],[114.90115669972192,-2.4778114429436755],[114.90071330427565,-2.4782013799896276],[114.90070920426638,-2.478204942204286],[114.90022524220126,-2.478620310279041],[114.89945579664777,-2.4792771553164243],[114.89881938870394,-2.4798986758831347],[114.89818987945944,-2.4805432640603158],[114.89818732538481,-2.4805458792888544],[114.89815820084038,-2.4805731719143296],[114.89765185195142,-2.4810071847337554],[114.89764843003104,-2.4810100868459699],[114.89718316217329,-2.4813990849997367],[114.89716110180348,-2.4814163897545427],[114.89677277364467,-2.4817019263028328],[114.89675863180548,-2.4817119096768465],[114.89594390538696,-2.4822639450250108],[114.89591750668762,-2.4822805249262387],[114.89591241202822,-2.4822834396289863],[114.89477027033172,-2.4829268460970297],[114.89475500973595,-2.4829350578066283],[114.89377595020005,-2.4834378192998656],[114.89280818345094,-2.4839784071776876],[114.89280574179156,-2.4839797606574052],[114.89197578535425,-2.4844366180554402],[114.89195517019505,-2.4844472813169318],[114.89120135665735,-2.4848127657964483],[114.89118067944491,-2.4848221529199463],[114.89028205617205,-2.4852029249749421],[114.88921972570984,-2.4856522262691669],[114.88921054093373,-2.4856559908312761],[114.88918402891989,-2.4856665182951474],[114.88791611433726,-2.486169955179264],[114.88790460121641,-2.4861743438708004],[114.88667364607193,-2.4866236802386084],[114.88529528215156,-2.4872052367322226],[114.88427400394221,-2.4876423890849537],[114.8838367148926,-2.4878536218471368],[114.88355169815236,-2.4879961302171978],[114.88325848768909,-2.4881904260472538],[114.88324286376724,-2.4882003230864029],[114.88294293356955,-2.4883817622085189],[114.88279392310108,-2.4884811022210442],[114.88269284020248,-2.4885505973321642],[114.88257714062263,-2.4886480271846381],[114.88246905020651,-2.4887529393965906],[114.88232228714389,-2.4889140205655735],[114.88231275612884,-2.4889241631195773],[114.88207290603987,-2.4891716268690516],[114.88206461518985,-2.4891799617857373],[114.88096354643062,-2.4902582498183392],[114.87981289444963,-2.4914278900849922],[114.87956488481166,-2.4916798738270813],[114.8786250303209,-2.4926347910626987],[114.8786219663308,-2.4926378739386905],[114.87750119072746,-2.493754863396191],[114.87655911311265,-2.4947688256207812],[114.87654844445524,-2.494779924154102],[114.87582284085147,-2.4955093058097759],[114.87482055182704,-2.4965872386101182],[114.87433464902495,-2.4971195895973324],[114.87430605867769,-2.4971672401759406],[114.87430177790475,-2.4972057698303729],[114.87429772915698,-2.4972340696965034],[114.87429677227829,-2.4972393460189437],[114.87424073462228,-2.4975382096206431],[114.87407603997735,-2.4985600687920737],[114.87405836290316,-2.498723981026842],[114.8740076492337,-2.499194241021371],[114.87398375244823,-2.4994158366714601],[114.87395215476818,-2.4997088241029246],[114.87392969959603,-2.4999633106581882],[114.8739246301177,-2.5000018591983917],[114.87391631588537,-2.500039712562625],[114.8739048090597,-2.5000767106716353],[114.87383224276391,-2.500279130077729],[114.87381700195317,-2.5003162163203001],[114.8737988923051,-2.5003512062431241],[114.87377791292045,-2.5003843408645707],[114.87365608446078,-2.5005594685445658],[114.87363211393097,-2.5005908998501241],[114.87362501288408,-2.5005992041898821],[114.87355434505707,-2.5006798589882351],[114.87329628459588,-2.5009743842603598],[114.87327475662482,-2.5009989537387014],[114.87325802563748,-2.5010170292125053],[114.87257737014954,-2.5017132393744532],[114.87251467211445,-2.5017666069433062],[114.87191063976422,-2.5024892059120702],[114.87166529391823,-2.5028378622774881],[114.8704736373486,-2.5045313000794067],[114.8704696668417,-2.5050396436645883],[114.87030341996694,-2.5066450441334496],[114.87020566905642,-2.5069847657343303],[114.86995741929957,-2.5078475285405375],[114.86981100067715,-2.5083563847393293],[114.86973064085646,-2.5086356674020749],[114.86957860596794,-2.5091061162542019],[114.8690933192014,-2.5106077655358945],[114.8690282820296,-2.5107558883735237],[114.86902181230687,-2.5107706246645307],[114.868411193322,-2.5121613182901683],[114.86761581581732,-2.5139727984058595],[114.86750838370506,-2.5142174760556486],[114.86654316293664,-2.5156840778578839],[114.86595485972907,-2.5165779706967442],[114.86558396492808,-2.5171415263603194],[114.86402197383507,-2.5191508159573459],[114.8639999242572,-2.5191791796753478],[114.86397592764706,-2.5192100471059575],[114.86372232062865,-2.5195362788761031],[114.86362268024254,-2.519610797600194],[114.8629609042224,-2.5201057259984054],[114.86283714941499,-2.5201982797267988],[114.86282091305475,-2.5202104223730544],[114.86247707345819,-2.5204675727202357],[114.86116480431235,-2.5214489902786568],[114.86077717492674,-2.521738890337474],[114.8605148759608,-2.52193505585808],[114.86045945164244,-2.5219765074098177],[114.86022568546707,-2.5221338087282561],[114.86020313676545,-2.5221489811904689],[114.85956364234823,-2.5225792977963124],[114.85951838036897,-2.5226097551360454],[114.85875004817626,-2.5231267672864419],[114.85872698326375,-2.5231422868869799],[114.85872666760167,-2.5231425009256441],[114.85872658576341,-2.523142556683581],[114.85873617433504,-2.523215000671712],[114.85874101088905,-2.5232515473210242],[114.85874601291823,-2.5232893377327059],[114.85877883277692,-2.5235373078004955],[114.85882376470499,-2.5238767910810225],[114.85884638085588,-2.5240053842410362],[114.85895378778719,-2.5246160859635438],[114.8589551097906,-2.5246236006985896],[114.85899009791478,-2.524822512748699],[114.85904615265792,-2.5251114181573939],[114.85911143534452,-2.5253791436325059],[114.85918835435916,-2.5256945961286874],[114.85923204522283,-2.5259010364036385],[114.85929148591345,-2.5261818910813645],[114.85932616916739,-2.5263457628466313],[114.8595026638169,-2.5265072109389735],[114.85974269466965,-2.5266327158271338],[114.85976587739344,-2.526644836889659],[114.86073322865559,-2.526534814729871],[114.8608596706373,-2.5265204336710099],[114.8608627562113,-2.5265200829354058],[114.8610986717664,-2.5266302453894696],[114.8621053063149,-2.5271002967412528],[114.86455448310301,-2.5282439501980889],[114.86455585906572,-2.5282440329357314],[114.87024369958715,-2.5288229247381651],[114.87646480840419,-2.5284805807141879],[114.87651918411314,-2.5290192629286139],[114.87819563372159,-2.5288197959967533],[114.8794772251938,-2.528628366306009],[114.88058686359295,-2.5284350012742607],[114.88249617106146,-2.5279102405651201],[114.88515333046189,-2.5270918736909493],[114.88777544687946,-2.5262271368728193],[114.89036186740634,-2.5252977316050078],[114.89411325532251,-2.5239169125354124],[114.89524874473386,-2.523445749621601],[114.89751794739539,-2.5225419012876387],[114.89927120809989,-2.5217726715715116],[114.90307103619944,-2.5201153082747965],[114.90572969027301,-2.5205016920993444],[114.90574098216064,-2.5205039655854762],[114.90725838486662,-2.5208094985594585],[114.90761559918064,-2.5209942435894277],[114.9090343183791,-2.5222872078882688],[114.910148516341,-2.5233156743788072],[114.91053754237373,-2.523578756654274],[114.91087438794273,-2.5236912321645946],[114.91113871038328,-2.52371893398157],[114.9121329630658,-2.5237951056595307],[114.91321185634217,-2.5237851240841565],[114.91476874378259,-2.5236188430351376],[114.91546823916792,-2.5234764416844087],[114.91643333043396,-2.5231249686423212],[114.91719759859041,-2.5226413923862765],[114.91795860400646,-2.5220991830308321],[114.91841899394149,-2.5215853086150446],[114.91918504635282,-2.5211541853173571],[114.91982330600081,-2.520624656402731],[114.92057899192696,-2.5195466831328872],[114.92094882642721,-2.5188727707617318],[114.92129378118307,-2.5182295819296314],[114.92199353917056,-2.5168947137200348],[114.92254225512102,-2.51584797480416],[114.92352970802972,-2.5137641359061149],[114.92401435897557,-2.5127155183064929],[114.92418771319251,-2.5121177236540007],[114.92419853293597,-2.5120296485494009],[114.92424078668307,-2.5107060929117893],[114.9242395591084,-2.5098436673513334],[114.92422308532718,-2.5090879121773355],[114.9243856872497,-2.5070884755526777],[114.92446632586029,-2.5065338978211003],[114.92469380217733,-2.5059226861829984],[114.92498747219418,-2.5048652399388516],[114.92509075213661,-2.5038287649854851],[114.92678998157248,-2.5039809725437863],[114.93332070898362,-2.5066605673312665],[114.94371187969955,-2.5070209841310884],[114.94741237318249,-2.5071493353734695],[114.94783057412178,-2.50714189078559],[114.9530172791242,-2.5070495609883778],[114.95339017401739,-2.507610336847506],[114.95456201402578,-2.5093725988663209],[114.95474952896768,-2.5096545920857238],[114.96318284231438,-2.5077075670505451],[114.96345418126555,-2.5076411602113353],[114.97628441589313,-2.5045011287240868],[114.99753085516488,-2.4993013421831733],[114.99846221286089,-2.4990734054132986],[114.99846255010664,-2.4990733217763363],[114.99846268860222,-2.4990733730376746],[115.00020927363914,-2.4997121399032949],[115.01245502987581,-2.5041906989415565],[115.01616887919045,-2.505548939631808],[115.02592039361139,-2.5091152965336505],[115.04513585343693,-2.5154654517691597],[115.04818044976798,-2.5164716033817172],[115.05222162982443,-2.5178070966201744],[115.05299410069722,-2.5180623763775429],[115.0538554236889,-2.5183616329829306],[115.05387421142575,-2.5183681602623551],[115.0612484129839,-2.5209302406380516],[115.06270951992849,-2.5214378863493039],[115.06567930705444,-2.5224697037137958],[115.07534138030053,-2.525826678658234],[115.08170947071551,-2.5279066351830011],[115.09764493036926,-2.5331115001955027],[115.10803976762122,-2.5366338595649154],[115.11444901281175,-2.5388056746421057],[115.11872739895034,-2.5390658404161286],[115.13471225206888,-2.5400378636564369],[115.13501348538409,-2.5400561819471932],[115.13509563305706,-2.5400611767818191],[115.13508838901805,-2.540082929583491],[115.13506911744582,-2.5401418666537552],[115.13504984497445,-2.5402008028247565],[115.13504134997834,-2.5402267806413761],[115.13503057340233,-2.5402597398950206],[115.13500683759548,-2.54033232597601],[115.13499906745301,-2.5403560905610902],[115.13498310268812,-2.5404049111576796],[115.13495936778065,-2.540477497238669],[115.13494498402383,-2.5405546329898812],[115.13493060116639,-2.5406317687410933],[115.13491621740957,-2.5407089035929857],[115.13490183275348,-2.5407860402435176],[115.1348977750124,-2.5408576433654844],[115.13489695213275,-2.5408721611212854],[115.13489371727132,-2.5409292446888685],[115.13489207061264,-2.540958282898373],[115.13488965863087,-2.5410008478108352],[115.1348871899919,-2.5410444037761408],[115.13488469437323,-2.5411257438579469],[115.13488219875455,-2.5412070839397529],[115.13487970313588,-2.5412884240215021],[115.13488910824583,-2.5413649958978226],[115.13489851335578,-2.5414415677740863],[115.13490791846573,-2.5415181396503499],[115.13493145372365,-2.5415843801150118],[115.13493279461284,-2.5415881545696379],[115.13495498898158,-2.5416506187809773],[115.13495767165932,-2.5416581712875086],[115.13497852513888,-2.5417168592455823],[115.13498254960507,-2.5417281862067966],[115.13500742665144,-2.5417982020253476],[115.13504300563022,-2.5418700272799128],[115.135078584609,-2.5419418516351016],[115.13509577784794,-2.5419765618688075],[115.13511416358779,-2.5420136777889297],[115.13514974346594,-2.542085503043495],[115.13521210065801,-2.5421448070371753],[115.1352744596486,-2.5422041110308555],[115.13533681774004,-2.5422634150245358],[115.13539917673063,-2.542322719018216],[115.13544627962222,-2.5423650662947352],[115.13546474809971,-2.5423816686790133],[115.13553031767003,-2.5424406183398105],[115.13559588903911,-2.5424995680006077],[115.13566145860943,-2.5425585167620852],[115.13572702997851,-2.5426174673222022],[115.13575477676159,-2.5426404791747359],[115.1357911822173,-2.5426706730131059],[115.13582007563605,-2.5426946372476777],[115.13585533265757,-2.5427238778046899],[115.13588537540977,-2.5427487944212999],[115.13591948489636,-2.5427770843948565],[115.13595067428423,-2.5428029515948651],[115.13598363623589,-2.5428302891864405],[115.13601597225943,-2.5428571078691675],[115.13604778757542,-2.5428834948773442],[115.13611551911595,-2.5429290500355819],[115.13612108142286,-2.5429327912153212],[115.13618324975721,-2.5429746051938196],[115.13619437437092,-2.5429820866539217],[115.13625098039847,-2.5430201603520572],[115.13626766641971,-2.5430313829918987],[115.13631871103973,-2.5430657146109752],[115.136386441681,-2.5431112697692129],[115.13645417322152,-2.5431568249275074],[115.13650847158874,-2.5431945622791545],[115.13651833715164,-2.5432014178111331],[115.13657509966117,-2.5432408683713561],[115.13658250108165,-2.5432460106948156],[115.13664173043162,-2.5432871753628206],[115.13664666411228,-2.5432906035784413],[115.13670836120195,-2.543333482354285],[115.1367108280424,-2.5433351973614435],[115.13672321980084,-2.5433438101686647],[115.1367749919724,-2.5433797902450692],[115.1368453090638,-2.5434229163344639],[115.13684772014619,-2.5434243948199082],[115.13691562615531,-2.5434660424238587],[115.1369204483201,-2.543469000294067],[115.13698996141761,-2.5435116335549992],[115.13699317559463,-2.5435136057682257],[115.13706429757929,-2.5435572255854595],[115.13706590376853,-2.5435582112423845],[115.13713863194232,-2.5436028158172235],[115.13719478830888,-2.5436401853462485],[115.13720565121992,-2.5436474131975046],[115.13725094467543,-2.5436775539758969],[115.13727266869876,-2.5436920096784661],[115.13730710194125,-2.5437149226055453],[115.13730718198087,-2.5437149756655231],[115.13733968797624,-2.5437366070587473],[115.13740670635445,-2.5437812035396519],[115.13747372473267,-2.543825800919933],[115.13753647043188,-2.5438646498336652],[115.1375992152316,-2.5439034987473974],[115.13760075217306,-2.5439044511294924],[115.13760085019919,-2.543904511384028],[115.13766196003144,-2.5439423476611864],[115.13772470483127,-2.5439811965749186],[115.13778744963111,-2.5440200463879705],[115.13786017780501,-2.5440646509628095],[115.13793290597891,-2.5441092555376486],[115.13800563325344,-2.544153861911127],[115.13807401860117,-2.5441958035934249],[115.13807836142735,-2.5441984673853426],[115.13808980979695,-2.5442054892918691],[115.13815108870187,-2.5442430719601816],[115.13818335997416,-2.5442657996268849],[115.13821229476162,-2.5442861782644854],[115.13823380834367,-2.5443013291429679],[115.13827350082147,-2.5443292836694695],[115.13828425941108,-2.5443368595583706],[115.13833470688132,-2.5443723899737734],[115.13834934334761,-2.5443826980030622],[115.13835338220292,-2.5443840730664533],[115.138751669454,-2.5445196827371319],[115.14632961422035,-2.5470998475798297],[115.14759918985078,-2.547532118412505],[115.15169879346456,-2.5489279651534389],[115.15656303665492,-2.5505841602307555],[115.16115504606853,-2.5521476630841562],[115.15472298237978,-2.5546250668932657],[115.15884159586301,-2.5536564188086572],[115.16563452960986,-2.5520588037707057],[115.1679217241084,-2.5515208841814001],[115.16804436645441,-2.551492040225412],[115.17277657028251,-2.5503790833279822],[115.17859866519632,-2.5490097971643877],[115.18111820943784,-2.5484172311702196],[115.19358511346229,-2.5454851679061221],[115.19936021969841,-2.544126932611789],[115.2096343832203,-2.5428323189563002],[115.21391040234323,-2.5422935117361476],[115.2141328460541,-2.5422606433139663],[115.21426954840103,-2.5422404427421839],[115.21479159675482,-2.5421633033936928],[115.21499761884513,-2.5421328595438126],[115.22870389926561,-2.5401075638129669],[115.23997153485846,-2.534853361093667],[115.23997529312533,-2.5348516092143427],[115.24192936614736,-2.5339404062247013],[115.24318684859429,-2.533661698228741],[115.24359313981165,-2.5335716482129556],[115.24850929276965,-2.5324820341185159],[115.2487001199147,-2.5323915686159353],[115.27643086089563,-2.5192453293084327],[115.28038577168604,-2.5169660857162626],[115.28210686274156,-2.5158942593125744],[115.28260762684056,-2.5155824032053147],[115.28335918487858,-2.51511436273762],[115.28487190571389,-2.5144527126225285],[115.28608882963579,-2.5139204416749976],[115.29560333762402,-2.5097588846647341],[115.30676042675236,-2.4966698926014033],[115.3172781896368,-2.4880999236725074],[115.31813711863322,-2.4874000586657417],[115.31859281860375,-2.4870287501766484],[115.31880417187506,-2.4868424709032411],[115.32120551911942,-2.4847260099973028],[115.3212046953405,-2.4846341289618294],[115.3212046863473,-2.4846331720831927],[115.34113340208489,-2.4686615183143772],[115.34137393835658,-2.4684368361910174],[115.34139445099322,-2.4684176752354574],[115.34141711390873,-2.468440791409364],[115.34147836493469,-2.4685032682112364],[115.34158105402253,-2.4685684780527595],[115.34158223123507,-2.468568560790402],[115.34169142691792,-2.4685762742755628],[115.34169159688975,-2.4685764253616753],[115.34175606299198,-2.4686337796251792],[115.34187777993566,-2.468702843061692],[115.34207943311935,-2.4687681779090553],[115.34217832616889,-2.4688257273253953],[115.34223146171269,-2.468948301322996],[115.34228839509342,-2.4690785366450996],[115.34233401860013,-2.4691207058558575],[115.34236817125418,-2.4692049732308874],[115.34239087643789,-2.4693121949018177],[115.34246686915071,-2.4694194849212181],[115.34252767141493,-2.4694999562579483],[115.34255420141528,-2.4695918696689887],[115.34258069274483,-2.4697144112910223],[115.34257672493595,-2.4698445701707215],[115.34254611830875,-2.4699708682609298],[115.34254980642845,-2.4700665813076057],[115.34260291409328,-2.4702121257889189],[115.34268265607977,-2.4703653603730231],[115.34270915820116,-2.4704802442678329],[115.34274326768775,-2.4705989655697635],[115.34275836460688,-2.4707023498335161],[115.34273920545002,-2.4708056918291845],[115.34271621967787,-2.470924342084686],[115.34271228604325,-2.4710277029660688],[115.34272725885592,-2.4712306250931988],[115.34275377536653,-2.4713340237461239],[115.34274224695719,-2.4714220619785578],[115.34271932773481,-2.47148711533805],[115.34269263675583,-2.4715253653033074],[115.34264689903523,-2.4715750762287598],[115.34266587383104,-2.4716210405784977],[115.34271145866694,-2.4716938371008723],[115.34275324296789,-2.4717627989139714],[115.34279500838295,-2.4718470761815752],[115.34285579535879,-2.4719390327601332],[115.34293945838931,-2.4720003908053627],[115.34298506660764,-2.4720540461572682],[115.34301163617818,-2.4721153331560686],[115.34303441240831,-2.4721651304163856],[115.34308380407435,-2.4722379305360391],[115.34312562614684,-2.4722762668362179],[115.34323969615514,-2.4723721192778498],[115.34340704110218,-2.4724795226118204],[115.34355920369433,-2.4725524531331757],[115.34371899793348,-2.4726100789919201],[115.34384834112814,-2.4726676661798024],[115.34395103111524,-2.472732876920702],[115.34399280642299,-2.4728094973603447],[115.34400402996209,-2.472966474023508],[115.34401533533946,-2.4730583685488341],[115.3440532696427,-2.4731617815908749],[115.34407216439888,-2.4732728280785068],[115.34406824425412,-2.4733647037180617],[115.34407958200711,-2.4734298002450146],[115.34413276611429,-2.4735140910024711],[115.34420876422314,-2.4736175517085712],[115.34429237958966,-2.4737171947926413],[115.34433413061572,-2.4738129564027531],[115.3443302059743,-2.4739086595569688],[115.344337714414,-2.473992893657055],[115.34437566310646,-2.4740848223566445],[115.34444784988841,-2.4741921069801265],[115.34453907801606,-2.4742917581580741],[115.3446239731179,-2.4743360776478198],[115.34469120823269,-2.4743914866777459],[115.34479002034323,-2.474514118231923],[115.34493449013462,-2.4746521209985417],[115.34504474521884,-2.4747556248721594],[115.34514359600018,-2.4748476300140396],[115.3452385734015,-2.4749932266560108],[115.34530697313835,-2.4750851931270859],[115.34539062177987,-2.4751580373135198],[115.34550476013658,-2.4752002919598795],[115.34556939621075,-2.4752577991080784],[115.34561495316757,-2.4753535652147889],[115.34573662334651,-2.4754609118915027],[115.34584693508805,-2.4755184756970721],[115.3459572189505,-2.475599009986297],[115.34607887923698,-2.4757140125915384],[115.34622720262337,-2.4758137366146116],[115.3464021522376,-2.4759288066690601],[115.34657328512901,-2.4760515299540771],[115.34667594723726,-2.4761397111786891],[115.34671854092801,-2.4762457142682592],[115.34671844020386,-2.4763270669405415],[115.34673499492419,-2.476406048100614],[115.34675397061926,-2.4764515331117423],[115.34684665205145,-2.4765306095999335],[115.34694407381005,-2.4766240482611579],[115.34702250458497,-2.4766839646931658],[115.34707236209988,-2.4767653803179996],[115.34714836740329,-2.4768635781915123],[115.34720774963796,-2.4769378271190021],[115.34731469341841,-2.4770264921788225],[115.34732888382098,-2.4770935060603847],[115.34735261692981,-2.4771389982661276],[115.34743818472452,-2.477198922792013],[115.34756414017295,-2.4773043611073149],[115.34767106596701,-2.4774073829443068],[115.34776371232556,-2.4775151720874646],[115.34785634879154,-2.47763013871986],[115.34793810436008,-2.4776953242797504],[115.34794374310934,-2.4777527558849215],[115.34787793341991,-2.4778742246157321],[115.34778262596751,-2.4779937418176701],[115.34773014602945,-2.4781085267870253],[115.34771105522111,-2.4781563572300342],[115.34773479102785,-2.4781994563397802],[115.34780130128911,-2.4782808926490247],[115.34781075226442,-2.4783335452568735],[115.34776306031699,-2.4784244082597979],[115.34771533779269,-2.478539200423711],[115.34768664762078,-2.4786540150706742],[115.34770543086097,-2.4788550279371293],[115.34773848094619,-2.4790608440826531],[115.34777639006836,-2.4791853129517563],[115.34783808895668,-2.4793098132972204],[115.34793298002307,-2.479525278268909],[115.34806580359407,-2.4798460700400256],[115.34812747370404,-2.4799944968485192],[115.34824235669942,-2.4802032870520065],[115.34830405019181,-2.4803325717907114],[115.34831344720783,-2.4804282929313217],[115.34838940664588,-2.4805623809490953],[115.34848919272213,-2.4806677868888301],[115.34852720346771,-2.4807109039849706],[115.34858421598881,-2.4807779718258871],[115.34854603886868,-2.4808688474193445],[115.34849360119881,-2.4809501335417963],[115.34851256700142,-2.4810027978408016],[115.34848868910183,-2.4810745502502414],[115.34853142668408,-2.4811416001047064],[115.34856461976142,-2.4812325656303642],[115.34855019733379,-2.4813521835563961],[115.34858338411595,-2.481447935273934],[115.34866889075681,-2.4815581076205149],[115.34874019980043,-2.4816060522774706],[115.34884473789441,-2.4817162489057409],[115.34887791928065,-2.4818167859158962],[115.34883488402272,-2.4819890078863409],[115.34882527296804,-2.4820655635748494],[115.3488298352288,-2.4822234890227719],[115.34891052959733,-2.4823767263048353],[115.34897702187209,-2.4824725175925551],[115.34907674859312,-2.4826257782569883],[115.34916227322037,-2.4827215947257741],[115.34928101970331,-2.4828844502571314],[115.3493712783619,-2.4829994141915677],[115.34949011387766,-2.4830904867365007],[115.34954708503005,-2.4831910543236404],[115.34958120890576,-2.483298291283063],[115.34960674515526,-2.4834246586210611],[115.34964938471137,-2.4835711482897977],[115.34965781675487,-2.4836773959949596],[115.34964055696616,-2.4837836122238741],[115.34959474190384,-2.48389553375182],[115.34958603466782,-2.4840103735798493],[115.34958881806961,-2.484067803386381],[115.34962015314761,-2.4841223967311521],[115.34967721962801,-2.4841454391606135],[115.34975995815557,-2.4841857413788375],[115.34976122170303,-2.4841859023574671],[115.34985129689994,-2.4841973399352355],[115.34985136524836,-2.4841974082837055],[115.34993113061728,-2.4842778355535984],[115.35005091042126,-2.4843756098464951],[115.35016781329398,-2.4844906079551379],[115.35025620406066,-2.4845768583352879],[115.35029892635441,-2.4846573071889111],[115.35032451476457,-2.4847406059941477],[115.35034439517779,-2.4848238976047696],[115.35038711657228,-2.4849043482570323],[115.35053258910773,-2.4850021540261196],[115.35061527457538,-2.4850855247771051],[115.35068833280036,-2.4852578942363834],[115.35071675317567,-2.485361294687948],[115.3507623434075,-2.485430262796342],[115.35083654557013,-2.48544758373896],[115.35083704289525,-2.4854476080206496],[115.35091837758114,-2.4854515146756171],[115.35103258428637,-2.4854401742246068],[115.35103301686036,-2.4854405141683742],[115.35113525628708,-2.485520697721995],[115.35119600998792,-2.4856394540975089],[115.35114638000152,-2.4857580719773864],[115.35114244996419,-2.4858576035455258],[115.35122606712935,-2.4859572466295958],[115.35126401222442,-2.486053003743109],[115.35128291057788,-2.4861602218167604],[115.35133610997354,-2.4862330282315952],[115.35143122587044,-2.4862676026676809],[115.35143250830367,-2.486267790626016],[115.35157584225135,-2.4862888410571031],[115.35157590430458,-2.4862888824259244],[115.35165666162573,-2.4863415817985128],[115.35163750606614,-2.4864420531581573],[115.35155657877317,-2.4864754503817039],[115.35149945923274,-2.4864945196063672],[115.35149936390462,-2.4865710869860322],[115.35150880858475,-2.4866285248864415],[115.35149915616114,-2.4867385794218535],[115.35152283890795,-2.486824747064361],[115.35156559537597,-2.486877441041031],[115.35161307958003,-2.4869540677759687],[115.35161773716891,-2.4870354267434891],[115.35164141362043,-2.4871263796786138],[115.35166318260985,-2.4872211601283993],[115.35163165867414,-2.4873187437649449],[115.35163159931892,-2.4873675562676567],[115.35165438993818,-2.4874049114075092],[115.35166576006679,-2.4874451227941563],[115.35162285161334,-2.4875139802859394],[115.35159419831371,-2.4876000822779361],[115.35152840930868,-2.4877033658176515],[115.35148547027825,-2.4877980635297376],[115.35148540912439,-2.4878468760324495],[115.35147912286334,-2.4879279337271214],[115.35144766277949,-2.4879738351243645],[115.35144760971946,-2.488016903657126],[115.35143612267893,-2.4880714439419194],[115.351416072294,-2.4881259725355562],[115.35138459422376,-2.4881862298105943],[115.35133601284679,-2.4882263665535334],[115.35127315113505,-2.4882722292799144],[115.35127024182827,-2.488315294215397],[115.35130158410084,-2.4883641453889709],[115.35126150671317,-2.4884531054264016],[115.35125852366195,-2.4885564672071609],[115.35133921892987,-2.4887097026905849],[115.35140197362227,-2.4887499797277428],[115.35143042187656,-2.4888304123935541],[115.35143603904203,-2.4889050723111836],[115.35153298685793,-2.4889970747551615],[115.35156709544515,-2.4891177116130621],[115.35158976915261,-2.4892498193236747],[115.35165814820505,-2.4893590141071513],[115.35165797013929,-2.4895025782813036],[115.35166352974818,-2.4896231791663581],[115.35170340388902,-2.4896978822513915],[115.35168615399289,-2.4897954838744454],[115.35166886092929,-2.4899275412229827],[115.35159452926416,-2.4900135856584029],[115.35157147694213,-2.4901858337092335],[115.35151990531949,-2.4903350762027685],[115.35146266706852,-2.4904498548768288],[115.35141113771385,-2.4905646407455038],[115.35143949333803,-2.4907197261343867],[115.35151360287057,-2.4908116998000764],[115.35151483584104,-2.4908117015987159],[115.35164492277499,-2.4908118661746244],[115.35174201538177,-2.4907890170994165],[115.35186766775871,-2.4907547196545465],[115.35210180445472,-2.4907205589066166],[115.35210289443307,-2.4907208493876283],[115.35221025010298,-2.4907494082585231],[115.35225579087216,-2.4908585742637683],[115.35230698388023,-2.4910136875316198],[115.35239243476315,-2.4911688448662517],[115.35251210844706,-2.4913527571239911],[115.3525231782022,-2.4916341567908376],[115.35246583922719,-2.4918293321579199],[115.35252277080929,-2.4919614821366167],[115.35267684446092,-2.4920305869420076],[115.35267740923507,-2.4920304412518135],[115.3528538975894,-2.4919848690064441],[115.35285476903243,-2.4919852539163116],[115.35303650493086,-2.4920654950265089],[115.35314481568071,-2.4922034528270274],[115.35314614577806,-2.492203570638253],[115.3534074276107,-2.4922267533619333],[115.35340780622539,-2.4922269008507669],[115.35358434044497,-2.4922958860462359],[115.35372124873675,-2.4923936819228629],[115.35377819470796,-2.4925143475590517],[115.35380665735147,-2.4925832940837154],[115.35385796457342,-2.4926465272154132],[115.35385915167853,-2.4926464723567392],[115.35397787298052,-2.492640935230952],[115.35397861582055,-2.4926412077255122],[115.35410342733132,-2.492687032680351],[115.3542117947386,-2.4927790513121408],[115.35430299228938,-2.4929055022870443],[115.35438849263494,-2.4930204608255622],[115.35446265432813,-2.4930722365944007],[115.35461100289558,-2.4931528203463245],[115.35469082312306,-2.493244801206572],[115.35474307103595,-2.4933178450424407],[115.35473919315928,-2.4933752658557751],[115.35472386691299,-2.4934556427636494],[115.35473518218294,-2.4935398813603911],[115.35476554779189,-2.4936088296836942],[115.35479596466212,-2.4936356672521924],[115.35479719493469,-2.493635733802023],[115.35486828184582,-2.4936395855983733],[115.35490253972046,-2.4936396296651537],[115.3549030631259,-2.49363986978409],[115.35498623332808,-2.4936780190253103],[115.35503563128941,-2.4937469907309833],[115.35505072281262,-2.4938542052073558],[115.35505057082719,-2.493976712655126],[115.35506566774643,-2.4940800978181983],[115.3550579893348,-2.4941336857209535],[115.35500840071722,-2.4942178478753476],[115.3550082874026,-2.4943097289108209],[115.35501583811049,-2.4943595081846865],[115.35501726443522,-2.4943597492029994],[115.35508433857137,-2.4943710788621729],[115.35520239437506,-2.494325287182221],[115.35520320826151,-2.494325765621511],[115.35524803766691,-2.4943521427371707],[115.35530124245838,-2.494421119838762],[115.3553239656286,-2.4945130296525235],[115.35536950010237,-2.4946279387283425],[115.35542642538928,-2.49476583177767],[115.35549866972792,-2.4948271772324233],[115.35556708565252,-2.4949076593609334],[115.35563932729315,-2.4949728323302907],[115.35570772343272,-2.4950686281146659],[115.35576751575832,-2.4951959972974009],[115.35585781128907,-2.4952822485768706],[115.35597193165938,-2.4953398177783015],[115.35600520837374,-2.4953637874087917],[115.35609081034272,-2.4953973932750273],[115.35612869608246,-2.495541005113239],[115.35620938595446,-2.4956990276879196],[115.35628060776389,-2.4958187535326033],[115.35629947284247,-2.4959527714032106],[115.3563564152164,-2.4960772645540601],[115.35638009796321,-2.496163433995207],[115.35637045723092,-2.4962639170460648],[115.35645599984457,-2.4963453767376791],[115.35657965482721,-2.4963886017525283],[115.35675561168216,-2.496460605072798],[115.35692676435872,-2.4965708862373504],[115.35710739588967,-2.4967098917480826],[115.35725477498795,-2.4968057873571752],[115.35725620311132,-2.496806028375488],[115.35751165463921,-2.4968491787465723],[115.3576925190946,-2.4968015515503339],[115.35783523610735,-2.4968208725851468],[115.35808261711918,-2.4968498973048554],[115.3580828473456,-2.4968499962303099],[115.35818248233579,-2.4968930908434004],[115.35818232675308,-2.4970175138471404],[115.35818687732262,-2.4971850107795603],[115.3581914926433,-2.4972998685940411],[115.35819612595049,-2.4974003696312934],[115.35827214204573,-2.4974913900155684],[115.35833549838458,-2.4975587852097192],[115.35833628169405,-2.4975583427432753],[115.35839644364103,-2.4975244059265265],[115.35847646441732,-2.4974555960988596],[115.35855644562355,-2.4974174117840562],[115.3587163297949,-2.4974061279903594],[115.35882290035659,-2.4974139179179247],[115.35882297589967,-2.4974140609101596],[115.35884948341698,-2.4974637205742169],[115.35884557226541,-2.4975479402851875],[115.35886452817545,-2.4976092182907337],[115.35891773836295,-2.4976743678777211],[115.35894046243243,-2.4977662776915395],[115.35892896729808,-2.4978275170262236],[115.35894026188362,-2.4979270701780933],[115.3590010083899,-2.4980534833815113],[115.359050425237,-2.4981071423306958],[115.35908457789105,-2.4981914097057256],[115.35912637837976,-2.4982488880756932],[115.35915670531779,-2.4983484637105562],[115.35919467019789,-2.4984289080675808],[115.35927070787693,-2.4985017432608174],[115.35930113104246,-2.4985247524153351],[115.35930181902381,-2.498524434055355],[115.3594001553929,-2.4984789346550542],[115.35945348339158,-2.4984483747925879],[115.35945433325094,-2.4984489467614139],[115.35949912218678,-2.4984790596608377],[115.35953710505339,-2.498544190362054],[115.35952178869968,-2.4986169095427044],[115.35957117317116,-2.4986973682888447],[115.35962819288682,-2.4987586939585071],[115.35967762861969,-2.4987970401512598],[115.35970418380111,-2.4988698132912077],[115.35973075786819,-2.4989272718760276],[115.35976874972812,-2.4989847457493966],[115.35977009421458,-2.4989848599632865],[115.35981442269747,-2.4989886308206337],[115.35988297172185,-2.4989619191571819],[115.35991352798703,-2.4988777327211551],[115.35993268264724,-2.4987782182401475],[115.35996701696433,-2.4987170067843749],[115.36001654802533,-2.4986787855974057],[115.36001763800368,-2.4986792856204829],[115.36014208888639,-2.498736369188066],[115.36014273999547,-2.4987362540747995],[115.36020681219463,-2.4987249648851844],[115.36030578888108,-2.4987174330630637],[115.36030655780144,-2.4987177235440754],[115.36042753730112,-2.498763526015864],[115.36048076097836,-2.4988171903610237],[115.36053778609005,-2.4988746876167056],[115.36054911035319,-2.4989512702848629],[115.36060611208245,-2.499027908710957],[115.36060740890491,-2.4990279761601073],[115.3607017423916,-2.4990328154120789],[115.36077548859794,-2.4990353002388588],[115.36077644277873,-2.4990355250693597],[115.36084683811112,-2.499052139144851],[115.36084698829791,-2.4990520788902586],[115.36098965135136,-2.4989948919006792],[115.36108958131922,-2.4989854472205479],[115.36109015418731,-2.4989857682785441],[115.36121795864199,-2.499057390286282],[115.36133685621098,-2.4991006090058363],[115.36133798575952,-2.4991007421054974],[115.36146054806591,-2.4991151195670795],[115.36156058505298,-2.499019536022729],[115.36167965529194,-2.4989239749614285],[115.3618176913335,-2.498881079098453],[115.36181893239791,-2.4988813776733991],[115.36191757993242,-2.4989051323659055],[115.36196510730394,-2.4989482611532594],[115.3620030470031,-2.4990488035593899],[115.36204108742629,-2.4990679932931812],[115.36204098580288,-2.49914934686484],[115.36204090936053,-2.4992115583666532],[115.36211701988464,-2.4992260095726238],[115.36211705226026,-2.4992259861902539],[115.36215511966316,-2.4991973445817166],[115.36216948903075,-2.4991207951885031],[115.36223144422581,-2.4990395189585684],[115.36231718379111,-2.4989630585982354],[115.362318518385,-2.4989633832535105],[115.36243609934661,-2.498991920540675],[115.36255261820884,-2.4990351356629503],[115.36259534859653,-2.4991081687069823],[115.36260670793331,-2.49915699469949],[115.36267520569629,-2.4991714369122633],[115.36267561488773,-2.4991714629925923],[115.36276655343374,-2.4991772950960467],[115.36283791733604,-2.4991831271995011],[115.36290357144276,-2.4991889512090779],[115.3629264313098,-2.4991717516749645],[115.36300644669018,-2.4991058133825277],[115.36310075319727,-2.499028406036075],[115.36321216480962,-2.4989682476864346],[115.36326071201233,-2.4989568235984621],[115.36326090896387,-2.4989573541984669],[115.3632777838427,-2.4990027861496174],[115.36327485385152,-2.4990630802968781],[115.36327193914872,-2.4991118883029344],[115.36328904605273,-2.4991291372998035],[115.363290027213,-2.4991289268584183],[115.36332902541426,-2.4991205739552811],[115.36334619976742,-2.4990832682781843],[115.36338626726251,-2.4990029219472376],[115.363387502931,-2.4990035460767217],[115.36346615224124,-2.4990432196688062],[115.36360306323081,-2.4991410155453764],[115.36366579094351,-2.4992042630662468],[115.36379129583167,-2.4992905593118167],[115.3639766928701,-2.4994257427038065],[115.36415067661255,-2.49955516863605],[115.3642419497063,-2.4996213227657904],[115.3643360700537,-2.4996932235633835],[115.36442162166054,-2.4997679851043699],[115.36451860814736,-2.4998312748933813],[115.36462699893696,-2.499906064313393],[115.36471249568524,-2.500025809043791],[115.36477426202259,-2.5000976693718826],[115.36477548420135,-2.5000976711705221],[115.36486466457268,-2.500097781787133],[115.36497888117049,-2.5000787827095792],[115.36507890107043,-2.4999975550430804],[115.36520739170783,-2.4999785730526582],[115.36520845920313,-2.4999788671309489],[115.36536435398182,-2.5000218385369521],[115.36536508063398,-2.5000218871003881],[115.36551184189807,-2.5000315952818255],[115.3656498185843,-2.5000365532442856],[115.36576403608149,-2.5000175541667318],[115.36576444437367,-2.5000179651569283],[115.36583056612778,-2.5000846345981813],[115.36585897211398,-2.5001995220902131],[115.36591588481031,-2.5003479444020513],[115.36600606342915,-2.5005299060302946],[115.36608199139084,-2.5006927076023544],[115.36617698587929,-2.5008268208010804],[115.3662719632805,-2.500975290776978],[115.36637643302606,-2.5011429136145011],[115.36650265467381,-2.5013671092046934],[115.36656280133229,-2.5014422088908077],[115.36662455777719,-2.5015212467081369],[115.3666577580492,-2.5016074278404972],[115.36666716136051,-2.5016983636884902],[115.36670032476025,-2.5018132583751367],[115.3667501777785,-2.5018994601919076],[115.36675720328242,-2.5019903933419414],[115.36679520773271,-2.5020382957306992],[115.36685459536329,-2.5021101515621922],[115.3669092390702,-2.5021700401152316],[115.36694487740419,-2.502208368321476],[115.36697096044156,-2.5022777905875273],[115.36701846083338,-2.5023424545406101],[115.36709452819002,-2.5023927976894242],[115.36715632870164,-2.5024359453625493],[115.3672062086996,-2.5025006111142716],[115.36723464796069,-2.5025891790473338],[115.36722508097273,-2.5026298436922616],[115.36719409483169,-2.5026776597461549],[115.36714882835577,-2.5027302440055337],[115.36714399899643,-2.5027876639194915],[115.36718200074881,-2.5028379594042462],[115.36724621144356,-2.5028571824129813],[115.36728422488716,-2.5028979064131818],[115.3672959961134,-2.5029984155443685],[115.36728163304099,-2.5030701805443414],[115.36732199101709,-2.5031396207967873],[115.36743599087833,-2.5032956118029688],[115.36747608175585,-2.5033775481352905],[115.36754000826488,-2.5033960040223064],[115.3675402411892,-2.5033958997009904],[115.36759485072184,-2.5033715712409617],[115.36764206782721,-2.5033578475865284],[115.36764291139127,-2.5033582576774052],[115.36768315335496,-2.5033778071400548],[115.3676785461281,-2.5034099597018553],[115.36768916802077,-2.5034390689578458],[115.36771653978656,-2.5034666682520879],[115.36772736492605,-2.5034900065585362],[115.36773777907536,-2.5035294796017524],[115.36776058318446,-2.5035570726007563],[115.36779893926973,-2.5035679552968304],[115.36779946267518,-2.5035679391090753],[115.36792265270833,-2.5035642815662982],[115.36792313564422,-2.5035645513628992],[115.3679949258252,-2.5036045711939323],[115.36803086183488,-2.5037864653730253],[115.36808392273485,-2.5039722086504526],[115.36811226846646,-2.5041368664232095],[115.36817118215436,-2.5042058507194156],[115.36825675714374,-2.5042633839479436],[115.3682577508946,-2.5042633326866053],[115.36851370874069,-2.5042503060067816],[115.36866976359875,-2.5042581588868984],[115.3686701458106,-2.5042583468451767],[115.36875535657452,-2.5043003775603552],[115.36881429274547,-2.5043521353427423],[115.36883893776678,-2.5044306488553048],[115.36883885502925,-2.504497645649792],[115.36880815487245,-2.5046985991609745],[115.36880908477156,-2.5047996209057146],[115.36880919898545,-2.5048119892818477],[115.36880923226033,-2.5048155541944084],[115.38227842800711,-2.5050674758832656],[115.38227843430241,-2.5050674372124035],[115.38316694739672,-2.4990817628130344],[115.38416580820558,-2.4974482279533277],[115.38623923385364,-2.4940573530643633],[115.39093493060261,-2.492362944893955],[115.39259475444442,-2.488981264673555],[115.39262954561707,-2.4889103810092479],[115.38686644712891,-2.4810715941786725],[115.39411879414706,-2.4768028532690209],[115.39032308404319,-2.4730030503504281],[115.390319958899,-2.4729999216090732],[115.3903277074578,-2.4729810097657605],[115.39150131913061,-2.4701164631042616],[115.39354318217215,-2.4654234877037311],[115.39355706230867,-2.465391586952137],[115.39665542011164,-2.4582703862692483],[115.3976323878245,-2.4560249436961499],[115.39941569128121,-2.4535039272643644],[115.39941424337269,-2.4534931416951054],[115.39930794890279,-2.4527015548328563],[115.39926188562754,-2.4523585201295646],[115.3990066067696,-2.4504574153773433],[115.39882171694876,-2.4490805101573869],[115.39875142773622,-2.4485570552638478],[115.39830283061121,-2.4452162923979017],[115.39824556897793,-2.4447898518700981],[115.39608057525845,-2.4432485433854936],[115.39607223494579,-2.4432426060613466],[115.39600494767024,-2.443194702773269],[115.39554410087965,-2.4428666148023694],[115.39547332423456,-2.4428162266874551],[115.39526617979038,-2.4426687558583353],[115.39481218043784,-2.4423455431122534],[115.39476173476635,-2.4423096295856794],[115.39442799365702,-2.4420720322984266],[115.39406881342506,-2.4418163226650904],[115.39373279523238,-2.4415771039001584],[115.39318058001982,-2.4411839697643245],[115.39316350459217,-2.441171813628273],[115.39297321434242,-2.4410363415538541],[115.39274070272131,-2.440870812338062],[115.39270411830046,-2.4408447661729724],[115.39195046124485,-2.4403082198484185],[115.38876350133455,-2.4380393490366714],[115.38843992706109,-2.4378089885939289],[115.38808080528497,-2.4375533221280534],[115.3877268069466,-2.4373013024131183],[115.38772533745441,-2.4373002547029614],[115.38772366741341,-2.4372990666985288],[115.38761110826613,-2.4372655903346754],[115.38671768577262,-2.4369998721463162],[115.3867175517737,-2.4369998316768147],[115.37571223942837,-2.4337266753457243],[115.37544176832296,-2.4336462327873392],[115.37405984218799,-2.4332352264245287],[115.37365909259313,-2.4331160365757682],[115.37360967214875,-2.4331013380562467],[115.37335853646732,-2.4330266457630501],[115.37285670936967,-2.4328773951755807],[115.37239278240099,-2.4327394157913318],[115.37049190158007,-2.4321740641816518],[115.37022021459131,-2.4320932600958258],[115.36424302439616,-2.4303155468249997],[115.36422794906071,-2.4302842441225039],[115.36421267317644,-2.4302525241346302],[115.36115916186588,-2.4239119673633809],[115.35379531959836,-2.4203621229136161],[115.34612358543518,-2.4166638552526933],[115.33877062226645,-2.4131192547497449],[115.32733885320556,-2.4076084098002184],[115.32721575130597,-2.4075490671356761],[115.32281502859075,-2.4062741603241875],[115.32281498902057,-2.4062741477337113],[115.32170212115602,-2.405951746176072],[115.32120827374285,-2.4028434220862209],[115.32118954266332,-2.4027255263619054],[115.32103578737178,-2.4017577704047426],[115.31974190036851,-2.4020597888281259],[115.31638471498263,-2.4028434220862209],[115.31493648902779,-2.4031814655521657],[115.31493212911448,-2.4031824835847146],[115.31471057303463,-2.4032341990989607],[115.31446321630449,-2.4032919373729555],[115.31339045640448,-2.4017232391361176],[115.31289573574963,-2.4009998109924595],[115.31289498211777,-2.4009987084236286],[115.3125958163439,-2.4005612368115976],[115.31255158228976,-2.4004965539727436],[115.31257010112938,-2.4004538775443507],[115.31395292029106,-2.3972672989466446],[115.31347647386019,-2.3955031879217472],[115.31330653436908,-2.3927758957909191],[115.31329673985272,-2.3926187176796248],[115.31321327557225,-2.3912792368472537],[115.31316325617934,-2.3904764822038373],[115.31433594424846,-2.3901875498155505],[115.31639480807405,-2.3896802782222153],[115.31643041583106,-2.3896715053356274],[115.31648963259056,-2.3896569147347577],[115.31650061870869,-2.3896019517686113],[115.31736212696069,-2.3852916666770057],[115.31734903642894,-2.3845735993920698],[115.31725465078159,-2.3793965009477347],[115.31724611081938,-2.378928077368812],[115.31712844172432,-2.3724738049220946],[115.31711376568785,-2.3716688199600071],[115.31708354666841,-2.3715876669372165],[115.31688485765017,-2.3710540820801498],[115.31526956823609,-2.3667161878017851],[115.31612713386016,-2.3644494052158507],[115.31755120402488,-2.3606851938665727],[115.31754711390829,-2.3605259895826975],[115.3175386782674,-2.3601976201240404],[115.31753741382067,-2.3601484146175835],[115.3175177240638,-2.3593820159672418],[115.31748484934633,-2.3581023751244743],[115.31760957811957,-2.3580243886145809],[115.31871478196172,-2.3573333675408321],[115.31874343616073,-2.357315452146338],[115.31881775073862,-2.3567823933926775],[115.31872418077637,-2.3564076189164211],[115.31863270263716,-2.3562148986985676],[115.31856621575832,-2.3560516258817756],[115.31855406232023,-2.35599914504445],[115.31853170067745,-2.3559025866350112],[115.31852430195499,-2.3557453536650996],[115.31865755360332,-2.355212366857188],[115.31880960198157,-2.3552009283800999],[115.31906110458635,-2.3551820057448936],[115.31906675322819,-2.3551815812649011],[115.31993809916401,-2.3551160251843726],[115.32111111278766,-2.355027773812651],[115.32130828644836,-2.3546925793989999],[115.32194443988408,-2.3536111149609269],[115.32368814259382,-2.353828993713023],[115.32420767464453,-2.353893910375632],[115.32483299394755,-2.3539720452736219],[115.32498668178994,-2.3539310191011964],[115.32547884297423,-2.353799638942121],[115.32806856671107,-2.3531083273873605],[115.32836328623671,-2.3530296537954314],[115.33055555279657,-2.3524444406583598],[115.33079407458695,-2.3524088499883646],[115.33326534412038,-2.3520401027684557],[115.33335016907506,-2.3520274457100072],[115.33679996844387,-2.3515126899586107],[115.33713302157173,-2.3514629943217074],[115.34061102457918,-2.3509440288437986],[115.34145084478075,-2.3504367797335703],[115.34235620037839,-2.3498899478627777],[115.34748033504945,-2.3467949841011659],[115.34786689334248,-2.346561503910209],[115.35022222227781,-2.345138890647263],[115.3492974557131,-2.3420370767496479],[115.34910705214884,-2.3413984312925322],[115.34879399634588,-2.3403483891667634],[115.34871430292276,-2.3400810863730044],[115.34867322908633,-2.3399433156314444],[115.34221723443784,-2.3382227407868186],[115.34220750827001,-2.3382225195535966],[115.34219444381858,-2.3382222218779702],[115.34219645830001,-2.3382189528423396],[115.33855555569437,-2.340638889073432],[115.33364028137396,-2.3417363137797906],[115.32738888878623,-2.3418055561814413],[115.32738878716282,-2.3418055489868266],[115.32737478381932,-2.3418045921081898],[115.3268706526585,-2.3417701372819693],[115.32181779735356,-2.3414247976162414],[115.3196666657841,-2.3412777782468197],[115.31942487226013,-2.341325302021005],[115.31856450884504,-2.3414944051426119],[115.31838281071816,-2.3415301172211116],[115.31824999973776,-2.3416944440432985],[115.30724999968777,-2.3413333329668831],[115.30114786578145,-2.341143488780915],[115.30100000015,-2.3411388887486737],[115.3009998616543,-2.3411389427079712],[115.28616666685821,-2.346916665971321],[115.28616355700262,-2.3469286143640034],[115.28613789394876,-2.3470272070399005],[115.28545325896084,-2.3496573472087334],[115.28283333329171,-2.3597222214033309],[115.28207921308524,-2.359656162601766],[115.28189361369937,-2.3596399055571737],[115.28165921440132,-2.3595541057373453],[115.27502999683691,-2.3571275477980294],[115.27502966768509,-2.3571274281882211],[115.27502838165458,-2.3571269569434889],[115.27502832859454,-2.3571269380577178],[115.27459729882639,-2.3569691636959078],[115.27459722867923,-2.3569691376155788],[115.27459719270632,-2.3569691250250457],[115.27292820657158,-2.356358209263874],[115.27205368872683,-2.3560381000781945],[115.27104573936947,-2.3556691487121952],[115.26904987215391,-2.354938580850785],[115.26897222199057,-2.3549722217905469],[115.26643766086943,-2.3546461995624099],[115.25602013012497,-2.3533061863313947],[115.25601636646218,-2.3533057015968097],[115.25408582420152,-2.3530573735988582],[115.25408578912788,-2.3530573700015793],[115.24888888941075,-2.3523888886362556],[115.24863676357586,-2.352285875792461],[115.24838378338495,-2.3521825140117585],[115.24791320143311,-2.3520356151514648],[115.24745973537858,-2.3518940591634419],[115.24700674506528,-2.3517526515635723],[115.24700581606567,-2.3517523619818803],[115.2464425239034,-2.3515765220388403],[115.24093706229564,-2.3498579122128262],[115.23849159611029,-2.3490945235933509],[115.23827999732407,-2.3490284710870242],[115.23827996135117,-2.3490284602951874],[115.23827777779729,-2.3490277777097504],[115.21375000016246,-2.3401944441182536],[115.20205824069535,-2.3327517088242757],[115.20205820472245,-2.3327516863412256],[115.20205555621897,-2.3327500001123553],[115.20204346303547,-2.3327422848285551],[115.20204319144023,-2.3327421112593925],[115.188158522398,-2.3238846506560549],[115.18111111108897,-2.3193888893856638],[115.15416666715805,-2.3030555561689425],[115.1374343281318,-2.2962180196458348]]]},"properties":{"OBJECTID":494,"nama_kawasan":"Kawasan Lumbung Pangan Rawa Batang Banyu, Kabupaten Hulu Sungai Utara","delineasi_asal":"Hulu Sungai Utara","Shape_Length":1.5182647353069829,"Shape_Area":0.073790467720530828}}]}