{"type":"FeatureCollection","features":[{"type":"Feature","id":431,"geometry":{"type":"Polygon","coordinates":[[[119.32134939186096,-9.6343755532890896],[119.32096391994901,-9.6342898919648974],[119.3205970586074,-9.6340356967899083],[119.32021567681204,-9.6345383053984506],[119.32018826907347,-9.6345414719113478],[119.3201192371132,-9.6345399970231824],[119.31609152980036,-9.634610637870594],[119.3090260529101,-9.6343009347402813],[119.30892983264573,-9.6342967169198914],[119.3053464884498,-9.6402131803939142],[119.30474348942062,-9.6412087928514438],[119.29523183228332,-9.6569134963607439],[119.28971771020417,-9.6656816237079397],[119.29197237802293,-9.6669248536990153],[119.29834933305528,-9.670351276989777],[119.30356024960588,-9.6729676638265687],[119.30365309381534,-9.6728586336190006],[119.30482172234463,-9.6733884916855004],[119.30551287022286,-9.6739008849178845],[119.30636215219158,-9.6745914302502456],[119.30645277687427,-9.6746565879311675],[119.30719376787818,-9.6752002883625892],[119.3081055167562,-9.6758562529636833],[119.30906033326778,-9.6768480549936839],[119.30987527372497,-9.6775968683007818],[119.3104963949927,-9.6783384006965889],[119.31050767069246,-9.6783674910668083],[119.31111811341032,-9.6789807099917198],[119.31172624217243,-9.6798152727565707],[119.31221523774309,-9.6807173692111519],[119.31255470393648,-9.6815194322759339],[119.31314929790187,-9.6825399928263778],[119.31323122344224,-9.682756342731011],[119.31340820822231,-9.683223735686795],[119.3136810517392,-9.6839380312151206],[119.31374692528038,-9.6841684618050294],[119.31393194100633,-9.6845659207805852],[119.3142332147911,-9.6852132473933921],[119.31429692456345,-9.6853500864372677],[119.31446016230666,-9.685749969085748],[119.31465476570497,-9.6862266889104944],[119.31474290556071,-9.6864788830939119],[119.31480251802191,-9.6866493073196125],[119.31498273856255,-9.6870124949306273],[119.31538289010837,-9.6878364717757108],[119.31553236282832,-9.6880986016690827],[119.31565486488012,-9.6883825428200225],[119.31623136988185,-9.6894733017514341],[119.31637253016822,-9.6897827809505088],[119.31657533718214,-9.6902273527101102],[119.31668242395472,-9.690462058677042],[119.31696060584738,-9.6909728043514178],[119.31714580413563,-9.6913152517973913],[119.31746857891187,-9.6919054453799731],[119.31774472923598,-9.6924608828634291],[119.31794081561623,-9.6928552688555101],[119.31802595173633,-9.693026540242613],[119.31817365009397,-9.6933236159920284],[119.31855806979911,-9.6941519536496799],[119.31874220688735,-9.6945486940669525],[119.31928030813981,-9.6956247283984567],[119.31971049434389,-9.6963623055759172],[119.3197448943115,-9.6964212723237893],[119.319984363088,-9.697228987627625],[119.31999973789766,-9.6972777938350987],[119.32012448555668,-9.6976730539682308],[119.32018329672178,-9.6978582585517188],[119.3204330924134,-9.6986449063373357],[119.32041318681922,-9.6987250521194142],[119.32033657627198,-9.6990308638831948],[119.32012191979084,-9.6994522358319841],[119.31995982418664,-9.6999084286310335],[119.31983620337815,-9.7001636724154991],[119.31981794174465,-9.7001952422166369],[119.31977968368551,-9.7004727370271553],[119.31976564257036,-9.7006583004401818],[119.31974892237497,-9.7009164859070438],[119.31975106276138,-9.7011490379976522],[119.3197445642603,-9.701592580932811],[119.3196869851663,-9.7018599817527047],[119.31965359333867,-9.7019466107474273],[119.31953346639636,-9.7021880796161213],[119.3194912063542,-9.7022689097823331],[119.31935826856932,-9.7024442380111395],[119.31927226100606,-9.7025755021576288],[119.3192397010514,-9.7028259741393299],[119.31932419955228,-9.7031294089949824],[119.31941826324237,-9.7032701106270451],[119.31951165513885,-9.7033502366240896],[119.31943785587237,-9.7037389577866406],[119.31935610839776,-9.7041488337016517],[119.31929698157046,-9.7045585063699491],[119.31930784628014,-9.7047311150489008],[119.31924559520814,-9.7054224068185704],[119.31923780977718,-9.7055097822506013],[119.3191977629665,-9.7057981282809465],[119.31918218670864,-9.7058743179453586],[119.31960825761507,-9.7062923156378247],[119.31968490323572,-9.7064202181185237],[119.31962773513192,-9.7067189729022516],[119.31961906117078,-9.706815207555735],[119.31984113615954,-9.7069851578387443],[119.32002845235127,-9.7071390651157117],[119.32009279614567,-9.7072365992895584],[119.32010429667605,-9.7073316783142332],[119.32003830082704,-9.7074048849274277],[119.3197597403198,-9.7074418848350774],[119.31960940694864,-9.7074404989797927],[119.31953363726757,-9.7074809747671225],[119.31950862622216,-9.7076283691538947],[119.31965103656614,-9.7079567799813731],[119.31988883170425,-9.7081675073245606],[119.32010154744853,-9.7083469598442775],[119.32054482328499,-9.7087033782582353],[119.32079208918367,-9.7089180374374564],[119.3211411376534,-9.7093657990923248],[119.32127182083798,-9.709673716168993],[119.32132921557093,-9.709954814562991],[119.32131907571488,-9.7101089502677951],[119.32127753962686,-9.7101695672716914],[119.32108026164485,-9.710174114243955],[119.32102929976247,-9.7101526941914358],[119.32070799987434,-9.7100177401265455],[119.32054511196736,-9.7099426566282432],[119.32046802927619,-9.7099455065797997],[119.32038130675198,-9.7100374307827337],[119.32032289758376,-9.7106412967584106],[119.32030132194848,-9.710864286357662],[119.32027565170006,-9.7110096950413549],[119.32018440108925,-9.711123020411037],[119.32007790067462,-9.7111607056020262],[119.31981881498643,-9.7111643136821044],[119.3197653718745,-9.7111847588694786],[119.31973903342976,-9.7112013999246187],[119.31970062158643,-9.7112969133218598],[119.31975003573564,-9.7113896918807541],[119.31983935999858,-9.7114261773761541],[119.31990665536796,-9.7114587085525272],[119.31997540673967,-9.7116141141000298],[119.32010239730789,-9.7118847722643977],[119.32020755683334,-9.7121085343812865],[119.31999070061045,-9.7121832077887689],[119.31987634281904,-9.7122474922279594],[119.31981411333072,-9.7123481371567664],[119.31980995306697,-9.7124452936153602],[119.31990348166039,-9.7125466589011467],[119.32016825106405,-9.7127348816094354],[119.32036993662336,-9.7129390789752961],[119.32052212169867,-9.7131742067242044],[119.32055952899907,-9.7133102561633677],[119.32051910986911,-9.7133695952305743],[119.32031610860156,-9.7133384589026832],[119.32010318691266,-9.7133041470686976],[119.31984563906508,-9.713368519641449],[119.31965899916349,-9.7135170993346378],[119.31953610590665,-9.7137163908986963],[119.31947795394444,-9.7140897822176271],[119.3194941507345,-9.7141971693638425],[119.31958567204117,-9.7142722150906025],[119.31972980638557,-9.7143533501269417],[119.31987158270749,-9.7146340995839751],[119.3200600806083,-9.7148740342092879],[119.3202956778033,-9.7152340058446498],[119.32036528802769,-9.7153403686630213],[119.32040224476782,-9.7154092576311086],[119.32045516717233,-9.7156204454271915],[119.32046246786865,-9.7157089531056613],[119.32041395663884,-9.7157657273064046],[119.3202189917132,-9.7157247029326754],[119.32003687899885,-9.7156637531796264],[119.31990533156591,-9.7156767375913091],[119.31981369334733,-9.7157622820036522],[119.31980621998116,-9.7159493023183927],[119.31987895355098,-9.7160460073173454],[119.31997574938134,-9.7161746400475408],[119.32006670501448,-9.7163111733219694],[119.32013387088148,-9.7164561116601931],[119.32012436234947,-9.7166107851595598],[119.32005709306043,-9.7167550202279358],[119.31975499729538,-9.7169572246961025],[119.31924911875194,-9.7170245191661593],[119.31915314040521,-9.7170557409296521],[119.31911359991273,-9.7174007604367034],[119.31881292327785,-9.7175144707161962],[119.31862328773457,-9.7175862060385043],[119.31846584702123,-9.7176728925898601],[119.3182153867308,-9.7182038487285922],[119.31817675994955,-9.7183214458779617],[119.31803180092697,-9.7189415203348517],[119.31799467601354,-9.7190717601535539],[119.317866969585,-9.7191894598256567],[119.31776695867825,-9.7192103447815157],[119.3176416453457,-9.7191296791912691],[119.31757277076679,-9.7190140335707724],[119.31755369075029,-9.7187803384418316],[119.31759173836804,-9.7184650676087472],[119.31757424385637,-9.7183668787284319],[119.31731473908405,-9.7182849738724144],[119.31719265791492,-9.7182438685596253],[119.31714736895594,-9.7181803161686275],[119.31719909166486,-9.7181043324489451],[119.31725463559303,-9.7180226901949709],[119.31730073214317,-9.717936472190388],[119.31727226500311,-9.7177937578755973],[119.3170178665813,-9.7173936126250737],[119.31690886515207,-9.7173195930247402],[119.31681405322604,-9.7173238962807318],[119.31662101195025,-9.7173981631946162],[119.31644219075451,-9.7174777729807715],[119.31642530238582,-9.717811369299227],[119.31642043795296,-9.7179347104184899],[119.31632417362175,-9.7180527950004603],[119.31583316716694,-9.7185847817622175],[119.31563736497253,-9.7187855077449399],[119.3155227077068,-9.7189035968235089],[119.31530743788801,-9.7191060207262012],[119.31520828403518,-9.7192054722547141],[119.31515017793845,-9.7195004238054707],[119.31521109801383,-9.7198728591450845],[119.3153385337464,-9.7200446170653549],[119.31545782341993,-9.7202053331095613],[119.31550076334963,-9.7202914890609122],[119.31544423106652,-9.7204125530968213],[119.31534887325199,-9.7204759247240986],[119.31523676286633,-9.7204764256464955],[119.31515740489033,-9.7204098938015022],[119.31508433587351,-9.720296753692196],[119.31496842135562,-9.7202426756588807],[119.31477162541023,-9.7202568588668896],[119.31460610878491,-9.7202695986629806],[119.31451101716982,-9.720321410404722],[119.31445839334026,-9.7204374076601994],[119.31445091727608,-9.7206527728071705],[119.31452896404051,-9.7208604883208523],[119.31469354896819,-9.7210444869135131],[119.31512418932994,-9.7213186182596019],[119.31549523161971,-9.7214949078636437],[119.31562377801504,-9.7216296622790423],[119.31566867397021,-9.721756297615002],[119.3156433148871,-9.7218542382824467],[119.31532637401301,-9.7220929696148346],[119.31525353162522,-9.7222131918852597],[119.3153318140121,-9.7224704726341429],[119.31528523092868,-9.7227361593462547],[119.31527581142961,-9.7228695818656661],[119.31533735743312,-9.7230033946908634],[119.31545265321745,-9.7231170051456388],[119.31555323519376,-9.7231848607926281],[119.31562406310013,-9.7234137634343938],[119.31565259139404,-9.7235656148611724],[119.31573931122034,-9.7236787828495039],[119.31585925200295,-9.7237337224332805],[119.31606009130019,-9.7237274541586203],[119.31614160674985,-9.7237339256801079],[119.31622423106353,-9.7238221932395845],[119.31622946871505,-9.7240812879210807],[119.31623042109709,-9.7241291246593278],[119.3161987793502,-9.7242715188154989],[119.31663844530806,-9.7246376786858946],[119.31736149213918,-9.7252648667801509],[119.31762087820107,-9.7256114457115928],[119.31788660088603,-9.7259231417395426],[119.31896336276907,-9.7270609783814166],[119.31915202524578,-9.7272495859995729],[119.31979946067668,-9.7279036188568853],[119.32034622060166,-9.7285454596052432],[119.32065929978694,-9.7291634377423861],[119.32095281512034,-9.7296901176047754],[119.32154014795947,-9.730933900678906],[119.32198449039197,-9.7320280536517316],[119.32218526493807,-9.7326185880773437],[119.32240917993977,-9.7332771786988133],[119.32277194397011,-9.7346763277502646],[119.32286283125472,-9.7349606780927616],[119.32330423830001,-9.736594522319308],[119.32341192312185,-9.7371398037589074],[119.32354008730522,-9.7380845838364394],[119.32356841684907,-9.738404864792642],[119.32359119667649,-9.7386623442916971],[119.32366230067475,-9.7394660000558133],[119.3236631055679,-9.7396565807865159],[119.32366780632424,-9.7396877144164478],[119.32383201263735,-9.7406816145648349],[119.32383852372891,-9.7407225571002982],[119.32383636985264,-9.7411257672403053],[119.32383516925768,-9.7411690695968218],[119.32382883623188,-9.7413979173799135],[119.32381407026321,-9.7419315858739424],[119.32379755511317,-9.7425275198291388],[119.3238113866862,-9.7429083944068111],[119.32383076437839,-9.7429985028785495],[119.32387371509992,-9.7434248831518175],[119.3239095971503,-9.7437811810565904],[119.32389867488405,-9.7446496185849583],[119.32390354111556,-9.744908314866791],[119.32391196866251,-9.7453286615884167],[119.32392601877086,-9.7459368676922509],[119.32398656023167,-9.7469047963192565],[119.32400970788183,-9.7472555858765304],[119.32397215758908,-9.7484340251101003],[119.32392746398136,-9.7487806705914295],[119.32387543460368,-9.7491843043121662],[119.32377024629989,-9.7500004588540605],[119.32344721161962,-9.7514538343269237],[119.32320973664014,-9.751872162969903],[119.32315643202378,-9.7519438452322333],[119.32273430194653,-9.7525595840575079],[119.32216499871583,-9.7532056282370831],[119.32181122340933,-9.7536071179740702],[119.32130974884592,-9.7541437488349061],[119.32044036792865,-9.7550740687132702],[119.32036689421682,-9.7551376291982024],[119.31915769816931,-9.7561837161055678],[119.31891049432386,-9.7564989545630283],[119.31863906274259,-9.7568451054172556],[119.31795722014965,-9.7577145897564606],[119.31752414892037,-9.7582668382439692],[119.31741180291249,-9.7583909608741237],[119.31712199458445,-9.7586521743583035],[119.31661113919279,-9.7591126803059183],[119.31625573971064,-9.7594181152537658],[119.31586421266331,-9.7597071528627453],[119.31566326634675,-9.7598888599828797],[119.31549992158421,-9.7600355807774122],[119.31531072401071,-9.7603156557428861],[119.31505010497847,-9.7607015143633475],[119.31488556591614,-9.7610257208602889],[119.31483503840639,-9.7611673910622017],[119.31469483409933,-9.7615605458824461],[119.31455158468793,-9.7619622469600813],[119.31451536719055,-9.7620479028883551],[119.31448318315245,-9.7621802138457383],[119.31447414766387,-9.7622852798417625],[119.31449430506814,-9.762376945939252],[119.31432820298426,-9.7627003412476938],[119.31499270574886,-9.7632139557593973],[119.31592614627471,-9.7640994237493715],[119.31628674923411,-9.7644036320219811],[119.31710807307923,-9.7653506720957921],[119.31785369379304,-9.765984234584721],[119.31858407009884,-9.7663537543222674],[119.31950917840595,-9.766626039360176],[119.32050836207134,-9.7667724247075967],[119.32123646399168,-9.7668125461620434],[119.32169739981521,-9.7667824764300804],[119.32245391491631,-9.7666649449312217],[119.32303659736112,-9.7665510826662967],[119.32333238797935,-9.7665159623417139],[119.32339054623674,-9.7665303460985342],[119.32348408832013,-9.76655353331887],[119.32359885260507,-9.7666301420673562],[119.32369987704772,-9.766821820870291],[119.32373533461805,-9.7669544717713848],[119.32390622559194,-9.7672792106669704],[119.32394197274391,-9.7674143976562959],[119.32401484930597,-9.7674670196871602],[119.32412808114611,-9.7675487851482785],[119.32424519625886,-9.7675696889899086],[119.32434064490485,-9.767526240943198],[119.32498914693167,-9.7672919720468485],[119.32532479999963,-9.7672372716826885],[119.32554797485921,-9.7672511140476104],[119.32571592325132,-9.7672950018628057],[119.32578345694105,-9.7673580758145135],[119.32570187044507,-9.7674961307417902],[119.32563483408035,-9.7676095757212806],[119.32558625809941,-9.7677387543399732],[119.32560500986335,-9.7678288520198748],[119.32575028994404,-9.7679097046690799],[119.32595993360417,-9.7679660193163045],[119.3260509072237,-9.7680666633457918],[119.32617213313745,-9.7682402387959542],[119.32628700264308,-9.7682985373475617],[119.32643070531287,-9.7683029557167629],[119.32660235801245,-9.7682306286405378],[119.32675160770054,-9.7681566153354993],[119.32720088021654,-9.7681109612518071],[119.32741395568962,-9.7681034267317273],[119.32753053120916,-9.7680492803499419],[119.32767536702465,-9.7677475389177175],[119.3277179787018,-9.7676522431564763],[119.32785064669008,-9.7675968179387382],[119.3280950743283,-9.7676348475700934],[119.3283260328202,-9.7677147082671354],[119.32843978266988,-9.7677655235600014],[119.32848495741496,-9.7678808876927405],[119.32844490880552,-9.7679908945640932],[119.32838265323687,-9.7680896491179396],[119.32840848806131,-9.7681636138596559],[119.32851994014322,-9.7681945550346541],[119.32885581264566,-9.7681017647845465],[119.32899935433682,-9.7680452639776831],[119.32910546534504,-9.7677223147329642],[119.32916145623631,-9.7676149338820437],[119.32964382919943,-9.7676676917105851],[119.32975003193849,-9.7676338969866947],[119.32982561186259,-9.767554047980866],[119.3299110537522,-9.7674191280902392],[119.33017914255345,-9.7672012907069643],[119.33031598609398,-9.7670838509389455],[119.33035467762636,-9.7669470496665554],[119.3303193738401,-9.7669113303935546],[119.3301493947788,-9.7665622450515457],[119.33002366416088,-9.7663846181555414],[119.32987828695343,-9.7663137030149301],[119.32976509738137,-9.7663226908394449],[119.32965444839419,-9.766329834154476],[119.32955769123453,-9.7662602572050332],[119.3295027876236,-9.7661487250835535],[119.32951567310988,-9.7659960966424819],[119.32959648888686,-9.7658104909613144],[119.32965478923722,-9.765711704031844],[119.32961337815493,-9.7655471802581246],[119.32957782975313,-9.7653477879699722],[119.32959213077231,-9.7652689911709558],[119.32993067875793,-9.7649689557526358],[119.33075430306872,-9.7645985016195027],[119.33131823195095,-9.7643625060247814],[119.33147959640633,-9.7643176811160401],[119.3317846212633,-9.7644819278986006],[119.33190668084876,-9.7645317233602782],[119.3319862861382,-9.7645091027128501],[119.33198036230397,-9.7642304918437048],[119.33188514118638,-9.7640403373916342],[119.33186223365522,-9.7638764107676934],[119.33174029188103,-9.7635127402207331],[119.33166249063152,-9.7633682245638624],[119.33153320139616,-9.7632945718869451],[119.33145961257117,-9.7632451325567899],[119.33140784309751,-9.7631295822643551],[119.33128324112874,-9.7630069597033753],[119.33129970591676,-9.7629403190404673],[119.33134801300048,-9.7628379429166898],[119.33131849095571,-9.762732615217999],[119.33121296090951,-9.7625975667242528],[119.33117036362148,-9.7625211333435686],[119.33123930475017,-9.7622612526546391],[119.33125201936525,-9.7622132864140099],[119.33127227029911,-9.7621706549517171],[119.3313339098321,-9.7620408207272362],[119.33150489793275,-9.7618948148937648],[119.33171519180269,-9.7615966473673552],[119.33185277638461,-9.76137090044665],[119.33253434738231,-9.7609454914412481],[119.33294659480953,-9.7606796608376385],[119.33332933098393,-9.760407456738676],[119.33475487513749,-9.7589365381906532],[119.33525454656012,-9.7585786430898338],[119.33537626620182,-9.7585275049403322],[119.33599679841359,-9.7582667258286619],[119.33600638518658,-9.7582649973317075],[119.33685183424484,-9.7581125370638802],[119.33850534934243,-9.7580846949526858],[119.33890395675223,-9.7580767719254595],[119.33941889326741,-9.7580428962626229],[119.33998810476726,-9.758164145558851],[119.34011746684769,-9.7581916881957795],[119.34025138939012,-9.7582202407714362],[119.34032351501821,-9.7582356029906236],[119.34116067682385,-9.7582756498013623],[119.34312812636199,-9.7583393523791528],[119.34435996464072,-9.7584657646832511],[119.34446371402919,-9.7584764279447427],[119.34516668259641,-9.7585476470562185],[119.34672486236252,-9.7587990813125316],[119.34727777544902,-9.7589075089742892],[119.3494333235891,-9.7596213656334498],[119.34959097024716,-9.7596819322753277],[119.34962561303166,-9.7596865790723086],[119.35022894211204,-9.7598785771346002],[119.3516241404418,-9.7606293968291311],[119.3519809203832,-9.7609258358585862],[119.3521556613548,-9.761122960955845],[119.35241884435425,-9.761393456342887],[119.35302929156865,-9.7620209780856158],[119.35311664181961,-9.7621107403183487],[119.35319179096848,-9.762187989384131],[119.35338289240667,-9.7623496766962035],[119.35368490273618,-9.7626052046664427],[119.35426191135821,-9.763006427304731],[119.35474402801458,-9.7633001090127891],[119.35506025302834,-9.7634404751977399],[119.35547498887968,-9.7636167881842084],[119.35571231726965,-9.7637430161272505],[119.35575958833442,-9.7637681755608128],[119.35590787035198,-9.7639385242434287],[119.35586541785483,-9.7642393492665178],[119.35589682397926,-9.7644767073341541],[119.35605428267911,-9.7648187716689563],[119.35620017519796,-9.7650995229245723],[119.35637250059051,-9.7653399566736425],[119.35677675664203,-9.7656791944392012],[119.35741303598286,-9.7659972100032064],[119.3596239248044,-9.7665133668983231],[119.360387987016,-9.7666584140545183],[119.36079196967376,-9.7667585976311102],[119.36124827668664,-9.7669200070526472],[119.36128201205531,-9.7669319365595584],[119.36169435660929,-9.7671392096067962],[119.36194750227548,-9.7673329937226185],[119.36236307989225,-9.7676252589984642],[119.36266983144765,-9.767847596589263],[119.36327552574494,-9.768335994110771],[119.36378517784374,-9.7688978509549997],[119.36397402198361,-9.7690583934300435],[119.36417730114158,-9.7691457104061783],[119.36529802458426,-9.7700347558992462],[119.3660736277958,-9.7705825392527572],[119.36651385762843,-9.7708821780699964],[119.36679163032954,-9.7710824912639396],[119.3670590320487,-9.7712645374284079],[119.36726146584408,-9.7713526943712736],[119.36739887955468,-9.7714125298643353],[119.36788064997211,-9.7715867501283924],[119.36815983101144,-9.771767303418244],[119.36841586619937,-9.7719326248906668],[119.36869948179572,-9.7720892418250287],[119.36885784971003,-9.7722320038038788],[119.36918480093789,-9.7725191492393151],[119.36961627676988,-9.7728981136569928],[119.3700433099508,-9.7732195097725025],[119.37036331481522,-9.7734552103896135],[119.37190504058526,-9.7745018162058273],[119.37212319542914,-9.7746643506791884],[119.37231274104022,-9.7748146561713725],[119.37257195713016,-9.7749955494050482],[119.37284406500169,-9.7751886302510229],[119.37341973183527,-9.7756520482034261],[119.37398648458861,-9.7764446153266817],[119.37423235114215,-9.7770449730469977],[119.37431684604564,-9.7773550511946041],[119.37432441024339,-9.7774005074274442],[119.37454687463867,-9.7772504447521555],[119.3749990573607,-9.7769455718806171],[119.37511827508843,-9.7768623612089414],[119.37576783381849,-9.7762061780726413],[119.37639829094849,-9.7754579951902656],[119.37677592526882,-9.7749792393004213],[119.37718562131943,-9.7744085250333796],[119.37784173970454,-9.7735525224309185],[119.37819888477077,-9.7732166553243474],[119.37862994781392,-9.7728112436439574],[119.37866082963365,-9.7727822090316749],[119.37889577302155,-9.7725444966311557],[119.37931042883326,-9.7720848036706798],[119.37989279921339,-9.7714507564472228],[119.38022001124455,-9.7708966103901957],[119.38026514192279,-9.770820178808151],[119.38038606296652,-9.7703726356885454],[119.38043402740846,-9.7701949908061465],[119.38056893291002,-9.7692593289548313],[119.38104403395505,-9.7676074991866813],[119.38097367729347,-9.7672587510904236],[119.38081285782721,-9.7668294003564711],[119.38072820014634,-9.7665492723310194],[119.38073011929964,-9.7664644671613701],[119.38069136931131,-9.766028179057173],[119.38078148767556,-9.7657759012367933],[119.38107345707442,-9.7647703215930051],[119.38122560168028,-9.7643069917742196],[119.38136579069874,-9.7638841449372649],[119.38143380732436,-9.7636729616378375],[119.38178817978076,-9.7627575246399942],[119.38227165980936,-9.7617739927754883],[119.38247342990496,-9.7614844866197359],[119.382886120698,-9.7608677108760844],[119.38360615210229,-9.7599990260341656],[119.38409636265703,-9.7595260240067319],[119.38478317490365,-9.7590422418059575],[119.38567064118718,-9.7588897968266224],[119.3860505849666,-9.7589206867402822],[119.38647781599843,-9.7589832318905678],[119.3865887716546,-9.7589772828752643],[119.38694072763258,-9.7584923936090036],[119.38729197404541,-9.7580447371748278],[119.38806608618097,-9.7577410639988784],[119.38833416598902,-9.7575868248720212],[119.38851611592611,-9.7574826537014587],[119.38857193144952,-9.7574460791731781],[119.38861825642743,-9.7573101322567481],[119.38866973541997,-9.7571590587435253],[119.38866533593659,-9.7568362416991476],[119.38869248736842,-9.7564685233036812],[119.38882569584928,-9.7559797462682241],[119.38890428760283,-9.755648219289867],[119.38913955204873,-9.754579000020783],[119.38937671406416,-9.7541722366593717],[119.38946734504202,-9.7540815966883088],[119.38961994110741,-9.7539289862336886],[119.3897333788924,-9.7538901696955236],[119.38935433173708,-9.7528576580544382],[119.38932080231325,-9.752415367874903],[119.38957324291084,-9.7513297000056127],[119.3896300557825,-9.751085303843638],[119.38973501655778,-9.7507537130134097],[119.38984542632545,-9.7503570526358203],[119.38995964202388,-9.7500006189333703],[119.39020232407802,-9.7494471671529936],[119.39026485124191,-9.7493072182534775],[119.39039957867772,-9.748997283098106],[119.390851954754,-9.7479655862427421],[119.39089416803154,-9.7476921042072036],[119.39100214513292,-9.746992586338763],[119.39102492855761,-9.7466294598816035],[119.39104739721972,-9.7463761577334367],[119.39106421634062,-9.7460031639148497],[119.39129835933193,-9.7459701462052521],[119.39342921118919,-9.745669649434717],[119.39464833665147,-9.745588913697361],[119.39588858089337,-9.7455825662823372],[119.39592542611763,-9.7455688354333461],[119.39702542378438,-9.7454103236274818],[119.39712959675353,-9.745395304050021],[119.39776875572352,-9.7452374694336186],[119.39813846881532,-9.7451706480069333],[119.3982008943558,-9.7451694959754036],[119.39844693537782,-9.7450473887259363],[119.399603200927,-9.744533714859017],[119.39969899401342,-9.7444911634364075],[119.3998063595759,-9.7444268879904143],[119.39988929325636,-9.7443772229304386],[119.40166011142503,-9.7433167477696543],[119.40229754009943,-9.7427730113653297],[119.40302650896626,-9.7421511931229929],[119.4038043191141,-9.7414180720863328],[119.40427977269337,-9.7409699273202364],[119.40522364985168,-9.7401755228820548],[119.40529751476856,-9.7401420366256275],[119.40558029669342,-9.7399078702519546],[119.40587742999946,-9.739674606797621],[119.40676512201287,-9.7389777059563016],[119.4080289042106,-9.7379855091239165],[119.40710682841745,-9.7367103091334002],[119.40690669958462,-9.7364335697533875],[119.40665271305238,-9.7360822837703154],[119.40637918065477,-9.7357039920455577],[119.40498733589686,-9.7352262308058357],[119.40480941941928,-9.7348710165841226],[119.40469807885336,-9.7347085315734034],[119.40427765658865,-9.7344329370303626],[119.40343292339071,-9.7338705918542701],[119.40338323584774,-9.7338358681307682],[119.40321055072639,-9.7336883694226799],[119.40298071189045,-9.7334920564132403],[119.40256801660075,-9.7329974940390684],[119.40252321057778,-9.7329968968892331],[119.40167987582572,-9.7330442740739613],[119.4016167407201,-9.7330219016394039],[119.40150115535414,-9.7329522743279426],[119.40135217366389,-9.7327720771695567],[119.40115818899926,-9.7325263050448712],[119.40070964583356,-9.7321038026483393],[119.4005848514098,-9.7319393364311964],[119.40023923385365,-9.7314630437844016],[119.40001999442723,-9.7310633490942564],[119.39981546071499,-9.7305886482474762],[119.39967699030092,-9.730337425331868],[119.39928995356854,-9.7297517328561298],[119.39913592398375,-9.729596835425582],[119.39874958782332,-9.7293124212312136],[119.39864349030495,-9.7290299046063637],[119.39846748938317,-9.7285558980362339],[119.39832357537273,-9.7284166470105902],[119.39796836205028,-9.7281589453789934],[119.39775523711455,-9.7279847997586444],[119.39749160895065,-9.7277163062624936],[119.3974699271954,-9.7276266087809518],[119.39692482022429,-9.7261697367438842],[119.39653677355329,-9.7251320090349509],[119.39639974475244,-9.7245945723815908],[119.39621761405169,-9.7238800906935694],[119.39596549181408,-9.7228760057230375],[119.39586262466048,-9.7224875570550466],[119.39585383019016,-9.7224530842423746],[119.39577094687172,-9.7219106770360781],[119.3956836433855,-9.7211739380267659],[119.3953788109834,-9.7193413688090686],[119.3951678381253,-9.7184990350024236],[119.39484194809745,-9.7171915493505026],[119.39478682685069,-9.7169704096566534],[119.39473863667877,-9.7168984881746496],[119.3947251693312,-9.7167753494027806],[119.39468320066919,-9.7164137841687648],[119.39463891985031,-9.7161905355646923],[119.39461821835619,-9.7160968747709262],[119.39458738959638,-9.7160307988822296],[119.39442070115444,-9.7156270662360953],[119.39438002571762,-9.7154485993733033],[119.39436588927447,-9.7152075316022319],[119.39437965070033,-9.7151450089349396],[119.39433599131303,-9.715022115678039],[119.39435124381487,-9.7148956656024552],[119.3944091070947,-9.7147622646667173],[119.39426791263418,-9.7144336811693961],[119.39422598624037,-9.7143616499701011],[119.39448626622823,-9.7131053132595753],[119.39460520966281,-9.7125233430777485],[119.39463533425328,-9.7123759307045816],[119.39454872324507,-9.7119195409539998],[119.39450005103663,-9.7116630740915753],[119.3942997117623,-9.7106234946784866],[119.39440723380687,-9.7105583316017032],[119.39447975513667,-9.7104695604218136],[119.39447030506062,-9.7101466192710291],[119.39443255331969,-9.7099353001739246],[119.39448704234314,-9.7096197118801797],[119.3944067319851,-9.7091047753650628],[119.39440986162583,-9.7089030205578979],[119.39443830808148,-9.7087978151669745],[119.39442983466915,-9.7086471850195153],[119.39433498497169,-9.7085415200750731],[119.39423994911442,-9.7082910525899706],[119.39418628027272,-9.7081173404428682],[119.39418439709232,-9.7080070251040524],[119.39433605696354,-9.7077742086128183],[119.39446368065444,-9.7076376150837973],[119.39484532505173,-9.7075039983108127],[119.39483248722956,-9.7069682460876265],[119.39481545586864,-9.7062579903139294],[119.39432608887796,-9.7050092393848217],[119.393866704385,-9.7039523336332536],[119.3932672738656,-9.7028058221309266],[119.39315153831285,-9.7026341964109974],[119.3926495196597,-9.7019206500179394],[119.392206388614,-9.7017292563000979],[119.39223073326184,-9.7015807251702881],[119.39230506222896,-9.7012789117923148],[119.39243201412626,-9.7010803909472543],[119.39259004389544,-9.7009445789291249],[119.39265905786931,-9.7009042110604469],[119.39302502978137,-9.7007688010393167],[119.39384099996221,-9.700500174443448],[119.39394987009052,-9.7004683924023425],[119.39440438925124,-9.70023440679239],[119.39494373156799,-9.6998337183513854],[119.39536490386729,-9.6995363647114345],[119.3956434976493,-9.6992801460618239],[119.39581414310828,-9.6991506895526527],[119.39609013964832,-9.6989773326377531],[119.39634612357486,-9.6987093787348044],[119.39641081091031,-9.6986283111476155],[119.39666129278453,-9.6984416784406449],[119.39676170838618,-9.6983222655600798],[119.39677179698094,-9.6977699577173553],[119.39673792401607,-9.6974679419918743],[119.39637560694871,-9.6968853575731373],[119.39608093418781,-9.6964824451086997],[119.39596366708963,-9.696256959890718],[119.39595494096784,-9.6962056121992077],[119.39586081162724,-9.6954396775989835],[119.39585135885318,-9.6952750189269636],[119.39587680606985,-9.6952138479406926],[119.39591731693065,-9.6951760863072991],[119.39607737736912,-9.6950826359548614],[119.39627704484985,-9.6950711156394505],[119.39655780779663,-9.6951645183278288],[119.39669075997062,-9.6952231298434981],[119.39694644442295,-9.6953258360184691],[119.39802111538222,-9.6951259895727162],[119.39838329395388,-9.6949530076751103],[119.39847175037107,-9.6937104458802992],[119.39847929928032,-9.6935750664360967],[119.39850537782104,-9.6929771054090565],[119.39850794628478,-9.6929276786693777],[119.39851423614311,-9.692709954600673],[119.39859180266967,-9.6926580538260509],[119.39880460205086,-9.692701572019871],[119.39909390675848,-9.6927946266706613],[119.39926908300185,-9.6928495042012059],[119.39947070920596,-9.6928836001979448],[119.39994494240523,-9.6929010416496908],[119.40021797657846,-9.6928810452239986],[119.40038661295193,-9.6927878952451465],[119.40046702673192,-9.6926573487576206],[119.40052557619447,-9.692349706873415],[119.40052545118863,-9.6922832892423685],[119.40004651723302,-9.6920142066902599],[119.39971614228625,-9.691889997725184],[119.39949184777061,-9.6918069920989751],[119.39932066271842,-9.6917986014242956],[119.39900372184434,-9.6917095091864667],[119.39857954940669,-9.6915589689712078],[119.39853544755294,-9.6915360227691849],[119.39837316758769,-9.6914118416830775],[119.3982218125866,-9.6912378048807568],[119.39821940510149,-9.6911065182511607],[119.39849393394798,-9.6908599933939286],[119.39884360384929,-9.6905560549179768],[119.39895666032169,-9.6903801619149021],[119.3990047003067,-9.690248354577875],[119.3988870500973,-9.6900774600067052],[119.39864114307431,-9.6899951279727361],[119.39847832621388,-9.6898470536985428],[119.39839377825035,-9.689410280859704],[119.39836195573969,-9.6892461159154664],[119.39826919156997,-9.6891267237192551],[119.39810045986837,-9.6890147985940303],[119.39746659790524,-9.6889846128495378],[119.39742120462495,-9.6889723667812291],[119.39739467462459,-9.6889474843388825],[119.39739653622121,-9.6885830142946361],[119.39746882282793,-9.6883366063492531],[119.39752278844594,-9.6879875812618366],[119.39753980361911,-9.6877792011491692],[119.39767315059544,-9.6873979011921278],[119.39772926829119,-9.6872740060904903],[119.39781511307706,-9.6871416123954646],[119.39797088824594,-9.6870240943864019],[119.3980838916583,-9.6870034738312256],[119.39824387835233,-9.687048769984699],[119.39863730926447,-9.6872119141984285],[119.39882562460298,-9.6872457403985663],[119.39895625382815,-9.687227656830828],[119.39907900229423,-9.6871160033008437],[119.39914904958903,-9.6869434287961553],[119.39918071741624,-9.6866960648714553],[119.39915911480136,-9.6865389973767719],[119.39914313924453,-9.6864867827387684],[119.39899527810962,-9.6862181435524235],[119.39871523282181,-9.6859815481099076],[119.39846767014694,-9.6858399201761358],[119.39768654419868,-9.6855303330583524],[119.39752214273278,-9.68536464556189],[119.39748525973698,-9.6852691609429939],[119.39748802874954,-9.685230187922798],[119.39792846632577,-9.6849369226008548],[119.39814445380352,-9.6847339851852325],[119.39825665412138,-9.6845032065576788],[119.39827250467238,-9.6843562672278836],[119.39823026531451,-9.6842468116410032],[119.39807231198768,-9.6841516912475072],[119.39796976499269,-9.6841118341937431],[119.39772198018534,-9.6839946956985727],[119.39756813496149,-9.6838800393322799],[119.39734683159111,-9.6838386462364952],[119.39724626580255,-9.6837729111908288],[119.39720398867325,-9.6836839790323666],[119.39720096964913,-9.6836460348366131],[119.39732248334599,-9.6835473657183115],[119.39756135317396,-9.6834335025540668],[119.39768950656548,-9.6833694771196406],[119.39781101936308,-9.6831600358069636],[119.39786780795305,-9.6829088740452676],[119.39788690685532,-9.6827549101109867],[119.39788029503961,-9.6826126841280029],[119.39806935861407,-9.6824286909313173],[119.39820643777693,-9.6823537387340366],[119.39865819781767,-9.6822920542348925],[119.39896966991444,-9.682291285314534],[119.39922399818897,-9.6822142691731301],[119.39948554712032,-9.682004096711637],[119.39961690569567,-9.6816896901270297],[119.39962606079416,-9.6816411752999443],[119.3996216846931,-9.6816032625804382],[119.39950732330442,-9.681477067912283],[119.39923307774438,-9.681427240974358],[119.39878770199095,-9.6815193486389717],[119.39813143881486,-9.6815619234439509],[119.39799942283514,-9.681544345295265],[119.39723263837561,-9.6810363956131482],[119.39716437533571,-9.6809698403857851],[119.39714292470626,-9.6809211097213961],[119.39708043441453,-9.680813939311804],[119.39679132935646,-9.6806904372138547],[119.39665176896403,-9.6806246113367251],[119.39652080339238,-9.6804795066238967],[119.3963609713818,-9.6802839121727402],[119.39624688428637,-9.6800723790370284],[119.39621044375701,-9.679966396631869],[119.39630275286981,-9.6796978509750033],[119.39645335423893,-9.6793912612976101],[119.39654619664975,-9.6788800443785021],[119.39655503968345,-9.678639804883062],[119.39649081010282,-9.6784716631366905],[119.39611754738701,-9.6782442533695416],[119.3959876088411,-9.6781845042114583],[119.39565330925291,-9.6782169301671388],[119.39553924733843,-9.6782286726150915],[119.39531201203977,-9.678104910613115],[119.39526176511845,-9.6780626298864263],[119.39524311407854,-9.6779874393687919],[119.39535273693934,-9.6775958790465211],[119.39537212182597,-9.6775442543637951],[119.39537488993926,-9.6774953006675446],[119.39534798402235,-9.6773987062852029],[119.39521094173165,-9.6773036434483402],[119.39507372767048,-9.6772115834477859],[119.39497001695281,-9.6770064453911004],[119.39490001912066,-9.6768014449306747],[119.39480002080438,-9.676624722752706],[119.39471470571914,-9.6764907813244463],[119.39470473583492,-9.6764529450473447],[119.39451743223378,-9.6761612706260962],[119.39386701195315,-9.6758353464240372],[119.39374367263247,-9.6757819896470778],[119.3930657798619,-9.6752448003072686],[119.39284975101521,-9.6750844260054123],[119.39248908240529,-9.6749010578375305],[119.39212754055359,-9.6747776105981984],[119.39201570536056,-9.6746931570634729],[119.39190992620217,-9.6745598964220108],[119.39152051885696,-9.6743718661686557],[119.39138763233348,-9.6742613799586934],[119.39136570416395,-9.67423663421323],[119.3912987406444,-9.6740655696702333],[119.39127159101122,-9.6739060677107886],[119.39093828607315,-9.6735924507309505],[119.39084234819586,-9.6735195390954232],[119.39033476004124,-9.6736312214036957],[119.39023207634932,-9.6736264657887432],[119.39018159470493,-9.6736088471704988],[119.38998166732017,-9.6733840049678292],[119.38969585557936,-9.6730790502579111],[119.38960772022017,-9.6729910183207721],[119.38944459579147,-9.6727445573154114],[119.38935688491233,-9.6725627090017952],[119.38910013836073,-9.6721793567918439],[119.38895078704923,-9.6719706799029268],[119.38890002571566,-9.6718184138886159],[119.38890029101572,-9.6717709791473112],[119.38891972356646,-9.6717043789539048],[119.38907087082407,-9.67155762038783],[119.38922734836353,-9.671418604085261],[119.38925770677781,-9.6713474002622775],[119.38916043520601,-9.6713061924268118],[119.38874101928263,-9.6710869781814495],[119.38856405518709,-9.6709565306193213],[119.38848637984256,-9.670846505761574],[119.38861923758782,-9.6707141516367301],[119.38881190294705,-9.6706101459414526],[119.38894550892815,-9.6705407209774421],[119.38898009955199,-9.6704702321154627],[119.38898349629142,-9.6704449099046315],[119.38890562579411,-9.6702030723138819],[119.38886762584036,-9.6700471784345154],[119.3888108552369,-9.6697756470284162],[119.38875651010494,-9.6697077392207689],[119.38830664403645,-9.6698055216074863],[119.38818684624607,-9.6698003523043781],[119.38805466838835,-9.6697079091925957],[119.38800694586394,-9.6695790858061059],[119.38805901571106,-9.6693663565720271],[119.38806598905421,-9.6692539593027504],[119.38804774720586,-9.6691737622592768],[119.38795003316761,-9.6688936468243014],[119.38766777105081,-9.6684191977877276],[119.38755917071921,-9.6683095731282265],[119.38684295963492,-9.6685365557174237],[119.38676324103085,-9.6685629139472553],[119.38665471264494,-9.6685781475634371],[119.38654738935065,-9.6685661290235885],[119.38646510228273,-9.6684409730723928],[119.38647678177813,-9.6683100479702944],[119.38668601534744,-9.6681547080732457],[119.38685246187163,-9.6680171010083313],[119.38693746219417,-9.6678814292844777],[119.38687785063235,-9.6676760717932098],[119.38678236871147,-9.66770375742243],[119.38663153531718,-9.667765146943907],[119.38658297282598,-9.6677694852734817],[119.38647976213133,-9.6676116191808319],[119.38616870192413,-9.6671140188968252],[119.38604313858002,-9.6669575638404694],[119.3859300767117,-9.6665123463676537],[119.38589992783943,-9.6663877992575067],[119.38578064356193,-9.6661673790212603],[119.38561976474045,-9.6659366156821989],[119.38548420363315,-9.6658012848014323],[119.38531942175393,-9.6656795219922742],[119.3852404037217,-9.6655980937769641],[119.38506556202617,-9.6652918656270685],[119.38499418733193,-9.6651168323758725],[119.38495198214832,-9.6650263758664892],[119.38491593732067,-9.6649278956058424],[119.38476207590918,-9.6648534587200743],[119.38432584176428,-9.6649072678561083],[119.38412070011032,-9.6649695962698274],[119.38404268392276,-9.6650694093257243],[119.38393943455731,-9.6652126902134228],[119.38379614107907,-9.6653210324396355],[119.38357200124688,-9.6654444401087858],[119.38353596631191,-9.6654652207432719],[119.38303645676717,-9.6656748311285128],[119.38293620214404,-9.6657590166652199],[119.38305827791726,-9.6659333007811483],[119.38309293059433,-9.666020335370149],[119.38306909316418,-9.666139891242949],[119.3829726633578,-9.6662470148878015],[119.38277571992364,-9.6663287542685339],[119.38245035599914,-9.6660393641253108],[119.38232544376433,-9.665952557064827],[119.38192286404899,-9.666043070231467],[119.38183454073157,-9.6660668626955157],[119.38159382729339,-9.6663939002582424],[119.38116213832211,-9.6664818305719677],[119.38101088764245,-9.6663697309782606],[119.38091499832854,-9.6660286001397253],[119.38082713816198,-9.6658172513650129],[119.38078954829905,-9.6657592217106867],[119.38074501836797,-9.6657337466150466],[119.38022388822196,-9.6653847835808619],[119.38011385167295,-9.6653500032000466],[119.38006193740853,-9.6653756257844634],[119.38006258132316,-9.6655069573801597],[119.38008143471052,-9.6655841596812024],[119.38013388856814,-9.6656395956907204],[119.38015818015595,-9.6657511718790374],[119.38010410392133,-9.665855941098755],[119.37985257703485,-9.6657631121778422],[119.37971040141394,-9.6656015849451364],[119.37961282587128,-9.6653883817683663],[119.37962369777551,-9.6652030341926434],[119.37961083027562,-9.6650988027674885],[119.37923140180783,-9.665013226878898],[119.37912490768838,-9.6649835492513603],[119.37906676471948,-9.6649230005959339],[119.37908510819125,-9.6647520781458525],[119.37915116519423,-9.6642865818602104],[119.37912158829067,-9.6641510504305757],[119.37902153061918,-9.664063644421617],[119.37891117031427,-9.664047051929856],[119.37881758776155,-9.6640983276756174],[119.37877410464125,-9.6641348473452808],[119.37864063715574,-9.6642977235610488],[119.3785591064177,-9.6643433821413396],[119.37837010579585,-9.6641210796240671],[119.37827720043254,-9.6640453144396474],[119.37811530897443,-9.6641833019178307],[119.37796631199581,-9.6643221140742526],[119.37782416065659,-9.6642316602628853],[119.37774349416702,-9.6641803287591301],[119.3773976086128,-9.6638431441457442],[119.37711165837641,-9.6637871730395659],[119.37680354794543,-9.6636346606110237],[119.37676857780764,-9.663610048864598],[119.37663882811944,-9.6634271276597588],[119.37659005968362,-9.6632743328441393],[119.37655087262476,-9.66295717523343],[119.37651395095816,-9.6627703158973191],[119.37639957338172,-9.6626092158425649],[119.37629179682904,-9.6624610039721119],[119.37623501273572,-9.6623197861291601],[119.3762317329082,-9.6620442221631038],[119.37640005991489,-9.661522255647526],[119.37651620106192,-9.6613078635670036],[119.37660025080095,-9.6611822057940913],[119.37661490165647,-9.6610402720908155],[119.37654554683957,-9.6607968103244843],[119.37646477872659,-9.6602723832638162],[119.37642015526603,-9.6601205417295546],[119.37630527496856,-9.6596314661192082],[119.37609489926024,-9.6580832418480895],[119.37583979936733,-9.6573168665800608],[119.3749989611332,-9.6565883698573316],[119.37399925136447,-9.6557243515974847],[119.3738061129618,-9.6555574284325303],[119.37314445295419,-9.6548516782622755],[119.37269592597625,-9.6545876975641249],[119.37260201607023,-9.6545445858639027],[119.3720112199419,-9.6542733071673297],[119.37197062274606,-9.6542670586777604],[119.37121795944131,-9.6541512736623076],[119.37039137456236,-9.6540072238542507],[119.36938132978457,-9.653912128641764],[119.36847523674282,-9.6538453665703514],[119.36813477230191,-9.6538670771038824],[119.36800360438292,-9.6534224378951308],[119.36796994365807,-9.6530299872440537],[119.36797128814453,-9.6529468413236259],[119.36791998901629,-9.6529642647889204],[119.36766218935861,-9.6531879819397659],[119.36748695196138,-9.6532948240968039],[119.36711334660367,-9.6535717649249477],[119.36692419489577,-9.653693953113418],[119.36688764464918,-9.6537142130404732],[119.36676948632282,-9.6537737355694162],[119.36619844829977,-9.6537890051583872],[119.36595861439855,-9.6537829940898519],[119.36542703862699,-9.6537153057167302],[119.36523626993801,-9.6537464015751198],[119.36500474936975,-9.6539474360253053],[119.36478076961691,-9.6538322436630892],[119.36439298374921,-9.653842412297422],[119.36399301926247,-9.6538529001911684],[119.36318628871629,-9.6539168932499706],[119.36216635499341,-9.6540914615516726],[119.36135763604614,-9.654223118701907],[119.3610588983496,-9.6542717432462837],[119.36053383636749,-9.6543433688513574],[119.36013927500755,-9.6543971851818924],[119.35962080775414,-9.6544909907665897],[119.35890655359458,-9.6546202116534232],[119.35789907098535,-9.6548134291963379],[119.35671042714455,-9.6549746182839726],[119.35631036822895,-9.6550359754298825],[119.35577193242875,-9.6551185529787631],[119.35477122800978,-9.6552125537163533],[119.35377696273667,-9.6552631459773579],[119.3536218170932,-9.6552566573687955],[119.35278318309747,-9.6552268511381953],[119.35163974457862,-9.6551215863920561],[119.35140494238419,-9.655099814704613],[119.35064624282995,-9.6550294913179187],[119.35051258738611,-9.6550081558016814],[119.3501878206115,-9.654956320677627],[119.34972184498724,-9.6548819467444105],[119.34908661965187,-9.6547265681765566],[119.34881042436166,-9.6546352123451129],[119.34812144474893,-9.6544188561452415],[119.34751851766555,-9.6542437914177981],[119.34738298533659,-9.6541995645582119],[119.34632033741366,-9.6538528066616323],[119.34565823673825,-9.6536050866054097],[119.34554675407946,-9.6535633814448261],[119.34463742527703,-9.6529257890938425],[119.34374111236252,-9.6522076813393483],[119.34323016793792,-9.6517862347469077],[119.3429009009559,-9.6515146790591189],[119.34206672669814,-9.6508650852554183],[119.34128898759673,-9.6501785688857922],[119.34090505532413,-9.649882067803162],[119.34034273712768,-9.6494478166633826],[119.34019157907812,-9.6493469199243691],[119.33971228719236,-9.6490269834085325],[119.33917170920711,-9.6486661637124485],[119.33803739610903,-9.6480273707664992],[119.33667815087597,-9.647374986366458],[119.33595939111308,-9.6470156883233358],[119.33567978469432,-9.6467821730587957],[119.33560737308187,-9.6466998023539645],[119.33554214435458,-9.6464058832248725],[119.33553348388318,-9.6463668607419777],[119.33548403376119,-9.6462073947554359],[119.33533648019443,-9.6460134091914256],[119.33483766762436,-9.6455506738245163],[119.33465149626954,-9.6453675673593011],[119.33448348402567,-9.6450648816389162],[119.33429939010477,-9.644778034778426],[119.33403601375107,-9.6445514550855478],[119.33392634232689,-9.644440128009478],[119.33387385609365,-9.6442993031702713],[119.33390801504288,-9.6441081441754477],[119.33409905982387,-9.6437380362813201],[119.33419807518112,-9.6435527066919917],[119.33420337218797,-9.6434496263991036],[119.3341164086454,-9.6433295192418882],[119.33403687170437,-9.6432815053371428],[119.33379973576928,-9.6433617257629862],[119.33382624958176,-9.6433287260398401],[119.33395606132319,-9.6432070999276789],[119.33397618815059,-9.6431665027318445],[119.33397103143807,-9.6430852094148349],[119.33384681168104,-9.6429899550223581],[119.33338879775488,-9.6428736735811071],[119.33324755742888,-9.6428162860427165],[119.33314029708708,-9.642710684050769],[119.33309392084789,-9.6425643319782921],[119.33288199290973,-9.6424034180832336],[119.33271120805591,-9.6422733032702581],[119.33227138201869,-9.6415389609542217],[119.33224595818444,-9.6415151469064426],[119.33142544193072,-9.6407466231580656],[119.33052792302533,-9.6402641503701716],[119.32949949070894,-9.6397065239368658],[119.32917513222662,-9.6395069266033602],[119.32861476825701,-9.6391621220342358],[119.32845854522577,-9.6390562277626373],[119.32763695518145,-9.638499298303941],[119.3270459612022,-9.6379688826577876],[119.32602492580975,-9.6372065849159299],[119.32556001858006,-9.6368903140366911],[119.32488518170578,-9.6364312434071167],[119.32376578925982,-9.6357250013077191],[119.32371954432153,-9.6356821342230887],[119.3242455218134,-9.6354130993350395],[119.32427612933998,-9.6350465608500713],[119.32373361241639,-9.6348752391009498],[119.32300549700619,-9.6350180073750948],[119.32280562178209,-9.6347324717261245],[119.32269140788219,-9.634575426714548],[119.32242014987003,-9.6343612756522816],[119.32202040032132,-9.6344469360772109],[119.32134939186096,-9.6343755532890896]]]},"properties":{"OBJECTID":431,"nama_kawasan":"Kawasan Perbatasan Kecamatan Perbatasan Prioritas Kec. Lamboya, Lamboya Baraat - Kab. Sumba Barat","delineasi_asal":"Lamboya","Shape_Length":0.51239512122374531,"Shape_Area":0.0093598168379377643}}]}