{"type":"FeatureCollection","features":[{"type":"Feature","id":475,"geometry":{"type":"Polygon","coordinates":[[[112.00625935898233,1.134971508028741],[112.00520894543649,1.1355848060939593],[112.00365692242906,1.1356867514424493],[112.00276371217569,1.1370074913027111],[112.00188966107908,1.1371449913482934],[112.0014011574375,1.1372492902225986],[112.00000002538093,1.137823422812744],[112.00000000019986,1.1378234327053178],[111.9992994472118,1.1381104954031116],[111.99804489115888,1.1390573735989733],[111.99733637557335,1.1395737301435815],[111.99561476381035,1.1374752916514126],[111.99551825126633,1.1351049017698642],[111.99570431919904,1.1323273204495194],[111.99565386183633,1.1322289436109259],[111.99463440475404,1.1302413150846746],[111.9945852855825,1.1301455480786444],[111.99352375371831,1.1298000186559989],[111.99342064284843,1.1299247959925651],[111.99266553878363,1.13083856294935],[111.99258500179644,1.1319220994254238],[111.99131655211727,1.1317943354403042],[111.98933068626224,1.1299633661164989],[111.98901967102108,1.1287879827792153],[111.98892461717742,1.1284287557825223],[111.98737097089366,1.1277625730843397],[111.98695348131815,1.1275835594337877],[111.98587969888905,1.1280847111405592],[111.98455268715685,1.1287040490526579],[111.98298149509998,1.1279441066352547],[111.98264630338423,1.1275952551170008],[111.98207410793378,1.1269997402458785],[111.98136077108279,1.1274841969382123],[111.98091953940531,1.1277838564398621],[111.97819433460091,1.1282966031058095],[111.97730417394854,1.1286438025694565],[111.97543242666524,1.1273814161195332],[111.97525511003533,1.1273515307485695],[111.97416179433139,1.1271672650572668],[111.97237091138851,1.1264464962088709],[111.97125973155141,1.1259501037143878],[111.97040310302083,1.1265485989387116],[111.96687328467442,1.1264884603742189],[111.96507352002698,1.1267998389414515],[111.96283241668277,1.1257352134094276],[111.9617306203719,1.1266051591008477],[111.95893542942656,1.1265335218046175],[111.95892943994176,1.1265347763588807],[111.95635461707201,1.1270737571481959],[111.95623911174567,1.1270979354214319],[111.9548165200664,1.1283183963769261],[111.95361305989485,1.1269707326132448],[111.95294198758273,1.1258272949937123],[111.95277160742381,1.1256729839211062],[111.95116557742949,1.1242184339336063],[111.95088104812191,1.1238434867875071],[111.95017025455365,1.1229068158968971],[111.94982017366215,1.1224454852709869],[111.9496000789805,1.1218520100622413],[111.94882499377849,1.1197620359891971],[111.94647002187406,1.1198678781001377],[111.94493793503773,1.120873893015812],[111.94451374371437,1.1211524301405689],[111.94450472801083,1.121158350377641],[111.94288799068829,1.1208356070776517],[111.941442349385,1.1216491679747946],[111.94039637489283,1.1218358285606769],[111.93841802557148,1.1221336093786363],[111.93676906913731,1.1219286278039817],[111.93533814523926,1.1221497333235675],[111.93484015375014,1.120377949282954],[111.93395387816901,1.118277585342355],[111.93433953264338,1.1164734580836466],[111.93400317810426,1.1144094510353852],[111.93379026900578,1.1129132876181984],[111.93323338811041,1.1113764622539861],[111.93478678887925,1.1092174517240778],[111.93411241875316,1.1068095807975737],[111.93369496335191,1.1052560847006134],[111.93237095715403,1.1036889818610689],[111.93017761860227,1.1017127513424612],[111.92985236889177,1.0997753904219962],[111.92831422781944,1.0984063353841407],[111.92807313756532,1.0970947596155156],[111.92888302742983,1.0955570960831551],[111.92780287959926,1.0943644106890247],[111.92744486309005,1.0929797901852112],[111.92765398874064,1.0926981441041335],[111.92827713797959,1.0918589021666776],[111.92895021038396,1.0909524251143807],[111.92646497527846,1.0907921740196684],[111.92569703069347,1.0925067809632196],[111.92338399417605,1.0926828844076226],[111.92335287763325,1.091259652411054],[111.92123714967477,1.0916497036709529],[111.91990480766083,1.0898762217103126],[111.91897216033698,1.0915663787853873],[111.91640183227878,1.0905739247468773],[111.91473954699256,1.0912141530108102],[111.91307448819714,1.0909761402367053],[111.91316141216947,1.0897023386920068],[111.9135041339087,1.0878480256658918],[111.91237177503746,1.086935321707756],[111.91059811770901,1.0870761591374958],[111.90944575521752,1.0857679189543319],[111.90791622515371,1.0855887623116018],[111.90988930264928,1.0846838302945798],[111.91118273819285,1.0830000593053342],[111.91078638628278,1.0805846826370384],[111.90880217787827,1.0781315263488978],[111.90787091461107,1.0786181665951631],[111.90585673180277,1.0784120914449318],[111.90493822541885,1.0759464426742511],[111.90304485483625,1.0757509075783673],[111.90219800823155,1.0745709862620743],[111.90054822082379,1.0749042983946993],[111.89985720334732,1.0753845489577998],[111.8982460292309,1.075878420652657],[111.89716338758035,1.0757512106499121],[111.89613379963521,1.0753931932413252],[111.89432153800863,1.0757326288577929],[111.89373576998986,1.0737600028219276],[111.89263896221837,1.0731572717907056],[111.8921998592362,1.0742335867107045],[111.89071978918696,1.0763795615675349],[111.88950605875766,1.0767831476242122],[111.88841759939277,1.0785449725725016],[111.88692001414739,1.0786730216426577],[111.88617454721765,1.0773364582110503],[111.88574376206503,1.0757640817470246],[111.88549211736739,1.0739697687898229],[111.88362707093262,1.072759028606356],[111.88304907665361,1.0707047351354504],[111.88313850164059,1.0694106619725403],[111.88211063499784,1.0689092539589637],[111.88163647104636,1.0686779501273236],[111.88159118928201,1.0673308223596223],[111.88099125514236,1.0655140119621365],[111.88237967797983,1.0649256979626216],[111.88289405062,1.0641390825526855],[111.88400001259055,1.0628405649401884],[111.88598113721974,1.0612534512857792],[111.88448909719415,1.0600271492335764],[111.8821452328163,1.0597188562402948],[111.88155140956997,1.0574573652652361],[111.88132752964185,1.0558802322869383],[111.88188411915684,1.0549458528688547],[111.88017545493335,1.0537793098673092],[111.87857927521344,1.054033193876819],[111.87751885221331,1.0538354293616408],[111.87695530284503,1.0517853069463854],[111.87884504826042,1.0503403958925901],[111.87764381481026,1.0501729214432203],[111.87607845755485,1.0498921126309142],[111.87323660438585,1.0499124094301919],[111.87321798392287,1.0484208433472872],[111.87187565763554,1.0479520042816262],[111.87221476140218,1.0463565377240798],[111.87156344989336,1.0456760279263904],[111.8709712975874,1.045122734426684],[111.87193478176482,1.0428945831185388],[111.87398812465227,1.0421543511424147],[111.87272660784674,1.0396653775551954],[111.8758931315628,1.0378965981495298],[111.87548956259332,1.0362756061343816],[111.87637776811954,1.0339535476181823],[111.87646746560114,1.0319195257655451],[111.87651545522414,1.0319124391078276],[111.87658084582944,1.0319027830869913],[111.87758740663355,1.0317541377432917],[111.87743870822987,1.0309999141147728],[111.8770473727381,1.0290150096350317],[111.87680671865519,1.0286360047478524],[111.87632915436706,1.0278838900295568],[111.87582251859442,1.0270859917251869],[111.87248989369368,1.0269946295985051],[111.87254733788939,1.0235724592016595],[111.87322032755611,1.0227518745994075],[111.87335530410405,1.0217611121856294],[111.87220823232411,1.0220580413455878],[111.87282897677591,1.0206078656605087],[111.87237097094362,1.0192537987238666],[111.87083502421706,1.0183438188122409],[111.87102251667585,1.016274858298118],[111.86913719862287,1.0154210392495884],[111.86961184371165,1.0131311971470609],[111.86733851855786,1.012201552659576],[111.86559763971934,1.0130570624335178],[111.86318072700902,1.0122654728733096],[111.86122096757367,1.0104097847838034],[111.86123734872473,1.0093481935643354],[111.85979502502045,1.0079527461223847],[111.8595119939834,1.0058556799957046],[111.85942893709586,1.0039169314213154],[111.85703563158921,1.0035322509127127],[111.85566080560176,1.0029406346026803],[111.85398521124858,1.0024729727495583],[111.85366550495917,1.0023837420161499],[111.85150106342343,1.0025745745570021],[111.85087044621417,1.0020698399512185],[111.84974128083553,1.0011660743548987],[111.84718243801916,1.0001669941115097],[111.84540460513847,0.99915374325070161],[111.84364093927798,0.99836686523866547],[111.84190060542863,0.99786357764202194],[111.84199002591902,0.99604704063847294],[111.84015275414635,0.994674371225301],[111.83758530841533,0.99488437101695126],[111.83611548704016,0.99321060858278543],[111.83459566875518,0.99113715235773725],[111.83452039729855,0.99074051356387827],[111.83383937129003,0.99032360225248794],[111.83279644909692,0.99045303897662507],[111.83208959455919,0.99043970742661713],[111.8315995368892,0.99019972513724497],[111.83119303792841,0.98989307970191476],[111.83086140932664,0.98934811572303261],[111.83072753444822,0.98891259114321883],[111.83049672524373,0.98848955994526477],[111.8302595290541,0.98819096524090355],[111.8300128890836,0.98779265370802705],[111.82976847043864,0.98740406384649759],[111.82948794671142,0.98722268138169511],[111.82921492243077,0.98704796559115948],[111.8290224423319,0.98674714686336529],[111.82888162108998,0.98632855741703906],[111.82861220938599,0.98618412090053198],[111.82820614839511,0.9862410569792246],[111.82774509476036,0.98627993916790047],[111.82701712863764,0.98618549596392313],[111.82652718967813,0.98625743093572282],[111.82602502803269,0.98629575284678594],[111.82560646916329,0.98657294818303853],[111.82506459255694,0.98682014483387093],[111.8245357687108,0.98688152356351111],[111.82396167209356,0.98676596967379737],[111.82359338082995,0.98651320262223408],[111.82319509627672,0.98650375344550412],[111.82286180392919,0.98682288956473485],[111.82222771983345,0.98663513540321901],[111.82169611888082,0.9866090208896594],[111.82137199062493,0.9865331855581303],[111.82114562676929,0.98612015841860057],[111.82078622530412,0.98570796674931671],[111.82046415289841,0.98566145920904091],[111.82001104387462,0.98543715210291793],[111.81968441460413,0.98521549529891672],[111.8196424423449,0.9852117316361273],[111.81946749722727,0.98519604835900054],[111.81929918371043,0.98505355797539096],[111.81904034713438,0.98321192988669281],[111.81963409483768,0.98027972093240123],[111.82074737639039,0.97706508618483667],[111.82259368904755,0.97251379537539151],[111.82330322266563,0.96810471975703649],[111.82259368904755,0.96127772328833316],[111.82145690910914,0.95459300316463214],[111.82017517104737,0.95018392844559685],[111.82102966278876,0.93724113736863046],[111.82113442301528,0.93686865706291655],[111.82261492114174,0.93160463194823251],[111.82395382281072,0.93121119833818966],[111.82702089140111,0.92988207409848656],[111.82983830099687,0.92862481288483423],[111.83269134982601,0.92725983627246933],[111.83682826541218,0.92528420829961533],[111.83861164081463,0.92539149202377757],[111.84050199956766,0.92542694419813643],[111.84264190759802,0.92495969963050584],[111.84381842677902,0.92287706762260768],[111.84485226042352,0.92072266611819487],[111.84563665181008,0.91953769420928211],[111.84738399857275,0.91813707836354297],[111.84948812167954,0.91720310903627933],[111.85037958904684,0.91634123565955861],[111.8518413938653,0.91407902792485629],[111.85337477662472,0.91285797611476482],[111.8555857239021,0.91120593320732723],[111.85779671074965,0.90973340307414219],[111.86054251722345,0.90750679410331259],[111.86152788820152,0.90607099498049593],[111.86393844000708,0.90318372964543414],[111.86516270599412,0.90197472335484008],[111.8665413558989,0.90004763179280189],[111.86973895209104,0.89794059398326453],[111.8732461443941,0.89791581766093032],[111.87732391516658,0.89755581185130495],[111.87971364406945,0.8979022900587097],[111.88135453898087,0.89891912201989044],[111.88382752172282,0.89940918418653837],[111.88495670238996,0.8983557767977004],[111.88625212543531,0.89647658042991907],[111.88875229917932,0.89470280169297212],[111.89200921825091,0.89223672664365949],[111.89505222727854,0.89015366116257155],[111.8966687208848,0.88862144302521529],[111.89909365644712,0.88713689794951733],[111.90194683477864,0.88670537535284666],[111.90313573132897,0.88682475585784459],[111.90496650370125,0.88648922060110635],[111.90674945372439,0.88505270202063002],[111.90831850539479,0.88402312576670283],[111.90941168530111,0.88165332673969488],[111.91221680656042,0.87921130495777788],[111.91457027479839,0.87724808762919793],[111.91609194029087,0.87693656337177117],[111.91892080724949,0.87439879976483326],[111.92115530507334,0.87212446467236759],[111.92360367876682,0.86937138807911651],[111.92462563956167,0.86750424172743124],[111.92617069642057,0.86563696857126615],[111.92921400582179,0.8650139218550521],[111.92983205140808,0.86436753773170949],[111.93261368687223,0.86324193097038915],[111.93606089889141,0.86139812382441505],[111.93917519358035,0.85941079387310992],[111.94148116772175,0.8578305510391715],[111.94243194537802,0.85660966020770957],[111.94352517924369,0.85455102930660587],[111.94438095341832,0.85376098208371332],[111.94630660876305,0.85265952391796418],[111.94751894704183,0.85151037290540899],[111.9478513778389,0.84969127822995461],[111.94785094076838,0.84789619905041036],[111.94761276611632,0.84622085111141132],[111.94792148089169,0.84464110560259087],[111.94939522870692,0.84294140312329091],[111.95125294117037,0.84112193522918233],[111.95229877536826,0.83970955175448125],[111.95286913800038,0.83856056261993217],[111.95431930199425,0.83767463687502186],[111.95436644535522,0.83597528693002232],[111.95572121825967,0.83391660296888404],[111.95764657772742,0.83164237219779125],[111.95881120517305,0.82987094878529888],[111.95990436979088,0.82754905394574507],[111.96092621727115,0.82527504710577659],[111.96173423025061,0.82364731916851497],[111.96232826483759,0.82206751160640579],[111.96237552600979,0.82084685190073969],[111.96381169295535,0.82052708895406568],[111.97336737280608,0.83532227300452178],[111.97423908116872,0.83667193056521683],[111.97703891441444,0.84100687236929161],[111.97945826428753,0.84395075632238559],[112.00776420625323,0.87839365844064332],[112.00640351221239,0.8784993899349729],[112.0043527027151,0.87820077094886528],[112.00401657030852,0.87823339655403743],[112.00365168118026,0.8782688145541897],[112.00280726544304,0.87835077606752066],[112.00170588102162,0.87919734118440829],[112.00167810725895,0.87921868839180206],[112.00093531221489,0.88005657864823661],[112.00087605318731,0.88074469760977081],[112.00108575440413,0.88136422527884406],[112.00135196092435,0.88215069140130709],[112.00206562872586,0.88352670179591541],[112.00244870394454,0.88453780867297382],[112.00393287490226,0.88643297610099125],[112.00427572344597,0.88815612930198995],[112.0052464939306,0.89068328990197188],[112.00656180368435,0.89178602060843559],[112.00695880310639,0.89211885699967297],[112.00901355882877,0.89378409206221932],[112.00986492182869,0.8953801647628552],[112.01026960955494,0.89613884273347821],[112.01055153172786,0.89771743261349002],[112.01066967296708,0.89837894783022421],[112.01078463870022,0.90142331123689701],[112.01082782144681,0.90281625316760028],[112.01133750861914,0.9039340673033962],[112.01149798004781,0.90428600079832222],[112.013218034185,0.90518503955797769],[112.01512430734101,0.9056611811186599],[112.01631052301229,0.9059220312767593],[112.01702655693009,0.90607948727858911],[112.01898703312509,0.90658004813076332],[112.02094949232526,0.90583595536509165],[112.02129646336118,0.90553826268074999],[112.0216278986087,0.90525389884840024],[112.02192024032684,0.90500307882905418],[112.02420266392187,0.90453572094679657],[112.02595030476277,0.90475062833888842],[112.02600000309769,0.90476701488586286],[112.02668802583173,0.90499387067063708],[112.02812606426653,0.90546802203164134],[112.02983831228835,0.90665225469786037],[112.031550571102,0.90787238740080056],[112.03165784043699,0.90884167310480279],[112.03229994019011,0.90930819731551082],[112.03397609572028,0.9089846086528155],[112.03529541914838,0.90801491195867357],[112.03697162414119,0.90787082617771375],[112.03825586321761,0.90894747204822579],[112.03967751780328,0.9105335146100515],[112.04096678678786,0.91034680815869251],[112.04246469668851,0.91031047195076553],[112.04357035558746,0.91048965197592224],[112.04446231488396,0.91167410857332243],[112.04588909110873,0.91231990094274806],[112.04592775566141,0.91232886988149176],[112.04728010938959,0.91264259837726058],[112.04920589963263,0.91228302783952131],[112.05098893599063,0.91160039564181261],[112.05227265525889,0.9108820108961595],[112.05366356562115,0.91084570076850468],[112.05484034200822,0.91030684858225186],[112.0558030779498,0.90958855826539775],[112.05683735136279,0.90958825339521354],[112.05740839208374,0.91098819834672895],[112.05797943370396,0.91238814329824436],[112.05912108886719,0.91371611730500035],[112.06004860016287,0.91450564921638033],[112.06118561662299,0.91535131141392867],[112.06222451974588,0.91579741202099285],[112.0626838511788,0.9164422331226092],[112.06350882627135,0.91708943922628805],[112.06402075365497,0.91770642091466925],[112.06525664427875,0.91795052209897676],[112.06639785697553,0.91777067927347389],[112.06757448857184,0.91676511941477656],[112.06860844092682,0.91568780175072106],[112.06953559069507,0.91525672072111774],[112.06996515726621,0.91522993261531838],[112.07085521899319,0.91539992516646862],[112.07221063940949,0.91597392016035428],[112.07378014343897,0.91687095073382352],[112.07442245633138,0.91805546218989775],[112.07465351644669,0.91863572725708309],[112.07485090234729,0.91963493880143687],[112.07535046315343,0.92049639129544403],[112.07634925111711,0.92110638974816084],[112.07774039080641,0.92185986873801085],[112.07866792638379,0.92272118903167666],[112.07852569140755,0.92412133722996259],[112.07881138623657,0.92537775308090886],[112.07981040442667,0.92674164960749295],[112.08202631056588,0.92805807272191032],[112.08413266668924,0.92850555918425925],[112.08521696219316,0.92882114478004496],[112.08657228458333,0.9290648448667298],[112.08788497820922,0.92985423918185006],[112.08893676771777,0.93125455555332337],[112.09027972083254,0.93215230468513255],[112.0920107808729,0.93263043104957433],[112.09303890472177,0.93362267284811651],[112.09336010568438,0.93434057106054524],[112.09349167020446,0.93492734272274447],[112.09346755488377,0.93581243479604836],[112.09359288260555,0.93637929906543604],[112.09368184174366,0.93678166474205682],[112.09425263874834,0.93731998542904194],[112.09550109469978,0.93796579038894379],[112.0962858682982,0.93846814089204145],[112.09639317360609,0.93947330414971475],[112.09614373584475,0.94015548039112673],[112.09564462469973,0.94076593569940314],[112.09486014068295,0.94119698255474304],[112.09433705271283,0.94116723208213671],[112.09389108880282,0.94065878957155746],[112.09323705414681,0.94006066486781492],[112.09243460437358,0.94006091757734112],[112.09189978564666,0.94053975170822923],[112.09184060486007,0.94137743601987722],[112.09246498527091,0.94218498674780449],[112.09267321519678,0.94278325444366828],[112.09219783716048,0.94326206968878523],[112.09133586126109,0.94299309235736928],[112.09038464923219,0.94248480992609984],[112.08976066901971,0.94296367193595643],[112.08937459186393,0.94389121021123401],[112.08928565430961,0.94460923702672517],[112.08934534591106,0.9454169676189963],[112.08925637058508,0.94601532884439621],[112.08884043413877,0.94649412700238145],[112.08827588472434,0.94694305507795207],[112.08774104711165,0.94736205731311429],[112.08741428024484,0.9478707426407027],[112.08762251017072,0.94846901123594307],[112.0881871720004,0.94837908172928564],[112.08863278337628,0.94775069214080077],[112.08892981955557,0.94721209805993567],[112.08952421117351,0.94715207730655493],[112.09011880693743,0.9477502208960118],[112.08994066203195,0.94831869405254565],[112.08931668092021,0.9487975578610417],[112.08830638073493,0.94942612731398413],[112.08797966063287,0.95008439687745749],[112.08848500318038,0.95038340257201526],[112.08946574264996,0.95026342581650169],[112.09017927915045,0.95104103091887282],[112.09101163138178,0.95160918301741049],[112.09145762676815,0.95220737337160699],[112.09175510541388,0.95307486031657618],[112.09154732514901,0.95391259229234038],[112.09136922880691,0.9546306469868],[112.09133973464111,0.95534865581583972],[112.09175602002438,0.95597677201044462],[112.09255839875118,0.95573718182555467],[112.09318235018543,0.95516856567678587],[112.09386591228213,0.95513843119368858],[112.09469814310489,0.95531766427882303],[112.09493602098064,0.95567658640538866],[112.0947578778738,0.95624505866260279],[112.0944014306815,0.95687342217075866],[112.09455029006392,0.95768112218610213],[112.09567985024501,0.95824917266122611],[112.09645287779813,0.95917633771784949],[112.09692865423403,0.95995401476602638],[112.09692898788251,0.96100109542425116],[112.09648342776802,0.96177906924867784],[112.09585948802498,0.96237760314392062],[112.09508678242912,0.96246760189836777],[112.09434375805802,0.96243792606946954],[112.09366025171926,0.96264756163571974],[112.09354154120922,0.96318609995859106],[112.09407657937072,0.96339534342041588],[112.09476010369588,0.96324553885057185],[112.09496839927226,0.96358076923718272],[112.09454345701499,0.96387273144142682],[112.09127044727336,0.96659845065801164],[112.08840942415566,0.96905165910681035],[112.08677673286002,0.97055083525287955],[112.08514404336302,0.97259515524228846],[112.08336639394395,0.97491204715328195],[112.08187103272201,0.97668379522099258],[112.08050537082624,0.97845554418807978],[112.0778732296659,0.98213183871342835],[112.08030700736253,0.98450601114353731],[112.08102416992961,0.98823219466009959],[112.08123016414083,0.99584388738554708],[112.08103942872674,1.0053836105652181],[112.08064270000068,1.0137308839731531],[112.07989501983934,1.0181351895873831],[112.07881164614059,1.0244829652166914],[112.07728576732438,1.0334382064081638],[112.07617187513199,1.0472908020289537],[112.07549730805442,1.0519647891437671],[112.0753825491654,1.0527599463144952],[112.07426452638686,1.0605065823129962],[112.07203674290145,1.0718115568579378],[112.07116006668377,1.0748532510767177],[112.06901395243199,1.0875926649695771],[112.06487274168376,1.0899633165538489],[112.06540360609165,1.0985076170329648],[112.06483419674089,1.1020499773246684],[112.06388451805617,1.1060711456668741],[112.06398041366526,1.1082729918051655],[112.06550328694721,1.1113359262120639],[112.0672163542514,1.1143030531434306],[112.06436487743724,1.1194737250324351],[112.06056221017786,1.1244532828927163],[112.05771169204104,1.1323045226356498],[112.0568022463267,1.1357460761205402],[112.0567878167044,1.1357466696730967],[112.05585273671454,1.1371953803625843],[112.05584766813547,1.1372032332426443],[112.05462698864471,1.1361630449885638],[112.05362655582098,1.1352275594043704],[112.05296635901027,1.1342251408776178],[112.05199064675105,1.1339043266233944],[112.0502670286005,1.1331533630373087],[112.05025920090145,1.1331499519088197],[112.04885451742211,1.1338917217256039],[112.04884744155629,1.1338954584087446],[112.04654495588511,1.1327000058007002],[112.04516889422916,1.1313911585751839],[112.04516429779414,1.1313867878699853],[112.04301338206199,1.1323577346217917],[112.04300763359549,1.1323603300652394],[112.04150008296256,1.1319017072980273],[112.04149116258714,1.131898993144091],[112.04015744910703,1.132577277119708],[112.03740769371018,1.1336264307152533],[112.03740197941784,1.1336286106719058],[112.03591052305228,1.1332468277789189],[112.03590245073758,1.1332447620362132],[112.03474176681914,1.1336323860258517],[112.03438225473735,1.1337524491162867],[112.03437625985657,1.133754451007178],[112.03309392284632,1.1334430904263399],[112.03224074501441,1.1329366507059149],[112.03223903180594,1.1329356335726857],[112.03114629616471,1.1330239137226954],[112.03018637959781,1.133101464061383],[112.02748882714775,1.1336219197158925],[112.02747687425835,1.1336242255775915],[112.02681029136193,1.1329620619496268],[112.0256615504403,1.132067419975499],[112.02365402891041,1.1313755436464703],[112.02365226713846,1.1313744887416988],[112.02156676719267,1.1301259842268223],[112.02024110264483,1.129956833441156],[112.01783780027438,1.1296335361587921],[112.01500764188927,1.1308092432520311],[112.01274799182647,1.132855826834998],[112.01274683260033,1.132856877243114],[112.01041498406437,1.1326713354138178],[112.0104013035774,1.1326702472341594],[112.00911447715146,1.1350109388038163],[112.00911204268664,1.1350153661662716],[112.00791812791931,1.1345677978655999],[112.00791247028428,1.1345656772642201],[112.00625935898233,1.134971508028741]]]},"properties":{"OBJECTID":475,"nama_kawasan":"Pusat Pertumbuhan Kawasan Perbatasan di Pusat Kegiatan Strategis Nasional (PKSN) Nangabadau dan Kecamatan Perbatasan Prioritas, Kabupaten Kapuas Hulu","delineasi_asal":"Badau","Shape_Length":1.1216980116753403,"Shape_Area":0.052213599776051903}}]}